id,created_by,created_on,deleted,modified_by,modified_on,latitude,longitude,name,postal_code,admin_area_subdivision_major,admin_area_subdivision_middle,admin_area_subdivision_minor,geo_area
1,Fab User,2018-01-23 15:05:17,,Fab User,2018-01-23 15:05:17,48.8534,2.3488,Paris,75000,1,1,1,NULL
2,Fab User,2018-01-23 15:05:17,,Fab User,2018-01-23 15:05:17,48.8592,2.3417,Paris 01,75001,1,1,1,NULL
3,Fab User,2018-01-23 15:05:17,,Fab User,2018-01-23 15:05:17,48.8655,2.3426,Paris 02,75002,1,1,1,NULL
4,Fab User,2018-01-23 15:05:17,,Fab User,2018-01-23 15:05:17,48.8637,2.3615,Paris 03,75003,1,1,1,NULL
5,Fab User,2018-01-23 15:05:17,,Fab User,2018-01-23 15:05:17,48.8601,2.3507,Paris 04,75004,1,1,1,NULL
6,Fab User,2018-01-23 15:05:17,,Fab User,2018-01-23 15:05:17,48.8448,2.3471,Paris 05,75005,1,1,1,NULL
7,Fab User,2018-01-23 15:05:17,,Fab User,2018-01-23 15:05:17,48.8493,2.33,Paris 06,75006,1,1,1,NULL
8,Fab User,2018-01-23 15:05:17,,Fab User,2018-01-23 15:05:17,48.8565,2.321,Paris 07,75007,1,1,1,NULL
9,Fab User,2018-01-23 15:05:17,,Fab User,2018-01-23 15:05:17,48.8763,2.3183,Paris 08,75008,1,1,1,NULL
10,Fab User,2018-01-23 15:05:17,,Fab User,2018-01-23 15:05:17,48.8718,2.3399,Paris 09,75009,1,1,1,NULL
11,Fab User,2018-01-23 15:05:17,,Fab User,2018-01-23 15:05:17,48.8709,2.3561,Paris 10,75010,1,1,1,NULL
12,Fab User,2018-01-23 15:05:17,,Fab User,2018-01-23 15:05:17,48.8574,2.3795,Paris 11,75011,1,1,1,NULL
13,Fab User,2018-01-23 15:05:18,,Fab User,2018-01-23 15:05:18,48.8412,2.3876,Paris 12,75012,1,1,1,NULL
14,Fab User,2018-01-23 15:05:18,,Fab User,2018-01-23 15:05:18,48.8322,2.3561,Paris 13,75013,1,1,1,NULL
15,Fab User,2018-01-23 15:05:18,,Fab User,2018-01-23 15:05:18,48.8331,2.3264,Paris 14,75014,1,1,1,NULL
16,Fab User,2018-01-23 15:05:18,,Fab User,2018-01-23 15:05:18,48.8412,2.3003,Paris 15,75015,1,1,1,NULL
17,Fab User,2018-01-23 15:05:18,,Fab User,2018-01-23 15:05:18,48.8637,2.2769,Paris 16,75016,1,1,1,NULL
18,Fab User,2018-01-23 15:05:18,,Fab User,2018-01-23 15:05:18,48.8835,2.3219,Paris 17,75017,1,1,1,NULL
19,Fab User,2018-01-23 15:05:18,,Fab User,2018-01-23 15:05:18,48.8925,2.3444,Paris 18,75018,1,1,1,NULL
20,Fab User,2018-01-23 15:05:18,,Fab User,2018-01-23 15:05:18,48.8817,2.3822,Paris 19,75019,1,1,1,NULL
21,Fab User,2018-01-23 15:05:18,,Fab User,2018-01-23 15:05:18,48.8646,2.3984,Paris 20,75020,1,1,1,NULL
22,Fab User,2018-01-23 15:05:18,,Fab User,2018-01-23 15:05:18,48.8592,2.3417,Paris 01,75021 CEDEX 01,1,1,1,NULL
23,Fab User,2018-01-23 15:05:18,,Fab User,2018-01-23 15:05:18,48.8592,2.3417,Paris 01,75023 CEDEX 01,1,1,1,NULL
24,Fab User,2018-01-23 15:05:18,,Fab User,2018-01-23 15:05:18,48.8592,2.3417,Paris 01,75024 CEDEX 01,1,1,1,NULL
25,Fab User,2018-01-23 15:05:18,,Fab User,2018-01-23 15:05:18,48.8592,2.3417,Paris 01,75026 CEDEX 01,1,1,1,NULL
26,Fab User,2018-01-23 15:05:18,,Fab User,2018-01-23 15:05:18,48.8592,2.3417,Paris 01,75028 CEDEX 01,1,1,1,NULL
27,Fab User,2018-01-23 15:05:18,,Fab User,2018-01-23 15:05:18,48.8592,2.3417,Paris 01,75029 CEDEX 01,1,1,1,NULL
28,Fab User,2018-01-23 15:05:18,,Fab User,2018-01-23 15:05:18,48.8592,2.3417,Paris 01,75030 CEDEX 01,1,1,1,NULL
29,Fab User,2018-01-23 15:05:18,,Fab User,2018-01-23 15:05:18,48.8592,2.3417,Paris 01,75031 CEDEX 01,1,1,1,NULL
30,Fab User,2018-01-23 15:05:18,,Fab User,2018-01-23 15:05:18,48.8592,2.3417,Paris 01,75032 CEDEX 01,1,1,1,NULL
31,Fab User,2018-01-23 15:05:18,,Fab User,2018-01-23 15:05:18,48.8592,2.3417,Paris 01,75033 CEDEX 01,1,1,1,NULL
32,Fab User,2018-01-23 15:05:18,,Fab User,2018-01-23 15:05:18,48.8592,2.3417,Paris 01,75034 CEDEX 01,1,1,1,NULL
33,Fab User,2018-01-23 15:05:18,,Fab User,2018-01-23 15:05:18,48.8592,2.3417,Paris 01,75035 CEDEX 01,1,1,1,NULL
34,Fab User,2018-01-23 15:05:18,,Fab User,2018-01-23 15:05:18,48.8592,2.3417,Paris 01,75036 CEDEX 01,1,1,1,NULL
35,Fab User,2018-01-23 15:05:18,,Fab User,2018-01-23 15:05:18,48.8592,2.3417,Paris 01,75038 CEDEX 01,1,1,1,NULL
36,Fab User,2018-01-23 15:05:18,,Fab User,2018-01-23 15:05:18,48.8592,2.3417,Paris 01,75039 CEDEX 01,1,1,1,NULL
37,Fab User,2018-01-23 15:05:18,,Fab User,2018-01-23 15:05:18,48.8592,2.3417,Paris 01,75040 CEDEX 01,1,1,1,NULL
38,Fab User,2018-01-23 15:05:18,,Fab User,2018-01-23 15:05:18,48.8592,2.3417,Paris 01,75041 CEDEX 01,1,1,1,NULL
39,Fab User,2018-01-23 15:05:18,,Fab User,2018-01-23 15:05:18,48.8592,2.3417,Paris 01,75042 CEDEX 01,1,1,1,NULL
40,Fab User,2018-01-23 15:05:18,,Fab User,2018-01-23 15:05:18,48.8592,2.3417,Paris 01,75043 CEDEX 01,1,1,1,NULL
41,Fab User,2018-01-23 15:05:18,,Fab User,2018-01-23 15:05:18,48.8592,2.3417,Paris 01,75044 CEDEX 01,1,1,1,NULL
42,Fab User,2018-01-23 15:05:18,,Fab User,2018-01-23 15:05:18,48.8592,2.3417,Paris 01,75045 CEDEX 01,1,1,1,NULL
43,Fab User,2018-01-23 15:05:18,,Fab User,2018-01-23 15:05:18,48.8592,2.3417,Paris 01,75046 CEDEX 01,1,1,1,NULL
44,Fab User,2018-01-23 15:05:18,,Fab User,2018-01-23 15:05:18,48.8592,2.3417,Paris 01,75047 CEDEX 01,1,1,1,NULL
45,Fab User,2018-01-23 15:05:18,,Fab User,2018-01-23 15:05:18,48.8592,2.3417,Paris 01,75048 CEDEX 01,1,1,1,NULL
46,Fab User,2018-01-23 15:05:18,,Fab User,2018-01-23 15:05:18,48.8592,2.3417,Paris 01,75049 CEDEX 01,1,1,1,NULL
47,Fab User,2018-01-23 15:05:18,,Fab User,2018-01-23 15:05:18,48.8592,2.3417,Paris 01,75051 CEDEX 01,1,1,1,NULL
48,Fab User,2018-01-23 15:05:18,,Fab User,2018-01-23 15:05:18,48.8592,2.3417,Paris 01,75052 CEDEX 01,1,1,1,NULL
49,Fab User,2018-01-23 15:05:18,,Fab User,2018-01-23 15:05:18,48.8592,2.3417,Paris 01,75053 CEDEX 01,1,1,1,NULL
50,Fab User,2018-01-23 15:05:18,,Fab User,2018-01-23 15:05:18,48.8592,2.3417,Paris 01,75054 CEDEX 01,1,1,1,NULL
51,Fab User,2018-01-23 15:05:18,,Fab User,2018-01-23 15:05:18,48.8592,2.3417,Paris 01,75055 CEDEX 01,1,1,1,NULL
52,Fab User,2018-01-23 15:05:18,,Fab User,2018-01-23 15:05:18,48.8592,2.3417,Paris 01,75056 CEDEX 01,1,1,1,NULL
53,Fab User,2018-01-23 15:05:18,,Fab User,2018-01-23 15:05:18,48.8592,2.3417,Paris 01,75058 CEDEX 01,1,1,1,NULL
54,Fab User,2018-01-23 15:05:18,,Fab User,2018-01-23 15:05:18,48.8592,2.3417,Paris 01,75059 CEDEX 01,1,1,1,NULL
55,Fab User,2018-01-23 15:05:18,,Fab User,2018-01-23 15:05:18,48.8655,2.3426,Paris 02,75060 CEDEX 02,1,1,1,NULL
56,Fab User,2018-01-23 15:05:18,,Fab User,2018-01-23 15:05:18,48.8655,2.3426,Paris 02,75061 CEDEX 02,1,1,1,NULL
57,Fab User,2018-01-23 15:05:18,,Fab User,2018-01-23 15:05:18,48.8655,2.3426,Paris 02,75062 CEDEX 02,1,1,1,NULL
58,Fab User,2018-01-23 15:05:18,,Fab User,2018-01-23 15:05:18,48.8655,2.3426,Paris 02,75063 CEDEX 02,1,1,1,NULL
59,Fab User,2018-01-23 15:05:18,,Fab User,2018-01-23 15:05:18,48.8655,2.3426,Paris 02,75064 CEDEX 02,1,1,1,NULL
60,Fab User,2018-01-23 15:05:18,,Fab User,2018-01-23 15:05:18,48.8655,2.3426,Paris 02,75065 CEDEX 02,1,1,1,NULL
61,Fab User,2018-01-23 15:05:18,,Fab User,2018-01-23 15:05:18,48.8655,2.3426,Paris 02,75066 CEDEX 02,1,1,1,NULL
62,Fab User,2018-01-23 15:05:19,,Fab User,2018-01-23 15:05:19,48.8655,2.3426,Paris 02,75067 CEDEX 02,1,1,1,NULL
63,Fab User,2018-01-23 15:05:19,,Fab User,2018-01-23 15:05:19,48.8655,2.3426,Paris 02,75068 CEDEX 02,1,1,1,NULL
64,Fab User,2018-01-23 15:05:19,,Fab User,2018-01-23 15:05:19,48.8655,2.3426,Paris 02,75069 CEDEX 02,1,1,1,NULL
65,Fab User,2018-01-23 15:05:19,,Fab User,2018-01-23 15:05:19,48.8655,2.3426,Paris 02,75072 CEDEX 02,1,1,1,NULL
66,Fab User,2018-01-23 15:05:19,,Fab User,2018-01-23 15:05:19,48.8655,2.3426,Paris 02,75073 CEDEX 02,1,1,1,NULL
67,Fab User,2018-01-23 15:05:19,,Fab User,2018-01-23 15:05:19,48.8655,2.3426,Paris 02,75074 CEDEX 02,1,1,1,NULL
68,Fab User,2018-01-23 15:05:19,,Fab User,2018-01-23 15:05:19,48.8655,2.3426,Paris 02,75075 CEDEX 02,1,1,1,NULL
69,Fab User,2018-01-23 15:05:19,,Fab User,2018-01-23 15:05:19,48.8655,2.3426,Paris 02,75076 CEDEX 02,1,1,1,NULL
70,Fab User,2018-01-23 15:05:19,,Fab User,2018-01-23 15:05:19,48.8655,2.3426,Paris 02,75077 CEDEX 02,1,1,1,NULL
71,Fab User,2018-01-23 15:05:19,,Fab User,2018-01-23 15:05:19,48.8655,2.3426,Paris 02,75078 CEDEX 02,1,1,1,NULL
72,Fab User,2018-01-23 15:05:19,,Fab User,2018-01-23 15:05:19,48.8655,2.3426,Paris 02,75079 CEDEX 02,1,1,1,NULL
73,Fab User,2018-01-23 15:05:19,,Fab User,2018-01-23 15:05:19,48.8655,2.3426,Paris 02,75080 CEDEX 02,1,1,1,NULL
74,Fab User,2018-01-23 15:05:19,,Fab User,2018-01-23 15:05:19,48.8655,2.3426,Paris 02,75081 CEDEX 02,1,1,1,NULL
75,Fab User,2018-01-23 15:05:19,,Fab User,2018-01-23 15:05:19,48.8655,2.3426,Paris 02,75082 CEDEX 02,1,1,1,NULL
76,Fab User,2018-01-23 15:05:19,,Fab User,2018-01-23 15:05:19,48.8655,2.3426,Paris 02,75083 CEDEX 02,1,1,1,NULL
77,Fab User,2018-01-23 15:05:19,,Fab User,2018-01-23 15:05:19,48.8655,2.3426,Paris 02,75084 CEDEX 02,1,1,1,NULL
78,Fab User,2018-01-23 15:05:19,,Fab User,2018-01-23 15:05:19,48.8655,2.3426,Paris 02,75085 CEDEX 02,1,1,1,NULL
79,Fab User,2018-01-23 15:05:19,,Fab User,2018-01-23 15:05:19,48.8655,2.3426,Paris 02,75086 CEDEX 02,1,1,1,NULL
80,Fab User,2018-01-23 15:05:19,,Fab User,2018-01-23 15:05:19,48.8655,2.3426,Paris 02,75087 CEDEX 02,1,1,1,NULL
81,Fab User,2018-01-23 15:05:19,,Fab User,2018-01-23 15:05:19,48.8655,2.3426,Paris 02,75088 CEDEX 02,1,1,1,NULL
82,Fab User,2018-01-23 15:05:19,,Fab User,2018-01-23 15:05:19,48.8655,2.3426,Paris 02,75089 CEDEX 02,1,1,1,NULL
83,Fab User,2018-01-23 15:05:19,,Fab User,2018-01-23 15:05:19,48.8655,2.3426,Paris 02,75090 CEDEX 02,1,1,1,NULL
84,Fab User,2018-01-23 15:05:19,,Fab User,2018-01-23 15:05:19,48.8655,2.3426,Paris 02,75092 CEDEX 02,1,1,1,NULL
85,Fab User,2018-01-23 15:05:19,,Fab User,2018-01-23 15:05:19,48.8655,2.3426,Paris 02,75093 CEDEX 02,1,1,1,NULL
86,Fab User,2018-01-23 15:05:19,,Fab User,2018-01-23 15:05:19,48.8655,2.3426,Paris 02,75094 CEDEX 02,1,1,1,NULL
87,Fab User,2018-01-23 15:05:19,,Fab User,2018-01-23 15:05:19,48.8655,2.3426,Paris 02,75095 CEDEX 02,1,1,1,NULL
88,Fab User,2018-01-23 15:05:19,,Fab User,2018-01-23 15:05:19,48.8655,2.3426,Paris 02,75096 CEDEX 02,1,1,1,NULL
89,Fab User,2018-01-23 15:05:19,,Fab User,2018-01-23 15:05:19,48.8655,2.3426,Paris 02,75097 CEDEX 02,1,1,1,NULL
90,Fab User,2018-01-23 15:05:19,,Fab User,2018-01-23 15:05:19,48.8592,2.3417,Paris 01,75100 CEDEX 01,1,1,1,NULL
91,Fab User,2018-01-23 15:05:19,,Fab User,2018-01-23 15:05:19,48.8655,2.3426,Paris 02,75101 CEDEX 02,1,1,1,NULL
92,Fab User,2018-01-23 15:05:19,,Fab User,2018-01-23 15:05:19,48.8655,2.3426,Paris 02,75102 CEDEX 02,1,1,1,NULL
93,Fab User,2018-01-23 15:05:19,,Fab User,2018-01-23 15:05:19,48.8655,2.3426,Paris 02,75103 CEDEX 02,1,1,1,NULL
94,Fab User,2018-01-23 15:05:19,,Fab User,2018-01-23 15:05:19,48.8655,2.3426,Paris 02,75104 CEDEX 02,1,1,1,NULL
95,Fab User,2018-01-23 15:05:19,,Fab User,2018-01-23 15:05:19,48.8655,2.3426,Paris 02,75105 CEDEX 02,1,1,1,NULL
96,Fab User,2018-01-23 15:05:19,,Fab User,2018-01-23 15:05:19,48.8655,2.3426,Paris 02,75106 CEDEX 02,1,1,1,NULL
97,Fab User,2018-01-23 15:05:19,,Fab User,2018-01-23 15:05:19,48.8655,2.3426,Paris 02,75107 CEDEX 02,1,1,1,NULL
98,Fab User,2018-01-23 15:05:19,,Fab User,2018-01-23 15:05:19,48.8655,2.3426,Paris 02,75108 CEDEX 02,1,1,1,NULL
99,Fab User,2018-01-23 15:05:19,,Fab User,2018-01-23 15:05:19,48.8655,2.3426,Paris 02,75109 CEDEX 02,1,1,1,NULL
100,Fab User,2018-01-23 15:05:19,,Fab User,2018-01-23 15:05:19,48.8655,2.3426,Paris 02,75110 CEDEX 02,1,1,1,NULL
101,Fab User,2018-01-23 15:05:19,,Fab User,2018-01-23 15:05:19,48.8655,2.3426,Paris 02,75111 CEDEX 02,1,1,1,NULL
102,Fab User,2018-01-23 15:05:19,,Fab User,2018-01-23 15:05:19,48.8655,2.3426,Paris 02,75112 CEDEX 02,1,1,1,NULL
103,Fab User,2018-01-23 15:05:19,,Fab User,2018-01-23 15:05:19,48.8655,2.3426,Paris 02,75113 CEDEX 02,1,1,1,NULL
104,Fab User,2018-01-23 15:05:19,,Fab User,2018-01-23 15:05:19,48.8763,2.3183,Paris 08,75114 CEDEX 08,1,1,1,NULL
105,Fab User,2018-01-23 15:05:19,,Fab User,2018-01-23 15:05:19,48.8412,2.3003,Paris 15,75115 CEDEX 15,1,1,1,NULL
106,Fab User,2018-01-23 15:05:19,,Fab User,2018-01-23 15:05:19,48.8637,2.2769,Paris 16,75116,1,1,1,NULL
107,Fab User,2018-01-23 15:05:19,,Fab User,2018-01-23 15:05:19,48.8655,2.3426,Paris 02,75118 CEDEX 02,1,1,1,NULL
108,Fab User,2018-01-23 15:05:19,,Fab User,2018-01-23 15:05:19,48.8655,2.3426,Paris 02,75119 CEDEX 02,1,1,1,NULL
109,Fab User,2018-01-23 15:05:19,,Fab User,2018-01-23 15:05:19,48.8655,2.3426,Paris 02,75120 CEDEX 02,1,1,1,NULL
110,Fab User,2018-01-23 15:05:19,,Fab User,2018-01-23 15:05:19,48.8637,2.3615,Paris 03,75122 CEDEX 03,1,1,1,NULL
111,Fab User,2018-01-23 15:05:19,,Fab User,2018-01-23 15:05:19,48.8637,2.3615,Paris 03,75123 CEDEX 03,1,1,1,NULL
112,Fab User,2018-01-23 15:05:19,,Fab User,2018-01-23 15:05:19,48.8637,2.3615,Paris 03,75124 CEDEX 03,1,1,1,NULL
113,Fab User,2018-01-23 15:05:19,,Fab User,2018-01-23 15:05:19,48.8574,2.3795,Paris 11,75125 CEDEX 11,1,1,1,NULL
114,Fab User,2018-01-23 15:05:19,,Fab User,2018-01-23 15:05:19,48.8574,2.3795,Paris 11,75126 CEDEX 11,1,1,1,NULL
115,Fab User,2018-01-23 15:05:19,,Fab User,2018-01-23 15:05:19,48.8574,2.3795,Paris 11,75127 CEDEX 11,1,1,1,NULL
116,Fab User,2018-01-23 15:05:19,,Fab User,2018-01-23 15:05:19,48.8574,2.3795,Paris 11,75128 CEDEX 11,1,1,1,NULL
117,Fab User,2018-01-23 15:05:19,,Fab User,2018-01-23 15:05:19,48.8574,2.3795,Paris 11,75129 CEDEX 11,1,1,1,NULL
118,Fab User,2018-01-23 15:05:19,,Fab User,2018-01-23 15:05:19,48.8574,2.3795,Paris 11,75130 CEDEX 11,1,1,1,NULL
119,Fab User,2018-01-23 15:05:19,,Fab User,2018-01-23 15:05:19,48.8412,2.3876,Paris 12,75131 CEDEX 12,1,1,1,NULL
120,Fab User,2018-01-23 15:05:19,,Fab User,2018-01-23 15:05:19,48.8574,2.3795,Paris 11,75134 CEDEX 11,1,1,1,NULL
121,Fab User,2018-01-23 15:05:19,,Fab User,2018-01-23 15:05:19,48.8565,2.321,Paris 07,75138 CEDEX 07,1,1,1,NULL
122,Fab User,2018-01-23 15:05:19,,Fab User,2018-01-23 15:05:19,48.8637,2.3615,Paris 03,75139 CEDEX 03,1,1,1,NULL
123,Fab User,2018-01-23 15:05:19,,Fab User,2018-01-23 15:05:19,48.8637,2.3615,Paris 03,75140 CEDEX 03,1,1,1,NULL
124,Fab User,2018-01-23 15:05:19,,Fab User,2018-01-23 15:05:19,48.8637,2.3615,Paris 03,75141 CEDEX 03,1,1,1,NULL
125,Fab User,2018-01-23 15:05:19,,Fab User,2018-01-23 15:05:19,48.8637,2.3615,Paris 03,75142 CEDEX 03,1,1,1,NULL
126,Fab User,2018-01-23 15:05:19,,Fab User,2018-01-23 15:05:19,48.8817,2.3822,Paris 19,75144 CEDEX 19,1,1,1,NULL
127,Fab User,2018-01-23 15:05:20,,Fab User,2018-01-23 15:05:20,48.8637,2.3615,Paris 03,75150 CEDEX 03,1,1,1,NULL
128,Fab User,2018-01-23 15:05:20,,Fab User,2018-01-23 15:05:20,48.8637,2.3615,Paris 03,75151 CEDEX 03,1,1,1,NULL
129,Fab User,2018-01-23 15:05:20,,Fab User,2018-01-23 15:05:20,48.8637,2.3615,Paris 03,75152 CEDEX 03,1,1,1,NULL
130,Fab User,2018-01-23 15:05:20,,Fab User,2018-01-23 15:05:20,48.8637,2.3615,Paris 03,75153 CEDEX 03,1,1,1,NULL
131,Fab User,2018-01-23 15:05:20,,Fab User,2018-01-23 15:05:20,48.8637,2.3615,Paris 03,75154 CEDEX 03,1,1,1,NULL
132,Fab User,2018-01-23 15:05:20,,Fab User,2018-01-23 15:05:20,48.8637,2.3615,Paris 03,75155 CEDEX 03,1,1,1,NULL
133,Fab User,2018-01-23 15:05:20,,Fab User,2018-01-23 15:05:20,48.8637,2.3615,Paris 03,75156 CEDEX 03,1,1,1,NULL
134,Fab User,2018-01-23 15:05:20,,Fab User,2018-01-23 15:05:20,48.8637,2.3615,Paris 03,75157 CEDEX 03,1,1,1,NULL
135,Fab User,2018-01-23 15:05:20,,Fab User,2018-01-23 15:05:20,48.8331,2.3264,Paris 14,75158 CEDEX 14,1,1,1,NULL
136,Fab User,2018-01-23 15:05:20,,Fab User,2018-01-23 15:05:20,48.8331,2.3264,Paris 14,75159 CEDEX 14,1,1,1,NULL
137,Fab User,2018-01-23 15:05:20,,Fab User,2018-01-23 15:05:20,48.8601,2.3507,Paris 04,75161 CEDEX 04,1,1,1,NULL
138,Fab User,2018-01-23 15:05:20,,Fab User,2018-01-23 15:05:20,48.8601,2.3507,Paris 04,75162 CEDEX 04,1,1,1,NULL
139,Fab User,2018-01-23 15:05:20,,Fab User,2018-01-23 15:05:20,48.8601,2.3507,Paris 04,75163 CEDEX 04,1,1,1,NULL
140,Fab User,2018-01-23 15:05:20,,Fab User,2018-01-23 15:05:20,48.8817,2.3822,Paris 19,75164 CEDEX 19,1,1,1,NULL
141,Fab User,2018-01-23 15:05:20,,Fab User,2018-01-23 15:05:20,48.8817,2.3822,Paris 19,75165 CEDEX 19,1,1,1,NULL
142,Fab User,2018-01-23 15:05:20,,Fab User,2018-01-23 15:05:20,48.8817,2.3822,Paris 19,75166 CEDEX 19,1,1,1,NULL
143,Fab User,2018-01-23 15:05:20,,Fab User,2018-01-23 15:05:20,48.8817,2.3822,Paris 19,75167 CEDEX 19,1,1,1,NULL
144,Fab User,2018-01-23 15:05:20,,Fab User,2018-01-23 15:05:20,48.8817,2.3822,Paris 19,75168 CEDEX 19,1,1,1,NULL
145,Fab User,2018-01-23 15:05:20,,Fab User,2018-01-23 15:05:20,48.8817,2.3822,Paris 19,75169 CEDEX 19,1,1,1,NULL
146,Fab User,2018-01-23 15:05:20,,Fab User,2018-01-23 15:05:20,48.8817,2.3822,Paris 19,75170 CEDEX 19,1,1,1,NULL
147,Fab User,2018-01-23 15:05:20,,Fab User,2018-01-23 15:05:20,48.8817,2.3822,Paris 19,75171 CEDEX 19,1,1,1,NULL
148,Fab User,2018-01-23 15:05:20,,Fab User,2018-01-23 15:05:20,48.8835,2.3219,Paris 17,75172 CEDEX 17,1,1,1,NULL
149,Fab User,2018-01-23 15:05:20,,Fab User,2018-01-23 15:05:20,48.8835,2.3219,Paris 17,75174 CEDEX 17,1,1,1,NULL
150,Fab User,2018-01-23 15:05:20,,Fab User,2018-01-23 15:05:20,48.8835,2.3219,Paris 17,75176 CEDEX 17,1,1,1,NULL
151,Fab User,2018-01-23 15:05:20,,Fab User,2018-01-23 15:05:20,48.8835,2.3219,Paris 17,75177 CEDEX 17,1,1,1,NULL
152,Fab User,2018-01-23 15:05:20,,Fab User,2018-01-23 15:05:20,48.8637,2.2769,Paris 16,75179 CEDEX 16,1,1,1,NULL
153,Fab User,2018-01-23 15:05:20,,Fab User,2018-01-23 15:05:20,48.8601,2.3507,Paris 04,75180 CEDEX 04,1,1,1,NULL
154,Fab User,2018-01-23 15:05:20,,Fab User,2018-01-23 15:05:20,48.8601,2.3507,Paris 04,75181 CEDEX 04,1,1,1,NULL
155,Fab User,2018-01-23 15:05:20,,Fab User,2018-01-23 15:05:20,48.8601,2.3507,Paris 04,75182 CEDEX 04,1,1,1,NULL
156,Fab User,2018-01-23 15:05:20,,Fab User,2018-01-23 15:05:20,48.8601,2.3507,Paris 04,75184 CEDEX 04,1,1,1,NULL
157,Fab User,2018-01-23 15:05:20,,Fab User,2018-01-23 15:05:20,48.8601,2.3507,Paris 04,75186 CEDEX 04,1,1,1,NULL
158,Fab User,2018-01-23 15:05:20,,Fab User,2018-01-23 15:05:20,48.8601,2.3507,Paris 04,75188 CEDEX 04,1,1,1,NULL
159,Fab User,2018-01-23 15:05:20,,Fab User,2018-01-23 15:05:20,48.8601,2.3507,Paris 04,75189 CEDEX 04,1,1,1,NULL
160,Fab User,2018-01-23 15:05:20,,Fab User,2018-01-23 15:05:20,48.8601,2.3507,Paris 04,75191 CEDEX 04,1,1,1,NULL
161,Fab User,2018-01-23 15:05:20,,Fab User,2018-01-23 15:05:20,48.8601,2.3507,Paris 04,75192 CEDEX 04,1,1,1,NULL
162,Fab User,2018-01-23 15:05:20,,Fab User,2018-01-23 15:05:20,48.8601,2.3507,Paris 04,75194 CEDEX 04,1,1,1,NULL
163,Fab User,2018-01-23 15:05:20,,Fab User,2018-01-23 15:05:20,48.8601,2.3507,Paris 04,75195 CEDEX 04,1,1,1,NULL
164,Fab User,2018-01-23 15:05:20,,Fab User,2018-01-23 15:05:20,48.8601,2.3507,Paris 04,75196 CEDEX 04,1,1,1,NULL
165,Fab User,2018-01-23 15:05:20,,Fab User,2018-01-23 15:05:20,48.8601,2.3507,Paris 04,75197 CEDEX 04,1,1,1,NULL
166,Fab User,2018-01-23 15:05:20,,Fab User,2018-01-23 15:05:20,48.8601,2.3507,Paris 04,75198 CEDEX 04,1,1,1,NULL
167,Fab User,2018-01-23 15:05:20,,Fab User,2018-01-23 15:05:20,48.8322,2.3561,Paris 13,75201 CEDEX 13,1,1,1,NULL
168,Fab User,2018-01-23 15:05:20,,Fab User,2018-01-23 15:05:20,48.8637,2.2769,Paris 16,75202 CEDEX 16,1,1,1,NULL
169,Fab User,2018-01-23 15:05:20,,Fab User,2018-01-23 15:05:20,48.8637,2.2769,Paris 16,75203 CEDEX 16,1,1,1,NULL
170,Fab User,2018-01-23 15:05:20,,Fab User,2018-01-23 15:05:20,48.8322,2.3561,Paris 13,75204 CEDEX 13,1,1,1,NULL
171,Fab User,2018-01-23 15:05:20,,Fab User,2018-01-23 15:05:20,48.8322,2.3561,Paris 13,75205 CEDEX 13,1,1,1,NULL
172,Fab User,2018-01-23 15:05:20,,Fab User,2018-01-23 15:05:20,48.8322,2.3561,Paris 13,75206 CEDEX 13,1,1,1,NULL
173,Fab User,2018-01-23 15:05:20,,Fab User,2018-01-23 15:05:20,48.8637,2.2769,Paris 16,75207 CEDEX 16,1,1,1,NULL
174,Fab User,2018-01-23 15:05:20,,Fab User,2018-01-23 15:05:20,48.8637,2.2769,Paris 16,75208 CEDEX 16,1,1,1,NULL
175,Fab User,2018-01-23 15:05:20,,Fab User,2018-01-23 15:05:20,48.8637,2.2769,Paris 16,75209 CEDEX 16,1,1,1,NULL
176,Fab User,2018-01-23 15:05:20,,Fab User,2018-01-23 15:05:20,48.8322,2.3561,Paris 13,75210 CEDEX 13,1,1,1,NULL
177,Fab User,2018-01-23 15:05:20,,Fab User,2018-01-23 15:05:20,48.8322,2.3561,Paris 13,75211 CEDEX 13,1,1,1,NULL
178,Fab User,2018-01-23 15:05:20,,Fab User,2018-01-23 15:05:20,48.8322,2.3561,Paris 13,75212 CEDEX 13,1,1,1,NULL
179,Fab User,2018-01-23 15:05:20,,Fab User,2018-01-23 15:05:20,48.8637,2.2769,Paris 16,75213 CEDEX 16,1,1,1,NULL
180,Fab User,2018-01-23 15:05:20,,Fab User,2018-01-23 15:05:20,48.8322,2.3561,Paris 13,75214 CEDEX 13,1,1,1,NULL
181,Fab User,2018-01-23 15:05:20,,Fab User,2018-01-23 15:05:20,48.8637,2.2769,Paris 16,75215 CEDEX 16,1,1,1,NULL
182,Fab User,2018-01-23 15:05:20,,Fab User,2018-01-23 15:05:20,48.8637,2.2769,Paris 16,75216 CEDEX 16,1,1,1,NULL
183,Fab User,2018-01-23 15:05:20,,Fab User,2018-01-23 15:05:20,48.8637,2.2769,Paris 16,75217 CEDEX 16,1,1,1,NULL
184,Fab User,2018-01-23 15:05:20,,Fab User,2018-01-23 15:05:20,48.8637,2.2769,Paris 16,75218 CEDEX 16,1,1,1,NULL
185,Fab User,2018-01-23 15:05:20,,Fab User,2018-01-23 15:05:20,48.8637,2.2769,Paris 16,75219 CEDEX 16,1,1,1,NULL
186,Fab User,2018-01-23 15:05:20,,Fab User,2018-01-23 15:05:20,48.8637,2.2769,Paris 16,75220 CEDEX 16,1,1,1,NULL
187,Fab User,2018-01-23 15:05:20,,Fab User,2018-01-23 15:05:20,48.8448,2.3471,Paris 05,75221 CEDEX 05,1,1,1,NULL
188,Fab User,2018-01-23 15:05:20,,Fab User,2018-01-23 15:05:20,48.8448,2.3471,Paris 05,75222 CEDEX 05,1,1,1,NULL
189,Fab User,2018-01-23 15:05:20,,Fab User,2018-01-23 15:05:20,48.8448,2.3471,Paris 05,75223 CEDEX 05,1,1,1,NULL
190,Fab User,2018-01-23 15:05:20,,Fab User,2018-01-23 15:05:20,48.8448,2.3471,Paris 05,75224 CEDEX 05,1,1,1,NULL
191,Fab User,2018-01-23 15:05:20,,Fab User,2018-01-23 15:05:20,48.8448,2.3471,Paris 05,75226 CEDEX 05,1,1,1,NULL
192,Fab User,2018-01-23 15:05:20,,Fab User,2018-01-23 15:05:20,48.8448,2.3471,Paris 05,75227 CEDEX 05,1,1,1,NULL
193,Fab User,2018-01-23 15:05:20,,Fab User,2018-01-23 15:05:20,48.8448,2.3471,Paris 05,75228 CEDEX 05,1,1,1,NULL
194,Fab User,2018-01-23 15:05:20,,Fab User,2018-01-23 15:05:20,48.8448,2.3471,Paris 05,75229 CEDEX 05,1,1,1,NULL
195,Fab User,2018-01-23 15:05:20,,Fab User,2018-01-23 15:05:20,48.8448,2.3471,Paris 05,75230 CEDEX 05,1,1,1,NULL
196,Fab User,2018-01-23 15:05:20,,Fab User,2018-01-23 15:05:20,48.8448,2.3471,Paris 05,75231 CEDEX 05,1,1,1,NULL
197,Fab User,2018-01-23 15:05:20,,Fab User,2018-01-23 15:05:20,48.8448,2.3471,Paris 05,75232 CEDEX 05,1,1,1,NULL
198,Fab User,2018-01-23 15:05:20,,Fab User,2018-01-23 15:05:20,48.8448,2.3471,Paris 05,75233 CEDEX 05,1,1,1,NULL
199,Fab User,2018-01-23 15:05:20,,Fab User,2018-01-23 15:05:20,48.8448,2.3471,Paris 05,75234 CEDEX 05,1,1,1,NULL
200,Fab User,2018-01-23 15:05:20,,Fab User,2018-01-23 15:05:20,48.8448,2.3471,Paris 05,75235 CEDEX 05,1,1,1,NULL
201,Fab User,2018-01-23 15:05:20,,Fab User,2018-01-23 15:05:20,48.8448,2.3471,Paris 05,75236 CEDEX 05,1,1,1,NULL
202,Fab User,2018-01-23 15:05:20,,Fab User,2018-01-23 15:05:20,48.8448,2.3471,Paris 05,75237 CEDEX 05,1,1,1,NULL
203,Fab User,2018-01-23 15:05:21,,Fab User,2018-01-23 15:05:21,48.8448,2.3471,Paris 05,75238 CEDEX 05,1,1,1,NULL
204,Fab User,2018-01-23 15:05:21,,Fab User,2018-01-23 15:05:21,48.8448,2.3471,Paris 05,75239 CEDEX 05,1,1,1,NULL
205,Fab User,2018-01-23 15:05:21,,Fab User,2018-01-23 15:05:21,48.8448,2.3471,Paris 05,75240 CEDEX 05,1,1,1,NULL
206,Fab User,2018-01-23 15:05:21,,Fab User,2018-01-23 15:05:21,48.8448,2.3471,Paris 05,75241 CEDEX 05,1,1,1,NULL
207,Fab User,2018-01-23 15:05:21,,Fab User,2018-01-23 15:05:21,48.8322,2.3561,Paris 13,75243 CEDEX 13,1,1,1,NULL
208,Fab User,2018-01-23 15:05:21,,Fab User,2018-01-23 15:05:21,48.8322,2.3561,Paris 13,75244 CEDEX 13,1,1,1,NULL
209,Fab User,2018-01-23 15:05:21,,Fab User,2018-01-23 15:05:21,48.8448,2.3471,Paris 05,75248 CEDEX 05,1,1,1,NULL
210,Fab User,2018-01-23 15:05:21,,Fab User,2018-01-23 15:05:21,48.8448,2.3471,Paris 05,75250 CEDEX 05,1,1,1,NULL
211,Fab User,2018-01-23 15:05:21,,Fab User,2018-01-23 15:05:21,48.8448,2.3471,Paris 05,75252 CEDEX 05,1,1,1,NULL
212,Fab User,2018-01-23 15:05:21,,Fab User,2018-01-23 15:05:21,48.8448,2.3471,Paris 05,75253 CEDEX 05,1,1,1,NULL
213,Fab User,2018-01-23 15:05:21,,Fab User,2018-01-23 15:05:21,48.8448,2.3471,Paris 05,75256 CEDEX 05,1,1,1,NULL
214,Fab User,2018-01-23 15:05:21,,Fab User,2018-01-23 15:05:21,48.8493,2.33,Paris 06,75260 CEDEX 06,1,1,1,NULL
215,Fab User,2018-01-23 15:05:21,,Fab User,2018-01-23 15:05:21,48.8493,2.33,Paris 06,75261 CEDEX 06,1,1,1,NULL
216,Fab User,2018-01-23 15:05:21,,Fab User,2018-01-23 15:05:21,48.8493,2.33,Paris 06,75262 CEDEX 06,1,1,1,NULL
217,Fab User,2018-01-23 15:05:21,,Fab User,2018-01-23 15:05:21,48.8493,2.33,Paris 06,75263 CEDEX 06,1,1,1,NULL
218,Fab User,2018-01-23 15:05:21,,Fab User,2018-01-23 15:05:21,48.8493,2.33,Paris 06,75264 CEDEX 06,1,1,1,NULL
219,Fab User,2018-01-23 15:05:21,,Fab User,2018-01-23 15:05:21,48.8493,2.33,Paris 06,75265 CEDEX 06,1,1,1,NULL
220,Fab User,2018-01-23 15:05:21,,Fab User,2018-01-23 15:05:21,48.8493,2.33,Paris 06,75266 CEDEX 06,1,1,1,NULL
221,Fab User,2018-01-23 15:05:21,,Fab User,2018-01-23 15:05:21,48.8493,2.33,Paris 06,75269 CEDEX 06,1,1,1,NULL
222,Fab User,2018-01-23 15:05:21,,Fab User,2018-01-23 15:05:21,48.8493,2.33,Paris 06,75270 CEDEX 06,1,1,1,NULL
223,Fab User,2018-01-23 15:05:21,,Fab User,2018-01-23 15:05:21,48.8493,2.33,Paris 06,75272 CEDEX 06,1,1,1,NULL
224,Fab User,2018-01-23 15:05:21,,Fab User,2018-01-23 15:05:21,48.8493,2.33,Paris 06,75275 CEDEX 06,1,1,1,NULL
225,Fab User,2018-01-23 15:05:21,,Fab User,2018-01-23 15:05:21,48.8493,2.33,Paris 06,75278 CEDEX 06,1,1,1,NULL
226,Fab User,2018-01-23 15:05:21,,Fab User,2018-01-23 15:05:21,48.8493,2.33,Paris 06,75279 CEDEX 06,1,1,1,NULL
227,Fab User,2018-01-23 15:05:21,,Fab User,2018-01-23 15:05:21,48.8493,2.33,Paris 06,75280 CEDEX 06,1,1,1,NULL
228,Fab User,2018-01-23 15:05:21,,Fab User,2018-01-23 15:05:21,48.8493,2.33,Paris 06,75281 CEDEX 06,1,1,1,NULL
229,Fab User,2018-01-23 15:05:21,,Fab User,2018-01-23 15:05:21,48.8493,2.33,Paris 06,75282 CEDEX 06,1,1,1,NULL
230,Fab User,2018-01-23 15:05:21,,Fab User,2018-01-23 15:05:21,48.8493,2.33,Paris 06,75283 CEDEX 06,1,1,1,NULL
231,Fab User,2018-01-23 15:05:21,,Fab User,2018-01-23 15:05:21,48.8493,2.33,Paris 06,75284 CEDEX 06,1,1,1,NULL
232,Fab User,2018-01-23 15:05:21,,Fab User,2018-01-23 15:05:21,48.8493,2.33,Paris 06,75288 CEDEX 06,1,1,1,NULL
233,Fab User,2018-01-23 15:05:21,,Fab User,2018-01-23 15:05:21,48.8493,2.33,Paris 06,75290 CEDEX 06,1,1,1,NULL
234,Fab User,2018-01-23 15:05:21,,Fab User,2018-01-23 15:05:21,48.8493,2.33,Paris 06,75291 CEDEX 06,1,1,1,NULL
235,Fab User,2018-01-23 15:05:21,,Fab User,2018-01-23 15:05:21,48.8493,2.33,Paris 06,75292 CEDEX 06,1,1,1,NULL
236,Fab User,2018-01-23 15:05:21,,Fab User,2018-01-23 15:05:21,48.8493,2.33,Paris 06,75294 CEDEX 06,1,1,1,NULL
237,Fab User,2018-01-23 15:05:21,,Fab User,2018-01-23 15:05:21,48.8493,2.33,Paris 06,75295 CEDEX 06,1,1,1,NULL
238,Fab User,2018-01-23 15:05:21,,Fab User,2018-01-23 15:05:21,48.8493,2.33,Paris 06,75298 CEDEX 06,1,1,1,NULL
239,Fab User,2018-01-23 15:05:21,,Fab User,2018-01-23 15:05:21,48.8493,2.33,Paris 06,75299 CEDEX 06,1,1,1,NULL
240,Fab User,2018-01-23 15:05:21,,Fab User,2018-01-23 15:05:21,48.8565,2.321,Paris 07,75302 CEDEX 07,1,1,1,NULL
241,Fab User,2018-01-23 15:05:21,,Fab User,2018-01-23 15:05:21,48.8565,2.321,Paris 07,75303 SP 07,1,1,1,NULL
242,Fab User,2018-01-23 15:05:21,,Fab User,2018-01-23 15:05:21,48.8718,2.3399,Paris 09,75304 CEDEX 09,1,1,1,NULL
243,Fab User,2018-01-23 15:05:21,,Fab User,2018-01-23 15:05:21,48.8718,2.3399,Paris 09,75305 CEDEX 09,1,1,1,NULL
244,Fab User,2018-01-23 15:05:21,,Fab User,2018-01-23 15:05:21,48.8718,2.3399,Paris 09,75306 CEDEX 09,1,1,1,NULL
245,Fab User,2018-01-23 15:05:21,,Fab User,2018-01-23 15:05:21,48.8718,2.3399,Paris 09,75307 CEDEX 09,1,1,1,NULL
246,Fab User,2018-01-23 15:05:21,,Fab User,2018-01-23 15:05:21,48.8718,2.3399,Paris 09,75308 CEDEX 09,1,1,1,NULL
247,Fab User,2018-01-23 15:05:21,,Fab User,2018-01-23 15:05:21,48.8718,2.3399,Paris 09,75309 CEDEX 09,1,1,1,NULL
248,Fab User,2018-01-23 15:05:21,,Fab User,2018-01-23 15:05:21,48.8718,2.3399,Paris 09,75310 CEDEX 09,1,1,1,NULL
249,Fab User,2018-01-23 15:05:21,,Fab User,2018-01-23 15:05:21,48.8718,2.3399,Paris 09,75311 CEDEX 09,1,1,1,NULL
250,Fab User,2018-01-23 15:05:21,,Fab User,2018-01-23 15:05:21,48.8718,2.3399,Paris 09,75312 CEDEX 09,1,1,1,NULL
251,Fab User,2018-01-23 15:05:21,,Fab User,2018-01-23 15:05:21,48.8718,2.3399,Paris 09,75313 CEDEX 09,1,1,1,NULL
252,Fab User,2018-01-23 15:05:21,,Fab User,2018-01-23 15:05:21,48.8718,2.3399,Paris 09,75314 CEDEX 09,1,1,1,NULL
253,Fab User,2018-01-23 15:05:21,,Fab User,2018-01-23 15:05:21,48.8718,2.3399,Paris 09,75315 CEDEX 09,1,1,1,NULL
254,Fab User,2018-01-23 15:05:21,,Fab User,2018-01-23 15:05:21,48.8718,2.3399,Paris 09,75317 CEDEX 09,1,1,1,NULL
255,Fab User,2018-01-23 15:05:21,,Fab User,2018-01-23 15:05:21,48.8718,2.3399,Paris 09,75318 CEDEX 09,1,1,1,NULL
256,Fab User,2018-01-23 15:05:21,,Fab User,2018-01-23 15:05:21,48.8718,2.3399,Paris 09,75319 CEDEX 09,1,1,1,NULL
257,Fab User,2018-01-23 15:05:21,,Fab User,2018-01-23 15:05:21,48.8718,2.3399,Paris 09,75320 CEDEX 09,1,1,1,NULL
258,Fab User,2018-01-23 15:05:21,,Fab User,2018-01-23 15:05:21,48.8565,2.321,Paris 07,75321 CEDEX 07,1,1,1,NULL
259,Fab User,2018-01-23 15:05:21,,Fab User,2018-01-23 15:05:21,48.8565,2.321,Paris 07,75322 CEDEX 07,1,1,1,NULL
260,Fab User,2018-01-23 15:05:21,,Fab User,2018-01-23 15:05:21,48.8565,2.321,Paris 07,75323 CEDEX 07,1,1,1,NULL
261,Fab User,2018-01-23 15:05:21,,Fab User,2018-01-23 15:05:21,48.8565,2.321,Paris 07,75324 CEDEX 07,1,1,1,NULL
262,Fab User,2018-01-23 15:05:21,,Fab User,2018-01-23 15:05:21,48.8565,2.321,Paris 07,75325 CEDEX 07,1,1,1,NULL
263,Fab User,2018-01-23 15:05:21,,Fab User,2018-01-23 15:05:21,48.8565,2.321,Paris 07,75326 CEDEX 07,1,1,1,NULL
264,Fab User,2018-01-23 15:05:21,,Fab User,2018-01-23 15:05:21,48.8565,2.321,Paris 07,75327 CEDEX 07,1,1,1,NULL
265,Fab User,2018-01-23 15:05:21,,Fab User,2018-01-23 15:05:21,48.8565,2.321,Paris 07,75328 CEDEX 07,1,1,1,NULL
266,Fab User,2018-01-23 15:05:21,,Fab User,2018-01-23 15:05:21,48.8565,2.321,Paris 07,75329 CEDEX 07,1,1,1,NULL
267,Fab User,2018-01-23 15:05:21,,Fab User,2018-01-23 15:05:21,48.8565,2.321,Paris 07,75330 CEDEX 07,1,1,1,NULL
268,Fab User,2018-01-23 15:05:21,,Fab User,2018-01-23 15:05:21,48.8565,2.321,Paris 07,75333 CEDEX 07,1,1,1,NULL
269,Fab User,2018-01-23 15:05:21,,Fab User,2018-01-23 15:05:21,48.8565,2.321,Paris 07,75335 CEDEX 07,1,1,1,NULL
270,Fab User,2018-01-23 15:05:21,,Fab User,2018-01-23 15:05:21,48.8565,2.321,Paris 07,75337 CEDEX 07,1,1,1,NULL
271,Fab User,2018-01-23 15:05:21,,Fab User,2018-01-23 15:05:21,48.8565,2.321,Paris 07,75338 CEDEX 07,1,1,1,NULL
272,Fab User,2018-01-23 15:05:21,,Fab User,2018-01-23 15:05:21,48.8565,2.321,Paris 07,75339 CEDEX 07,1,1,1,NULL
273,Fab User,2018-01-23 15:05:21,,Fab User,2018-01-23 15:05:21,48.8565,2.321,Paris 07,75340 CEDEX 07,1,1,1,NULL
274,Fab User,2018-01-23 15:05:21,,Fab User,2018-01-23 15:05:21,48.8565,2.321,Paris 07,75341 CEDEX 07,1,1,1,NULL
275,Fab User,2018-01-23 15:05:21,,Fab User,2018-01-23 15:05:21,48.8565,2.321,Paris 07,75342 CEDEX 07,1,1,1,NULL
276,Fab User,2018-01-23 15:05:21,,Fab User,2018-01-23 15:05:21,48.8565,2.321,Paris 07,75343 CEDEX 07,1,1,1,NULL
277,Fab User,2018-01-23 15:05:21,,Fab User,2018-01-23 15:05:21,48.8565,2.321,Paris 07,75344 CEDEX 07,1,1,1,NULL
278,Fab User,2018-01-23 15:05:21,,Fab User,2018-01-23 15:05:21,48.8565,2.321,Paris 07,75345 CEDEX 07,1,1,1,NULL
279,Fab User,2018-01-23 15:05:21,,Fab User,2018-01-23 15:05:21,48.8565,2.321,Paris 07,75348 SP 07,1,1,1,NULL
280,Fab User,2018-01-23 15:05:21,,Fab User,2018-01-23 15:05:21,48.8565,2.321,Paris 07,75349 SP 07,1,1,1,NULL
281,Fab User,2018-01-23 15:05:21,,Fab User,2018-01-23 15:05:21,48.8565,2.321,Paris 07,75350 SP 07,1,1,1,NULL
282,Fab User,2018-01-23 15:05:21,,Fab User,2018-01-23 15:05:21,48.8565,2.321,Paris 07,75352 SP 07,1,1,1,NULL
283,Fab User,2018-01-23 15:05:21,,Fab User,2018-01-23 15:05:21,48.8565,2.321,Paris 07,75353 SP 07,1,1,1,NULL
284,Fab User,2018-01-23 15:05:22,,Fab User,2018-01-23 15:05:22,48.8565,2.321,Paris 07,75355 SP 07,1,1,1,NULL
285,Fab User,2018-01-23 15:05:22,,Fab User,2018-01-23 15:05:22,48.8565,2.321,Paris 07,75356 SP 07,1,1,1,NULL
286,Fab User,2018-01-23 15:05:22,,Fab User,2018-01-23 15:05:22,48.8565,2.321,Paris 07,75357 SP 07,1,1,1,NULL
287,Fab User,2018-01-23 15:05:22,,Fab User,2018-01-23 15:05:22,48.8565,2.321,Paris 07,75358 SP 07,1,1,1,NULL
288,Fab User,2018-01-23 15:05:22,,Fab User,2018-01-23 15:05:22,48.8565,2.321,Paris 07,75359 SP 07,1,1,1,NULL
289,Fab User,2018-01-23 15:05:22,,Fab User,2018-01-23 15:05:22,48.8763,2.3183,Paris 08,75360 CEDEX 08,1,1,1,NULL
290,Fab User,2018-01-23 15:05:22,,Fab User,2018-01-23 15:05:22,48.8763,2.3183,Paris 08,75361 CEDEX 08,1,1,1,NULL
291,Fab User,2018-01-23 15:05:22,,Fab User,2018-01-23 15:05:22,48.8763,2.3183,Paris 08,75362 CEDEX 08,1,1,1,NULL
292,Fab User,2018-01-23 15:05:22,,Fab User,2018-01-23 15:05:22,48.8763,2.3183,Paris 08,75363 CEDEX 08,1,1,1,NULL
293,Fab User,2018-01-23 15:05:22,,Fab User,2018-01-23 15:05:22,48.8763,2.3183,Paris 08,75364 CEDEX 08,1,1,1,NULL
294,Fab User,2018-01-23 15:05:22,,Fab User,2018-01-23 15:05:22,48.8763,2.3183,Paris 08,75365 CEDEX 08,1,1,1,NULL
295,Fab User,2018-01-23 15:05:22,,Fab User,2018-01-23 15:05:22,48.8763,2.3183,Paris 08,75366 CEDEX 08,1,1,1,NULL
296,Fab User,2018-01-23 15:05:22,,Fab User,2018-01-23 15:05:22,48.8763,2.3183,Paris 08,75367 CEDEX 08,1,1,1,NULL
297,Fab User,2018-01-23 15:05:22,,Fab User,2018-01-23 15:05:22,48.8763,2.3183,Paris 08,75370 CEDEX 08,1,1,1,NULL
298,Fab User,2018-01-23 15:05:22,,Fab User,2018-01-23 15:05:22,48.8763,2.3183,Paris 08,75371 CEDEX 08,1,1,1,NULL
299,Fab User,2018-01-23 15:05:22,,Fab User,2018-01-23 15:05:22,48.8763,2.3183,Paris 08,75372 CEDEX 08,1,1,1,NULL
300,Fab User,2018-01-23 15:05:22,,Fab User,2018-01-23 15:05:22,48.8763,2.3183,Paris 08,75373 CEDEX 08,1,1,1,NULL
301,Fab User,2018-01-23 15:05:22,,Fab User,2018-01-23 15:05:22,48.8763,2.3183,Paris 08,75374 CEDEX 08,1,1,1,NULL
302,Fab User,2018-01-23 15:05:22,,Fab User,2018-01-23 15:05:22,48.8763,2.3183,Paris 08,75375 CEDEX 08,1,1,1,NULL
303,Fab User,2018-01-23 15:05:22,,Fab User,2018-01-23 15:05:22,48.8763,2.3183,Paris 08,75376 CEDEX 08,1,1,1,NULL
304,Fab User,2018-01-23 15:05:22,,Fab User,2018-01-23 15:05:22,48.8763,2.3183,Paris 08,75378 CEDEX 08,1,1,1,NULL
305,Fab User,2018-01-23 15:05:22,,Fab User,2018-01-23 15:05:22,48.8763,2.3183,Paris 08,75379 CEDEX 08,1,1,1,NULL
306,Fab User,2018-01-23 15:05:22,,Fab User,2018-01-23 15:05:22,48.8763,2.3183,Paris 08,75380 CEDEX 08,1,1,1,NULL
307,Fab User,2018-01-23 15:05:22,,Fab User,2018-01-23 15:05:22,48.8763,2.3183,Paris 08,75381 CEDEX 08,1,1,1,NULL
308,Fab User,2018-01-23 15:05:22,,Fab User,2018-01-23 15:05:22,48.8763,2.3183,Paris 08,75382 CEDEX 08,1,1,1,NULL
309,Fab User,2018-01-23 15:05:22,,Fab User,2018-01-23 15:05:22,48.8763,2.3183,Paris 08,75383 CEDEX 08,1,1,1,NULL
310,Fab User,2018-01-23 15:05:22,,Fab User,2018-01-23 15:05:22,48.8763,2.3183,Paris 08,75384 CEDEX 08,1,1,1,NULL
311,Fab User,2018-01-23 15:05:22,,Fab User,2018-01-23 15:05:22,48.8763,2.3183,Paris 08,75385 CEDEX 08,1,1,1,NULL
312,Fab User,2018-01-23 15:05:22,,Fab User,2018-01-23 15:05:22,48.8763,2.3183,Paris 08,75386 CEDEX 08,1,1,1,NULL
313,Fab User,2018-01-23 15:05:22,,Fab User,2018-01-23 15:05:22,48.8763,2.3183,Paris 08,75387 CEDEX 08,1,1,1,NULL
314,Fab User,2018-01-23 15:05:22,,Fab User,2018-01-23 15:05:22,48.8763,2.3183,Paris 08,75388 CEDEX 08,1,1,1,NULL
315,Fab User,2018-01-23 15:05:22,,Fab User,2018-01-23 15:05:22,48.8763,2.3183,Paris 08,75389 CEDEX 08,1,1,1,NULL
316,Fab User,2018-01-23 15:05:22,,Fab User,2018-01-23 15:05:22,48.8763,2.3183,Paris 08,75390 CEDEX 08,1,1,1,NULL
317,Fab User,2018-01-23 15:05:22,,Fab User,2018-01-23 15:05:22,48.8763,2.3183,Paris 08,75391 CEDEX 08,1,1,1,NULL
318,Fab User,2018-01-23 15:05:22,,Fab User,2018-01-23 15:05:22,48.8763,2.3183,Paris 08,75392 CEDEX 08,1,1,1,NULL
319,Fab User,2018-01-23 15:05:22,,Fab User,2018-01-23 15:05:22,48.8763,2.3183,Paris 08,75394 CEDEX 08,1,1,1,NULL
320,Fab User,2018-01-23 15:05:22,,Fab User,2018-01-23 15:05:22,48.8763,2.3183,Paris 08,75395 CEDEX 08,1,1,1,NULL
321,Fab User,2018-01-23 15:05:22,,Fab User,2018-01-23 15:05:22,48.8763,2.3183,Paris 08,75396 CEDEX 08,1,1,1,NULL
322,Fab User,2018-01-23 15:05:22,,Fab User,2018-01-23 15:05:22,48.8763,2.3183,Paris 08,75397 CEDEX 08,1,1,1,NULL
323,Fab User,2018-01-23 15:05:22,,Fab User,2018-01-23 15:05:22,48.8763,2.3183,Paris 08,75398 CEDEX 08,1,1,1,NULL
324,Fab User,2018-01-23 15:05:22,,Fab User,2018-01-23 15:05:22,48.8763,2.3183,Paris 08,75399 CEDEX 08,1,1,1,NULL
325,Fab User,2018-01-23 15:05:22,,Fab User,2018-01-23 15:05:22,48.8763,2.3183,Paris 08,75400 CEDEX 08,1,1,1,NULL
326,Fab User,2018-01-23 15:05:22,,Fab User,2018-01-23 15:05:22,48.8763,2.3183,Paris 08,75401 CEDEX 08,1,1,1,NULL
327,Fab User,2018-01-23 15:05:22,,Fab User,2018-01-23 15:05:22,48.8763,2.3183,Paris 08,75402 CEDEX 08,1,1,1,NULL
328,Fab User,2018-01-23 15:05:22,,Fab User,2018-01-23 15:05:22,48.8763,2.3183,Paris 08,75403 CEDEX 08,1,1,1,NULL
329,Fab User,2018-01-23 15:05:22,,Fab User,2018-01-23 15:05:22,48.8763,2.3183,Paris 08,75405 CEDEX 08,1,1,1,NULL
330,Fab User,2018-01-23 15:05:22,,Fab User,2018-01-23 15:05:22,48.8763,2.3183,Paris 08,75406 CEDEX 08,1,1,1,NULL
331,Fab User,2018-01-23 15:05:22,,Fab User,2018-01-23 15:05:22,48.8763,2.3183,Paris 08,75407 CEDEX 08,1,1,1,NULL
332,Fab User,2018-01-23 15:05:22,,Fab User,2018-01-23 15:05:22,48.8763,2.3183,Paris 08,75408 CEDEX 08,1,1,1,NULL
333,Fab User,2018-01-23 15:05:22,,Fab User,2018-01-23 15:05:22,48.8763,2.3183,Paris 08,75410 CEDEX 08,1,1,1,NULL
334,Fab User,2018-01-23 15:05:22,,Fab User,2018-01-23 15:05:22,48.8763,2.3183,Paris 08,75411 CEDEX 08,1,1,1,NULL
335,Fab User,2018-01-23 15:05:22,,Fab User,2018-01-23 15:05:22,48.8763,2.3183,Paris 08,75412 CEDEX 08,1,1,1,NULL
336,Fab User,2018-01-23 15:05:22,,Fab User,2018-01-23 15:05:22,48.8763,2.3183,Paris 08,75413 CEDEX 08,1,1,1,NULL
337,Fab User,2018-01-23 15:05:22,,Fab User,2018-01-23 15:05:22,48.8763,2.3183,Paris 08,75415 CEDEX 08,1,1,1,NULL
338,Fab User,2018-01-23 15:05:22,,Fab User,2018-01-23 15:05:22,48.8763,2.3183,Paris 08,75416 CEDEX 08,1,1,1,NULL
339,Fab User,2018-01-23 15:05:22,,Fab User,2018-01-23 15:05:22,48.8763,2.3183,Paris 08,75417 CEDEX 08,1,1,1,NULL
340,Fab User,2018-01-23 15:05:22,,Fab User,2018-01-23 15:05:22,48.8763,2.3183,Paris 08,75418 CEDEX 08,1,1,1,NULL
341,Fab User,2018-01-23 15:05:22,,Fab User,2018-01-23 15:05:22,48.8763,2.3183,Paris 08,75419 CEDEX 08,1,1,1,NULL
342,Fab User,2018-01-23 15:05:22,,Fab User,2018-01-23 15:05:22,48.8763,2.3183,Paris 08,75420 CEDEX 08,1,1,1,NULL
343,Fab User,2018-01-23 15:05:22,,Fab User,2018-01-23 15:05:22,48.8718,2.3399,Paris 09,75421 CEDEX 09,1,1,1,NULL
344,Fab User,2018-01-23 15:05:22,,Fab User,2018-01-23 15:05:22,48.8718,2.3399,Paris 09,75422 CEDEX 09,1,1,1,NULL
345,Fab User,2018-01-23 15:05:22,,Fab User,2018-01-23 15:05:22,48.8718,2.3399,Paris 09,75423 CEDEX 09,1,1,1,NULL
346,Fab User,2018-01-23 15:05:22,,Fab User,2018-01-23 15:05:22,48.8718,2.3399,Paris 09,75424 CEDEX 09,1,1,1,NULL
347,Fab User,2018-01-23 15:05:22,,Fab User,2018-01-23 15:05:22,48.8718,2.3399,Paris 09,75425 CEDEX 09,1,1,1,NULL
348,Fab User,2018-01-23 15:05:22,,Fab User,2018-01-23 15:05:22,48.8718,2.3399,Paris 09,75426 CEDEX 09,1,1,1,NULL
349,Fab User,2018-01-23 15:05:22,,Fab User,2018-01-23 15:05:22,48.8718,2.3399,Paris 09,75427 CEDEX 09,1,1,1,NULL
350,Fab User,2018-01-23 15:05:22,,Fab User,2018-01-23 15:05:22,48.8718,2.3399,Paris 09,75428 CEDEX 09,1,1,1,NULL
351,Fab User,2018-01-23 15:05:22,,Fab User,2018-01-23 15:05:22,48.8718,2.3399,Paris 09,75429 CEDEX 09,1,1,1,NULL
352,Fab User,2018-01-23 15:05:22,,Fab User,2018-01-23 15:05:22,48.8718,2.3399,Paris 09,75430 CEDEX 09,1,1,1,NULL
353,Fab User,2018-01-23 15:05:22,,Fab User,2018-01-23 15:05:22,48.8718,2.3399,Paris 09,75431 CEDEX 09,1,1,1,NULL
354,Fab User,2018-01-23 15:05:22,,Fab User,2018-01-23 15:05:22,48.8718,2.3399,Paris 09,75432 CEDEX 09,1,1,1,NULL
355,Fab User,2018-01-23 15:05:22,,Fab User,2018-01-23 15:05:22,48.8718,2.3399,Paris 09,75434 CEDEX 09,1,1,1,NULL
356,Fab User,2018-01-23 15:05:22,,Fab User,2018-01-23 15:05:22,48.8718,2.3399,Paris 09,75435 CEDEX 09,1,1,1,NULL
357,Fab User,2018-01-23 15:05:22,,Fab User,2018-01-23 15:05:22,48.8718,2.3399,Paris 09,75436 CEDEX 09,1,1,1,NULL
358,Fab User,2018-01-23 15:05:22,,Fab User,2018-01-23 15:05:22,48.8718,2.3399,Paris 09,75437 CEDEX 09,1,1,1,NULL
359,Fab User,2018-01-23 15:05:22,,Fab User,2018-01-23 15:05:22,48.8718,2.3399,Paris 09,75438 CEDEX 09,1,1,1,NULL
360,Fab User,2018-01-23 15:05:22,,Fab User,2018-01-23 15:05:22,48.8718,2.3399,Paris 09,75439 CEDEX 09,1,1,1,NULL
361,Fab User,2018-01-23 15:05:22,,Fab User,2018-01-23 15:05:22,48.8718,2.3399,Paris 09,75440 CEDEX 09,1,1,1,NULL
362,Fab User,2018-01-23 15:05:22,,Fab User,2018-01-23 15:05:22,48.8718,2.3399,Paris 09,75441 CEDEX 09,1,1,1,NULL
363,Fab User,2018-01-23 15:05:22,,Fab User,2018-01-23 15:05:22,48.8718,2.3399,Paris 09,75442 CEDEX 09,1,1,1,NULL
364,Fab User,2018-01-23 15:05:22,,Fab User,2018-01-23 15:05:22,48.8718,2.3399,Paris 09,75443 CEDEX 09,1,1,1,NULL
365,Fab User,2018-01-23 15:05:22,,Fab User,2018-01-23 15:05:22,48.8718,2.3399,Paris 09,75444 CEDEX 09,1,1,1,NULL
366,Fab User,2018-01-23 15:05:22,,Fab User,2018-01-23 15:05:22,48.8718,2.3399,Paris 09,75445 CEDEX 09,1,1,1,NULL
367,Fab User,2018-01-23 15:05:22,,Fab User,2018-01-23 15:05:22,48.8718,2.3399,Paris 09,75446 CEDEX 09,1,1,1,NULL
368,Fab User,2018-01-23 15:05:22,,Fab User,2018-01-23 15:05:22,48.8718,2.3399,Paris 09,75447 CEDEX 09,1,1,1,NULL
369,Fab User,2018-01-23 15:05:22,,Fab User,2018-01-23 15:05:22,48.8718,2.3399,Paris 09,75449 CEDEX 09,1,1,1,NULL
370,Fab User,2018-01-23 15:05:22,,Fab User,2018-01-23 15:05:22,48.8718,2.3399,Paris 09,75450 CEDEX 09,1,1,1,NULL
371,Fab User,2018-01-23 15:05:22,,Fab User,2018-01-23 15:05:22,48.8718,2.3399,Paris 09,75451 CEDEX 09,1,1,1,NULL
372,Fab User,2018-01-23 15:05:22,,Fab User,2018-01-23 15:05:22,48.8718,2.3399,Paris 09,75452 CEDEX 09,1,1,1,NULL
373,Fab User,2018-01-23 15:05:22,,Fab User,2018-01-23 15:05:22,48.8718,2.3399,Paris 09,75453 CEDEX 09,1,1,1,NULL
374,Fab User,2018-01-23 15:05:22,,Fab User,2018-01-23 15:05:22,48.8718,2.3399,Paris 09,75454 CEDEX 09,1,1,1,NULL
375,Fab User,2018-01-23 15:05:22,,Fab User,2018-01-23 15:05:22,48.8718,2.3399,Paris 09,75455 CEDEX 09,1,1,1,NULL
376,Fab User,2018-01-23 15:05:22,,Fab User,2018-01-23 15:05:22,48.8718,2.3399,Paris 09,75456 CEDEX 09,1,1,1,NULL
377,Fab User,2018-01-23 15:05:22,,Fab User,2018-01-23 15:05:22,48.8718,2.3399,Paris 09,75457 CEDEX 09,1,1,1,NULL
378,Fab User,2018-01-23 15:05:22,,Fab User,2018-01-23 15:05:22,48.8718,2.3399,Paris 09,75458 CEDEX 09,1,1,1,NULL
379,Fab User,2018-01-23 15:05:22,,Fab User,2018-01-23 15:05:22,48.8718,2.3399,Paris 09,75459 CEDEX 09,1,1,1,NULL
380,Fab User,2018-01-23 15:05:22,,Fab User,2018-01-23 15:05:22,48.8709,2.3561,Paris 10,75460 CEDEX 10,1,1,1,NULL
381,Fab User,2018-01-23 15:05:22,,Fab User,2018-01-23 15:05:22,48.8709,2.3561,Paris 10,75462 CEDEX 10,1,1,1,NULL
382,Fab User,2018-01-23 15:05:22,,Fab User,2018-01-23 15:05:22,48.8709,2.3561,Paris 10,75463 CEDEX 10,1,1,1,NULL
383,Fab User,2018-01-23 15:05:22,,Fab User,2018-01-23 15:05:22,48.8709,2.3561,Paris 10,75464 CEDEX 10,1,1,1,NULL
384,Fab User,2018-01-23 15:05:22,,Fab User,2018-01-23 15:05:22,48.8709,2.3561,Paris 10,75465 CEDEX 10,1,1,1,NULL
385,Fab User,2018-01-23 15:05:22,,Fab User,2018-01-23 15:05:22,48.8709,2.3561,Paris 10,75466 CEDEX 10,1,1,1,NULL
386,Fab User,2018-01-23 15:05:22,,Fab User,2018-01-23 15:05:22,48.8709,2.3561,Paris 10,75467 CEDEX 10,1,1,1,NULL
387,Fab User,2018-01-23 15:05:22,,Fab User,2018-01-23 15:05:22,48.8709,2.3561,Paris 10,75468 CEDEX 10,1,1,1,NULL
388,Fab User,2018-01-23 15:05:23,,Fab User,2018-01-23 15:05:23,48.8709,2.3561,Paris 10,75470 CEDEX 10,1,1,1,NULL
389,Fab User,2018-01-23 15:05:23,,Fab User,2018-01-23 15:05:23,48.8709,2.3561,Paris 10,75471 CEDEX 10,1,1,1,NULL
390,Fab User,2018-01-23 15:05:23,,Fab User,2018-01-23 15:05:23,48.8709,2.3561,Paris 10,75472 CEDEX 10,1,1,1,NULL
391,Fab User,2018-01-23 15:05:23,,Fab User,2018-01-23 15:05:23,48.8709,2.3561,Paris 10,75473 CEDEX 10,1,1,1,NULL
392,Fab User,2018-01-23 15:05:23,,Fab User,2018-01-23 15:05:23,48.8709,2.3561,Paris 10,75474 CEDEX 10,1,1,1,NULL
393,Fab User,2018-01-23 15:05:23,,Fab User,2018-01-23 15:05:23,48.8709,2.3561,Paris 10,75475 CEDEX 10,1,1,1,NULL
394,Fab User,2018-01-23 15:05:23,,Fab User,2018-01-23 15:05:23,48.8709,2.3561,Paris 10,75476 CEDEX 10,1,1,1,NULL
395,Fab User,2018-01-23 15:05:23,,Fab User,2018-01-23 15:05:23,48.8709,2.3561,Paris 10,75477 CEDEX 10,1,1,1,NULL
396,Fab User,2018-01-23 15:05:23,,Fab User,2018-01-23 15:05:23,48.8709,2.3561,Paris 10,75478 CEDEX 10,1,1,1,NULL
397,Fab User,2018-01-23 15:05:23,,Fab User,2018-01-23 15:05:23,48.8709,2.3561,Paris 10,75479 CEDEX 10,1,1,1,NULL
398,Fab User,2018-01-23 15:05:23,,Fab User,2018-01-23 15:05:23,48.8709,2.3561,Paris 10,75480 CEDEX 10,1,1,1,NULL
399,Fab User,2018-01-23 15:05:23,,Fab User,2018-01-23 15:05:23,48.8709,2.3561,Paris 10,75481 CEDEX 10,1,1,1,NULL
400,Fab User,2018-01-23 15:05:23,,Fab User,2018-01-23 15:05:23,48.8709,2.3561,Paris 10,75482 CEDEX 10,1,1,1,NULL
401,Fab User,2018-01-23 15:05:23,,Fab User,2018-01-23 15:05:23,48.8709,2.3561,Paris 10,75483 CEDEX 10,1,1,1,NULL
402,Fab User,2018-01-23 15:05:23,,Fab User,2018-01-23 15:05:23,48.8709,2.3561,Paris 10,75484 CEDEX 10,1,1,1,NULL
403,Fab User,2018-01-23 15:05:23,,Fab User,2018-01-23 15:05:23,48.8709,2.3561,Paris 10,75485 CEDEX 10,1,1,1,NULL
404,Fab User,2018-01-23 15:05:23,,Fab User,2018-01-23 15:05:23,48.8709,2.3561,Paris 10,75486 CEDEX 10,1,1,1,NULL
405,Fab User,2018-01-23 15:05:23,,Fab User,2018-01-23 15:05:23,48.8709,2.3561,Paris 10,75487 CEDEX 10,1,1,1,NULL
406,Fab User,2018-01-23 15:05:23,,Fab User,2018-01-23 15:05:23,48.8709,2.3561,Paris 10,75488 CEDEX 10,1,1,1,NULL
407,Fab User,2018-01-23 15:05:23,,Fab User,2018-01-23 15:05:23,48.8709,2.3561,Paris 10,75490 CEDEX 10,1,1,1,NULL
408,Fab User,2018-01-23 15:05:23,,Fab User,2018-01-23 15:05:23,48.8709,2.3561,Paris 10,75491 CEDEX 10,1,1,1,NULL
409,Fab User,2018-01-23 15:05:23,,Fab User,2018-01-23 15:05:23,48.8709,2.3561,Paris 10,75492 CEDEX 10,1,1,1,NULL
410,Fab User,2018-01-23 15:05:23,,Fab User,2018-01-23 15:05:23,48.8709,2.3561,Paris 10,75493 CEDEX 10,1,1,1,NULL
411,Fab User,2018-01-23 15:05:23,,Fab User,2018-01-23 15:05:23,48.8709,2.3561,Paris 10,75495 CEDEX 10,1,1,1,NULL
412,Fab User,2018-01-23 15:05:23,,Fab User,2018-01-23 15:05:23,48.8709,2.3561,Paris 10,75496 CEDEX 10,1,1,1,NULL
413,Fab User,2018-01-23 15:05:23,,Fab User,2018-01-23 15:05:23,48.8709,2.3561,Paris 10,75497 CEDEX 10,1,1,1,NULL
414,Fab User,2018-01-23 15:05:23,,Fab User,2018-01-23 15:05:23,48.8709,2.3561,Paris 10,75498 CEDEX 10,1,1,1,NULL
415,Fab User,2018-01-23 15:05:23,,Fab User,2018-01-23 15:05:23,48.8709,2.3561,Paris 10,75499 CEDEX 10,1,1,1,NULL
416,Fab User,2018-01-23 15:05:23,,Fab User,2018-01-23 15:05:23,48.8412,2.3003,Paris 15,75502 CEDEX 15,1,1,1,NULL
417,Fab User,2018-01-23 15:05:23,,Fab User,2018-01-23 15:05:23,48.8412,2.3003,Paris 15,75503 CEDEX 15,1,1,1,NULL
418,Fab User,2018-01-23 15:05:23,,Fab User,2018-01-23 15:05:23,48.8412,2.3003,Paris 15,75504 CEDEX 15,1,1,1,NULL
419,Fab User,2018-01-23 15:05:23,,Fab User,2018-01-23 15:05:23,48.8412,2.3003,Paris 15,75505 CEDEX 15,1,1,1,NULL
420,Fab User,2018-01-23 15:05:23,,Fab User,2018-01-23 15:05:23,48.8412,2.3003,Paris 15,75506 CEDEX 15,1,1,1,NULL
421,Fab User,2018-01-23 15:05:23,,Fab User,2018-01-23 15:05:23,48.8412,2.3003,Paris 15,75507 CEDEX 15,1,1,1,NULL
422,Fab User,2018-01-23 15:05:23,,Fab User,2018-01-23 15:05:23,48.8412,2.3003,Paris 15,75508 CEDEX 15,1,1,1,NULL
423,Fab User,2018-01-23 15:05:23,,Fab User,2018-01-23 15:05:23,48.8412,2.3003,Paris 15,75509 CEDEX 15,1,1,1,NULL
424,Fab User,2018-01-23 15:05:23,,Fab User,2018-01-23 15:05:23,48.8412,2.3003,Paris 15,75510 CEDEX 15,1,1,1,NULL
425,Fab User,2018-01-23 15:05:23,,Fab User,2018-01-23 15:05:23,48.8412,2.3003,Paris 15,75511 CEDEX 15,1,1,1,NULL
426,Fab User,2018-01-23 15:05:23,,Fab User,2018-01-23 15:05:23,48.8412,2.3003,Paris 15,75512 CEDEX 15,1,1,1,NULL
427,Fab User,2018-01-23 15:05:23,,Fab User,2018-01-23 15:05:23,48.8574,2.3795,Paris 11,75521 CEDEX 11,1,1,1,NULL
428,Fab User,2018-01-23 15:05:23,,Fab User,2018-01-23 15:05:23,48.8574,2.3795,Paris 11,75522 CEDEX 11,1,1,1,NULL
429,Fab User,2018-01-23 15:05:23,,Fab User,2018-01-23 15:05:23,48.8574,2.3795,Paris 11,75523 CEDEX 11,1,1,1,NULL
430,Fab User,2018-01-23 15:05:23,,Fab User,2018-01-23 15:05:23,48.8574,2.3795,Paris 11,75524 CEDEX 11,1,1,1,NULL
431,Fab User,2018-01-23 15:05:23,,Fab User,2018-01-23 15:05:23,48.8574,2.3795,Paris 11,75525 CEDEX 11,1,1,1,NULL
432,Fab User,2018-01-23 15:05:23,,Fab User,2018-01-23 15:05:23,48.8574,2.3795,Paris 11,75526 CEDEX 11,1,1,1,NULL
433,Fab User,2018-01-23 15:05:23,,Fab User,2018-01-23 15:05:23,48.8574,2.3795,Paris 11,75527 CEDEX 11,1,1,1,NULL
434,Fab User,2018-01-23 15:05:23,,Fab User,2018-01-23 15:05:23,48.8574,2.3795,Paris 11,75528 CEDEX 11,1,1,1,NULL
435,Fab User,2018-01-23 15:05:23,,Fab User,2018-01-23 15:05:23,48.8574,2.3795,Paris 11,75533 CEDEX 11,1,1,1,NULL
436,Fab User,2018-01-23 15:05:23,,Fab User,2018-01-23 15:05:23,48.8574,2.3795,Paris 11,75534 CEDEX 11,1,1,1,NULL
437,Fab User,2018-01-23 15:05:23,,Fab User,2018-01-23 15:05:23,48.8574,2.3795,Paris 11,75535 CEDEX 11,1,1,1,NULL
438,Fab User,2018-01-23 15:05:23,,Fab User,2018-01-23 15:05:23,48.8574,2.3795,Paris 11,75536 CEDEX 11,1,1,1,NULL
439,Fab User,2018-01-23 15:05:23,,Fab User,2018-01-23 15:05:23,48.8574,2.3795,Paris 11,75537 CEDEX 11,1,1,1,NULL
440,Fab User,2018-01-23 15:05:23,,Fab User,2018-01-23 15:05:23,48.8574,2.3795,Paris 11,75538 CEDEX 11,1,1,1,NULL
441,Fab User,2018-01-23 15:05:23,,Fab User,2018-01-23 15:05:23,48.8574,2.3795,Paris 11,75540 CEDEX 11,1,1,1,NULL
442,Fab User,2018-01-23 15:05:23,,Fab User,2018-01-23 15:05:23,48.8574,2.3795,Paris 11,75541 CEDEX 11,1,1,1,NULL
443,Fab User,2018-01-23 15:05:23,,Fab User,2018-01-23 15:05:23,48.8574,2.3795,Paris 11,75542 CEDEX 11,1,1,1,NULL
444,Fab User,2018-01-23 15:05:23,,Fab User,2018-01-23 15:05:23,48.8574,2.3795,Paris 11,75543 CEDEX 11,1,1,1,NULL
445,Fab User,2018-01-23 15:05:23,,Fab User,2018-01-23 15:05:23,48.8574,2.3795,Paris 11,75544 CEDEX 11,1,1,1,NULL
446,Fab User,2018-01-23 15:05:23,,Fab User,2018-01-23 15:05:23,48.8574,2.3795,Paris 11,75545 CEDEX 11,1,1,1,NULL
447,Fab User,2018-01-23 15:05:23,,Fab User,2018-01-23 15:05:23,48.8574,2.3795,Paris 11,75546 CEDEX 11,1,1,1,NULL
448,Fab User,2018-01-23 15:05:23,,Fab User,2018-01-23 15:05:23,48.8574,2.3795,Paris 11,75547 CEDEX 11,1,1,1,NULL
449,Fab User,2018-01-23 15:05:23,,Fab User,2018-01-23 15:05:23,48.8574,2.3795,Paris 11,75548 CEDEX 11,1,1,1,NULL
450,Fab User,2018-01-23 15:05:23,,Fab User,2018-01-23 15:05:23,48.8574,2.3795,Paris 11,75550 CEDEX 11,1,1,1,NULL
451,Fab User,2018-01-23 15:05:23,,Fab User,2018-01-23 15:05:23,48.8574,2.3795,Paris 11,75551 CEDEX 11,1,1,1,NULL
452,Fab User,2018-01-23 15:05:23,,Fab User,2018-01-23 15:05:23,48.8574,2.3795,Paris 11,75552 CEDEX 11,1,1,1,NULL
453,Fab User,2018-01-23 15:05:23,,Fab User,2018-01-23 15:05:23,48.8574,2.3795,Paris 11,75553 CEDEX 11,1,1,1,NULL
454,Fab User,2018-01-23 15:05:23,,Fab User,2018-01-23 15:05:23,48.8574,2.3795,Paris 11,75554 CEDEX 11,1,1,1,NULL
455,Fab User,2018-01-23 15:05:23,,Fab User,2018-01-23 15:05:23,48.8574,2.3795,Paris 11,75555 CEDEX 11,1,1,1,NULL
456,Fab User,2018-01-23 15:05:23,,Fab User,2018-01-23 15:05:23,48.8574,2.3795,Paris 11,75556 CEDEX 11,1,1,1,NULL
457,Fab User,2018-01-23 15:05:23,,Fab User,2018-01-23 15:05:23,48.8574,2.3795,Paris 11,75557 CEDEX 11,1,1,1,NULL
458,Fab User,2018-01-23 15:05:23,,Fab User,2018-01-23 15:05:23,48.8574,2.3795,Paris 11,75558 CEDEX 11,1,1,1,NULL
459,Fab User,2018-01-23 15:05:23,,Fab User,2018-01-23 15:05:23,48.8412,2.3876,Paris 12,75560 CEDEX 12,1,1,1,NULL
460,Fab User,2018-01-23 15:05:23,,Fab User,2018-01-23 15:05:23,48.8412,2.3876,Paris 12,75561 CEDEX 12,1,1,1,NULL
461,Fab User,2018-01-23 15:05:23,,Fab User,2018-01-23 15:05:23,48.8412,2.3876,Paris 12,75562 CEDEX 12,1,1,1,NULL
462,Fab User,2018-01-23 15:05:23,,Fab User,2018-01-23 15:05:23,48.8412,2.3876,Paris 12,75563 CEDEX 12,1,1,1,NULL
463,Fab User,2018-01-23 15:05:23,,Fab User,2018-01-23 15:05:23,48.8412,2.3876,Paris 12,75564 CEDEX 12,1,1,1,NULL
464,Fab User,2018-01-23 15:05:23,,Fab User,2018-01-23 15:05:23,48.8412,2.3876,Paris 12,75565 CEDEX 12,1,1,1,NULL
465,Fab User,2018-01-23 15:05:23,,Fab User,2018-01-23 15:05:23,48.8412,2.3876,Paris 12,75566 CEDEX 12,1,1,1,NULL
466,Fab User,2018-01-23 15:05:23,,Fab User,2018-01-23 15:05:23,48.8412,2.3876,Paris 12,75567 CEDEX 12,1,1,1,NULL
467,Fab User,2018-01-23 15:05:23,,Fab User,2018-01-23 15:05:23,48.8412,2.3876,Paris 12,75568 CEDEX 12,1,1,1,NULL
468,Fab User,2018-01-23 15:05:23,,Fab User,2018-01-23 15:05:23,48.8412,2.3876,Paris 12,75569 CEDEX 12,1,1,1,NULL
469,Fab User,2018-01-23 15:05:23,,Fab User,2018-01-23 15:05:23,48.8412,2.3876,Paris 12,75570 CEDEX 12,1,1,1,NULL
470,Fab User,2018-01-23 15:05:23,,Fab User,2018-01-23 15:05:23,48.8412,2.3876,Paris 12,75571 CEDEX 12,1,1,1,NULL
471,Fab User,2018-01-23 15:05:23,,Fab User,2018-01-23 15:05:23,48.8412,2.3876,Paris 12,75572 CEDEX 12,1,1,1,NULL
472,Fab User,2018-01-23 15:05:23,,Fab User,2018-01-23 15:05:23,48.8412,2.3876,Paris 12,75573 CEDEX 12,1,1,1,NULL
473,Fab User,2018-01-23 15:05:23,,Fab User,2018-01-23 15:05:23,48.8412,2.3876,Paris 12,75574 CEDEX 12,1,1,1,NULL
474,Fab User,2018-01-23 15:05:23,,Fab User,2018-01-23 15:05:23,48.8412,2.3876,Paris 12,75575 CEDEX 12,1,1,1,NULL
475,Fab User,2018-01-23 15:05:23,,Fab User,2018-01-23 15:05:23,48.8412,2.3876,Paris 12,75576 CEDEX 12,1,1,1,NULL
476,Fab User,2018-01-23 15:05:23,,Fab User,2018-01-23 15:05:23,48.8412,2.3876,Paris 12,75577 CEDEX 12,1,1,1,NULL
477,Fab User,2018-01-23 15:05:23,,Fab User,2018-01-23 15:05:23,48.8412,2.3876,Paris 12,75578 CEDEX 12,1,1,1,NULL
478,Fab User,2018-01-23 15:05:23,,Fab User,2018-01-23 15:05:23,48.8412,2.3876,Paris 12,75579 CEDEX 12,1,1,1,NULL
479,Fab User,2018-01-23 15:05:23,,Fab User,2018-01-23 15:05:23,48.8412,2.3876,Paris 12,75580 CEDEX 12,1,1,1,NULL
480,Fab User,2018-01-23 15:05:23,,Fab User,2018-01-23 15:05:23,48.8412,2.3876,Paris 12,75581 CEDEX 12,1,1,1,NULL
481,Fab User,2018-01-23 15:05:23,,Fab User,2018-01-23 15:05:23,48.8412,2.3876,Paris 12,75582 CEDEX 12,1,1,1,NULL
482,Fab User,2018-01-23 15:05:23,,Fab User,2018-01-23 15:05:23,48.8412,2.3876,Paris 12,75583 CEDEX 12,1,1,1,NULL
483,Fab User,2018-01-23 15:05:23,,Fab User,2018-01-23 15:05:23,48.8412,2.3876,Paris 12,75584 CEDEX 12,1,1,1,NULL
484,Fab User,2018-01-23 15:05:23,,Fab User,2018-01-23 15:05:23,48.8412,2.3876,Paris 12,75585 CEDEX 12,1,1,1,NULL
485,Fab User,2018-01-23 15:05:23,,Fab User,2018-01-23 15:05:23,48.8412,2.3876,Paris 12,75586 CEDEX 12,1,1,1,NULL
486,Fab User,2018-01-23 15:05:23,,Fab User,2018-01-23 15:05:23,48.8412,2.3876,Paris 12,75587 CEDEX 12,1,1,1,NULL
487,Fab User,2018-01-23 15:05:23,,Fab User,2018-01-23 15:05:23,48.8412,2.3876,Paris 12,75588 CEDEX 12,1,1,1,NULL
488,Fab User,2018-01-23 15:05:23,,Fab User,2018-01-23 15:05:23,48.8412,2.3876,Paris 12,75589 CEDEX 12,1,1,1,NULL
489,Fab User,2018-01-23 15:05:23,,Fab User,2018-01-23 15:05:23,48.8412,2.3876,Paris 12,75591 CEDEX 12,1,1,1,NULL
490,Fab User,2018-01-23 15:05:23,,Fab User,2018-01-23 15:05:23,48.8412,2.3876,Paris 12,75592 CEDEX 12,1,1,1,NULL
491,Fab User,2018-01-23 15:05:23,,Fab User,2018-01-23 15:05:23,48.8412,2.3876,Paris 12,75593 CEDEX 12,1,1,1,NULL
492,Fab User,2018-01-23 15:05:23,,Fab User,2018-01-23 15:05:23,48.8412,2.3876,Paris 12,75594 CEDEX 12,1,1,1,NULL
493,Fab User,2018-01-23 15:05:23,,Fab User,2018-01-23 15:05:23,48.8412,2.3876,Paris 12,75595 CEDEX 12,1,1,1,NULL
494,Fab User,2018-01-23 15:05:23,,Fab User,2018-01-23 15:05:23,48.8412,2.3876,Paris 12,75596 CEDEX 12,1,1,1,NULL
495,Fab User,2018-01-23 15:05:23,,Fab User,2018-01-23 15:05:23,48.8412,2.3876,Paris 12,75597 CEDEX 12,1,1,1,NULL
496,Fab User,2018-01-23 15:05:23,,Fab User,2018-01-23 15:05:23,48.8412,2.3876,Paris 12,75598 CEDEX 12,1,1,1,NULL
497,Fab User,2018-01-23 15:05:23,,Fab User,2018-01-23 15:05:23,48.8412,2.3876,Paris 12,75599 CEDEX 12,1,1,1,NULL
498,Fab User,2018-01-23 15:05:23,,Fab User,2018-01-23 15:05:23,48.8331,2.3264,Paris 14,75600 CEDEX 14,1,1,1,NULL
499,Fab User,2018-01-23 15:05:23,,Fab User,2018-01-23 15:05:23,48.8412,2.3876,Paris 12,75601 CEDEX 12,1,1,1,NULL
500,Fab User,2018-01-23 15:05:23,,Fab User,2018-01-23 15:05:23,48.8412,2.3876,Paris 12,75602 CEDEX 12,1,1,1,NULL
501,Fab User,2018-01-23 15:05:23,,Fab User,2018-01-23 15:05:23,48.8412,2.3876,Paris 12,75603 CEDEX 12,1,1,1,NULL
502,Fab User,2018-01-23 15:05:24,,Fab User,2018-01-23 15:05:24,48.8412,2.3876,Paris 12,75604 CEDEX 12,1,1,1,NULL
503,Fab User,2018-01-23 15:05:24,,Fab User,2018-01-23 15:05:24,48.8412,2.3876,Paris 12,75605 CEDEX 12,1,1,1,NULL
504,Fab User,2018-01-23 15:05:24,,Fab User,2018-01-23 15:05:24,48.8412,2.3876,Paris 12,75606 CEDEX 12,1,1,1,NULL
505,Fab User,2018-01-23 15:05:24,,Fab User,2018-01-23 15:05:24,48.8412,2.3876,Paris 12,75607 CEDEX 12,1,1,1,NULL
506,Fab User,2018-01-23 15:05:24,,Fab User,2018-01-23 15:05:24,48.8412,2.3876,Paris 12,75608 CEDEX 12,1,1,1,NULL
507,Fab User,2018-01-23 15:05:24,,Fab User,2018-01-23 15:05:24,48.8412,2.3876,Paris 12,75609 CEDEX 12,1,1,1,NULL
508,Fab User,2018-01-23 15:05:24,,Fab User,2018-01-23 15:05:24,48.8412,2.3876,Paris 12,75610 CEDEX 12,1,1,1,NULL
509,Fab User,2018-01-23 15:05:24,,Fab User,2018-01-23 15:05:24,48.8412,2.3876,Paris 12,75611 CEDEX 12,1,1,1,NULL
510,Fab User,2018-01-23 15:05:24,,Fab User,2018-01-23 15:05:24,48.8412,2.3876,Paris 12,75612 CEDEX 12,1,1,1,NULL
511,Fab User,2018-01-23 15:05:24,,Fab User,2018-01-23 15:05:24,48.8412,2.3876,Paris 12,75613 CEDEX 12,1,1,1,NULL
512,Fab User,2018-01-23 15:05:24,,Fab User,2018-01-23 15:05:24,48.8412,2.3876,Paris 12,75614 CEDEX 12,1,1,1,NULL
513,Fab User,2018-01-23 15:05:24,,Fab User,2018-01-23 15:05:24,48.8412,2.3876,Paris 12,75616 CEDEX 12,1,1,1,NULL
514,Fab User,2018-01-23 15:05:24,,Fab User,2018-01-23 15:05:24,48.8835,2.3219,Paris 17,75617 CEDEX 17,1,1,1,NULL
515,Fab User,2018-01-23 15:05:24,,Fab User,2018-01-23 15:05:24,48.8331,2.3264,Paris 14,75618 CEDEX 14,1,1,1,NULL
516,Fab User,2018-01-23 15:05:24,,Fab User,2018-01-23 15:05:24,48.8322,2.3561,Paris 13,75619 CEDEX 13,1,1,1,NULL
517,Fab User,2018-01-23 15:05:24,,Fab User,2018-01-23 15:05:24,48.8331,2.3264,Paris 14,75620 CEDEX 14,1,1,1,NULL
518,Fab User,2018-01-23 15:05:24,,Fab User,2018-01-23 15:05:24,48.8322,2.3561,Paris 13,75621 CEDEX 13,1,1,1,NULL
519,Fab User,2018-01-23 15:05:24,,Fab User,2018-01-23 15:05:24,48.8322,2.3561,Paris 13,75622 CEDEX 13,1,1,1,NULL
520,Fab User,2018-01-23 15:05:24,,Fab User,2018-01-23 15:05:24,48.8322,2.3561,Paris 13,75623 CEDEX 13,1,1,1,NULL
521,Fab User,2018-01-23 15:05:24,,Fab User,2018-01-23 15:05:24,48.8322,2.3561,Paris 13,75624 CEDEX 13,1,1,1,NULL
522,Fab User,2018-01-23 15:05:24,,Fab User,2018-01-23 15:05:24,48.8322,2.3561,Paris 13,75625 CEDEX 13,1,1,1,NULL
523,Fab User,2018-01-23 15:05:24,,Fab User,2018-01-23 15:05:24,48.8322,2.3561,Paris 13,75626 CEDEX 13,1,1,1,NULL
524,Fab User,2018-01-23 15:05:24,,Fab User,2018-01-23 15:05:24,48.8322,2.3561,Paris 13,75627 CEDEX 13,1,1,1,NULL
525,Fab User,2018-01-23 15:05:24,,Fab User,2018-01-23 15:05:24,48.8322,2.3561,Paris 13,75628 CEDEX 13,1,1,1,NULL
526,Fab User,2018-01-23 15:05:24,,Fab User,2018-01-23 15:05:24,48.8322,2.3561,Paris 13,75629 CEDEX 13,1,1,1,NULL
527,Fab User,2018-01-23 15:05:24,,Fab User,2018-01-23 15:05:24,48.8322,2.3561,Paris 13,75630 CEDEX 13,1,1,1,NULL
528,Fab User,2018-01-23 15:05:24,,Fab User,2018-01-23 15:05:24,48.8322,2.3561,Paris 13,75631 CEDEX 13,1,1,1,NULL
529,Fab User,2018-01-23 15:05:24,,Fab User,2018-01-23 15:05:24,48.8322,2.3561,Paris 13,75632 CEDEX 13,1,1,1,NULL
530,Fab User,2018-01-23 15:05:24,,Fab User,2018-01-23 15:05:24,48.8322,2.3561,Paris 13,75633 CEDEX 13,1,1,1,NULL
531,Fab User,2018-01-23 15:05:24,,Fab User,2018-01-23 15:05:24,48.8322,2.3561,Paris 13,75634 CEDEX 13,1,1,1,NULL
532,Fab User,2018-01-23 15:05:24,,Fab User,2018-01-23 15:05:24,48.8322,2.3561,Paris 13,75635 CEDEX 13,1,1,1,NULL
533,Fab User,2018-01-23 15:05:24,,Fab User,2018-01-23 15:05:24,48.8322,2.3561,Paris 13,75636 CEDEX 13,1,1,1,NULL
534,Fab User,2018-01-23 15:05:24,,Fab User,2018-01-23 15:05:24,48.8322,2.3561,Paris 13,75637 CEDEX 13,1,1,1,NULL
535,Fab User,2018-01-23 15:05:24,,Fab User,2018-01-23 15:05:24,48.8322,2.3561,Paris 13,75638 CEDEX 13,1,1,1,NULL
536,Fab User,2018-01-23 15:05:24,,Fab User,2018-01-23 15:05:24,48.8322,2.3561,Paris 13,75639 CEDEX 13,1,1,1,NULL
537,Fab User,2018-01-23 15:05:24,,Fab User,2018-01-23 15:05:24,48.8322,2.3561,Paris 13,75640 CEDEX 13,1,1,1,NULL
538,Fab User,2018-01-23 15:05:24,,Fab User,2018-01-23 15:05:24,48.8322,2.3561,Paris 13,75641 CEDEX 13,1,1,1,NULL
539,Fab User,2018-01-23 15:05:24,,Fab User,2018-01-23 15:05:24,48.8322,2.3561,Paris 13,75642 CEDEX 13,1,1,1,NULL
540,Fab User,2018-01-23 15:05:24,,Fab User,2018-01-23 15:05:24,48.8322,2.3561,Paris 13,75643 CEDEX 13,1,1,1,NULL
541,Fab User,2018-01-23 15:05:24,,Fab User,2018-01-23 15:05:24,48.8322,2.3561,Paris 13,75644 CEDEX 13,1,1,1,NULL
542,Fab User,2018-01-23 15:05:24,,Fab User,2018-01-23 15:05:24,48.8322,2.3561,Paris 13,75646 CEDEX 13,1,1,1,NULL
543,Fab User,2018-01-23 15:05:24,,Fab User,2018-01-23 15:05:24,48.8322,2.3561,Paris 13,75647 CEDEX 13,1,1,1,NULL
544,Fab User,2018-01-23 15:05:24,,Fab User,2018-01-23 15:05:24,48.8322,2.3561,Paris 13,75648 CEDEX 13,1,1,1,NULL
545,Fab User,2018-01-23 15:05:24,,Fab User,2018-01-23 15:05:24,48.8322,2.3561,Paris 13,75649 CEDEX 13,1,1,1,NULL
546,Fab User,2018-01-23 15:05:24,,Fab User,2018-01-23 15:05:24,48.8322,2.3561,Paris 13,75650 CEDEX 13,1,1,1,NULL
547,Fab User,2018-01-23 15:05:24,,Fab User,2018-01-23 15:05:24,48.8322,2.3561,Paris 13,75651 CEDEX 13,1,1,1,NULL
548,Fab User,2018-01-23 15:05:24,,Fab User,2018-01-23 15:05:24,48.8322,2.3561,Paris 13,75652 CEDEX 13,1,1,1,NULL
549,Fab User,2018-01-23 15:05:24,,Fab User,2018-01-23 15:05:24,48.8322,2.3561,Paris 13,75653 CEDEX 13,1,1,1,NULL
550,Fab User,2018-01-23 15:05:24,,Fab User,2018-01-23 15:05:24,48.8322,2.3561,Paris 13,75654 CEDEX 13,1,1,1,NULL
551,Fab User,2018-01-23 15:05:24,,Fab User,2018-01-23 15:05:24,48.8322,2.3561,Paris 13,75655 CEDEX 13,1,1,1,NULL
552,Fab User,2018-01-23 15:05:24,,Fab User,2018-01-23 15:05:24,48.8322,2.3561,Paris 13,75656 CEDEX 13,1,1,1,NULL
553,Fab User,2018-01-23 15:05:24,,Fab User,2018-01-23 15:05:24,48.8322,2.3561,Paris 13,75657 CEDEX 13,1,1,1,NULL
554,Fab User,2018-01-23 15:05:24,,Fab User,2018-01-23 15:05:24,48.8322,2.3561,Paris 13,75658 CEDEX 13,1,1,1,NULL
555,Fab User,2018-01-23 15:05:24,,Fab User,2018-01-23 15:05:24,48.8322,2.3561,Paris 13,75659 CEDEX 13,1,1,1,NULL
556,Fab User,2018-01-23 15:05:24,,Fab User,2018-01-23 15:05:24,48.8331,2.3264,Paris 14,75660 CEDEX 14,1,1,1,NULL
557,Fab User,2018-01-23 15:05:24,,Fab User,2018-01-23 15:05:24,48.8331,2.3264,Paris 14,75661 CEDEX 14,1,1,1,NULL
558,Fab User,2018-01-23 15:05:24,,Fab User,2018-01-23 15:05:24,48.8331,2.3264,Paris 14,75662 CEDEX 14,1,1,1,NULL
559,Fab User,2018-01-23 15:05:24,,Fab User,2018-01-23 15:05:24,48.8331,2.3264,Paris 14,75663 CEDEX 14,1,1,1,NULL
560,Fab User,2018-01-23 15:05:24,,Fab User,2018-01-23 15:05:24,48.8331,2.3264,Paris 14,75664 CEDEX 14,1,1,1,NULL
561,Fab User,2018-01-23 15:05:24,,Fab User,2018-01-23 15:05:24,48.8331,2.3264,Paris 14,75665 CEDEX 14,1,1,1,NULL
562,Fab User,2018-01-23 15:05:24,,Fab User,2018-01-23 15:05:24,48.8331,2.3264,Paris 14,75667 CEDEX 14,1,1,1,NULL
563,Fab User,2018-01-23 15:05:24,,Fab User,2018-01-23 15:05:24,48.8331,2.3264,Paris 14,75668 CEDEX 14,1,1,1,NULL
564,Fab User,2018-01-23 15:05:24,,Fab User,2018-01-23 15:05:24,48.8331,2.3264,Paris 14,75669 CEDEX 14,1,1,1,NULL
565,Fab User,2018-01-23 15:05:24,,Fab User,2018-01-23 15:05:24,48.8331,2.3264,Paris 14,75670 CEDEX 14,1,1,1,NULL
566,Fab User,2018-01-23 15:05:24,,Fab User,2018-01-23 15:05:24,48.8331,2.3264,Paris 14,75671 CEDEX 14,1,1,1,NULL
567,Fab User,2018-01-23 15:05:24,,Fab User,2018-01-23 15:05:24,48.8331,2.3264,Paris 14,75673 CEDEX 14,1,1,1,NULL
568,Fab User,2018-01-23 15:05:24,,Fab User,2018-01-23 15:05:24,48.8331,2.3264,Paris 14,75674 CEDEX 14,1,1,1,NULL
569,Fab User,2018-01-23 15:05:24,,Fab User,2018-01-23 15:05:24,48.8331,2.3264,Paris 14,75675 CEDEX 14,1,1,1,NULL
570,Fab User,2018-01-23 15:05:24,,Fab User,2018-01-23 15:05:24,48.8331,2.3264,Paris 14,75677 CEDEX 14,1,1,1,NULL
571,Fab User,2018-01-23 15:05:24,,Fab User,2018-01-23 15:05:24,48.8331,2.3264,Paris 14,75678 CEDEX 14,1,1,1,NULL
572,Fab User,2018-01-23 15:05:24,,Fab User,2018-01-23 15:05:24,48.8331,2.3264,Paris 14,75679 CEDEX 14,1,1,1,NULL
573,Fab User,2018-01-23 15:05:24,,Fab User,2018-01-23 15:05:24,48.8331,2.3264,Paris 14,75680 CEDEX 14,1,1,1,NULL
574,Fab User,2018-01-23 15:05:24,,Fab User,2018-01-23 15:05:24,48.8331,2.3264,Paris 14,75681 CEDEX 14,1,1,1,NULL
575,Fab User,2018-01-23 15:05:24,,Fab User,2018-01-23 15:05:24,48.8331,2.3264,Paris 14,75682 CEDEX 14,1,1,1,NULL
576,Fab User,2018-01-23 15:05:24,,Fab User,2018-01-23 15:05:24,48.8331,2.3264,Paris 14,75683 CEDEX 14,1,1,1,NULL
577,Fab User,2018-01-23 15:05:24,,Fab User,2018-01-23 15:05:24,48.8331,2.3264,Paris 14,75685 CEDEX 14,1,1,1,NULL
578,Fab User,2018-01-23 15:05:24,,Fab User,2018-01-23 15:05:24,48.8331,2.3264,Paris 14,75687 CEDEX 14,1,1,1,NULL
579,Fab User,2018-01-23 15:05:24,,Fab User,2018-01-23 15:05:24,48.8331,2.3264,Paris 14,75688 CEDEX 14,1,1,1,NULL
580,Fab User,2018-01-23 15:05:24,,Fab User,2018-01-23 15:05:24,48.8331,2.3264,Paris 14,75689 CEDEX 14,1,1,1,NULL
581,Fab User,2018-01-23 15:05:24,,Fab User,2018-01-23 15:05:24,48.8331,2.3264,Paris 14,75690 CEDEX 14,1,1,1,NULL
582,Fab User,2018-01-23 15:05:24,,Fab User,2018-01-23 15:05:24,48.8331,2.3264,Paris 14,75691 CEDEX 14,1,1,1,NULL
583,Fab User,2018-01-23 15:05:24,,Fab User,2018-01-23 15:05:24,48.8331,2.3264,Paris 14,75692 CEDEX 14,1,1,1,NULL
584,Fab User,2018-01-23 15:05:24,,Fab User,2018-01-23 15:05:24,48.8331,2.3264,Paris 14,75693 CEDEX 14,1,1,1,NULL
585,Fab User,2018-01-23 15:05:24,,Fab User,2018-01-23 15:05:24,48.8331,2.3264,Paris 14,75694 CEDEX 14,1,1,1,NULL
586,Fab User,2018-01-23 15:05:24,,Fab User,2018-01-23 15:05:24,48.8331,2.3264,Paris 14,75696 CEDEX 14,1,1,1,NULL
587,Fab User,2018-01-23 15:05:24,,Fab User,2018-01-23 15:05:24,48.8331,2.3264,Paris 14,75697 CEDEX 14,1,1,1,NULL
588,Fab User,2018-01-23 15:05:24,,Fab User,2018-01-23 15:05:24,48.8331,2.3264,Paris 14,75698 CEDEX 14,1,1,1,NULL
589,Fab User,2018-01-23 15:05:24,,Fab User,2018-01-23 15:05:24,48.8331,2.3264,Paris 14,75699 CEDEX 14,1,1,1,NULL
590,Fab User,2018-01-23 15:05:24,,Fab User,2018-01-23 15:05:24,48.8565,2.321,Paris 07,75700 SP 07,1,1,1,NULL
591,Fab User,2018-01-23 15:05:24,,Fab User,2018-01-23 15:05:24,48.8322,2.3561,Paris 13,75701 CEDEX 13,1,1,1,NULL
592,Fab User,2018-01-23 15:05:24,,Fab User,2018-01-23 15:05:24,48.8322,2.3561,Paris 13,75702 CEDEX 13,1,1,1,NULL
593,Fab User,2018-01-23 15:05:24,,Fab User,2018-01-23 15:05:24,48.8322,2.3561,Paris 13,75703 CEDEX 13,1,1,1,NULL
594,Fab User,2018-01-23 15:05:24,,Fab User,2018-01-23 15:05:24,48.8322,2.3561,Paris 13,75705 CEDEX 13,1,1,1,NULL
595,Fab User,2018-01-23 15:05:25,,Fab User,2018-01-23 15:05:25,48.8322,2.3561,Paris 13,75706 CEDEX 13,1,1,1,NULL
596,Fab User,2018-01-23 15:05:25,,Fab User,2018-01-23 15:05:25,48.8322,2.3561,Paris 13,75707 CEDEX 13,1,1,1,NULL
597,Fab User,2018-01-23 15:05:25,,Fab User,2018-01-23 15:05:25,48.8322,2.3561,Paris 13,75708 CEDEX 13,1,1,1,NULL
598,Fab User,2018-01-23 15:05:25,,Fab User,2018-01-23 15:05:25,48.8322,2.3561,Paris 13,75709 CEDEX 13,1,1,1,NULL
599,Fab User,2018-01-23 15:05:25,,Fab User,2018-01-23 15:05:25,48.8412,2.3003,Paris 15,75710 CEDEX 15,1,1,1,NULL
600,Fab User,2018-01-23 15:05:25,,Fab User,2018-01-23 15:05:25,48.8412,2.3003,Paris 15,75712 CEDEX 15,1,1,1,NULL
601,Fab User,2018-01-23 15:05:25,,Fab User,2018-01-23 15:05:25,48.8412,2.3003,Paris 15,75713 CEDEX 15,1,1,1,NULL
602,Fab User,2018-01-23 15:05:25,,Fab User,2018-01-23 15:05:25,48.8412,2.3003,Paris 15,75714 CEDEX 15,1,1,1,NULL
603,Fab User,2018-01-23 15:05:25,,Fab User,2018-01-23 15:05:25,48.8763,2.3183,Paris 08,75715 CEDEX 08,1,1,1,NULL
604,Fab User,2018-01-23 15:05:25,,Fab User,2018-01-23 15:05:25,48.8412,2.3003,Paris 15,75716 CEDEX 15,1,1,1,NULL
605,Fab User,2018-01-23 15:05:25,,Fab User,2018-01-23 15:05:25,48.8412,2.3003,Paris 15,75717 CEDEX 15,1,1,1,NULL
606,Fab User,2018-01-23 15:05:25,,Fab User,2018-01-23 15:05:25,48.8412,2.3003,Paris 15,75718 CEDEX 15,1,1,1,NULL
607,Fab User,2018-01-23 15:05:25,,Fab User,2018-01-23 15:05:25,48.8412,2.3003,Paris 15,75719 CEDEX 15,1,1,1,NULL
608,Fab User,2018-01-23 15:05:25,,Fab User,2018-01-23 15:05:25,48.8412,2.3003,Paris 15,75720 CEDEX 15,1,1,1,NULL
609,Fab User,2018-01-23 15:05:25,,Fab User,2018-01-23 15:05:25,48.8412,2.3003,Paris 15,75721 CEDEX 15,1,1,1,NULL
610,Fab User,2018-01-23 15:05:25,,Fab User,2018-01-23 15:05:25,48.8412,2.3003,Paris 15,75722 CEDEX 15,1,1,1,NULL
611,Fab User,2018-01-23 15:05:25,,Fab User,2018-01-23 15:05:25,48.8412,2.3003,Paris 15,75723 CEDEX 15,1,1,1,NULL
612,Fab User,2018-01-23 15:05:25,,Fab User,2018-01-23 15:05:25,48.8412,2.3003,Paris 15,75724 CEDEX 15,1,1,1,NULL
613,Fab User,2018-01-23 15:05:25,,Fab User,2018-01-23 15:05:25,48.8412,2.3003,Paris 15,75725 CEDEX 15,1,1,1,NULL
614,Fab User,2018-01-23 15:05:25,,Fab User,2018-01-23 15:05:25,48.8412,2.3003,Paris 15,75726 CEDEX 15,1,1,1,NULL
615,Fab User,2018-01-23 15:05:25,,Fab User,2018-01-23 15:05:25,48.8412,2.3003,Paris 15,75727 CEDEX 15,1,1,1,NULL
616,Fab User,2018-01-23 15:05:25,,Fab User,2018-01-23 15:05:25,48.8412,2.3003,Paris 15,75729 CEDEX 15,1,1,1,NULL
617,Fab User,2018-01-23 15:05:25,,Fab User,2018-01-23 15:05:25,48.8412,2.3003,Paris 15,75730 CEDEX 15,1,1,1,NULL
618,Fab User,2018-01-23 15:05:25,,Fab User,2018-01-23 15:05:25,48.8412,2.3003,Paris 15,75731 CEDEX 15,1,1,1,NULL
619,Fab User,2018-01-23 15:05:25,,Fab User,2018-01-23 15:05:25,48.8412,2.3003,Paris 15,75732 CEDEX 15,1,1,1,NULL
620,Fab User,2018-01-23 15:05:25,,Fab User,2018-01-23 15:05:25,48.8412,2.3003,Paris 15,75734 CEDEX 15,1,1,1,NULL
621,Fab User,2018-01-23 15:05:25,,Fab User,2018-01-23 15:05:25,48.8412,2.3003,Paris 15,75737 CEDEX 15,1,1,1,NULL
622,Fab User,2018-01-23 15:05:25,,Fab User,2018-01-23 15:05:25,48.8412,2.3003,Paris 15,75738 CEDEX 15,1,1,1,NULL
623,Fab User,2018-01-23 15:05:25,,Fab User,2018-01-23 15:05:25,48.8412,2.3003,Paris 15,75739 CEDEX 15,1,1,1,NULL
624,Fab User,2018-01-23 15:05:25,,Fab User,2018-01-23 15:05:25,48.8412,2.3003,Paris 15,75740 CEDEX 15,1,1,1,NULL
625,Fab User,2018-01-23 15:05:25,,Fab User,2018-01-23 15:05:25,48.8412,2.3003,Paris 15,75741 CEDEX 15,1,1,1,NULL
626,Fab User,2018-01-23 15:05:25,,Fab User,2018-01-23 15:05:25,48.8412,2.3003,Paris 15,75742 CEDEX 15,1,1,1,NULL
627,Fab User,2018-01-23 15:05:25,,Fab User,2018-01-23 15:05:25,48.8412,2.3003,Paris 15,75743 CEDEX 15,1,1,1,NULL
628,Fab User,2018-01-23 15:05:25,,Fab User,2018-01-23 15:05:25,48.8412,2.3003,Paris 15,75745 CEDEX 15,1,1,1,NULL
629,Fab User,2018-01-23 15:05:25,,Fab User,2018-01-23 15:05:25,48.8412,2.3003,Paris 15,75747 CEDEX 15,1,1,1,NULL
630,Fab User,2018-01-23 15:05:25,,Fab User,2018-01-23 15:05:25,48.8412,2.3003,Paris 15,75748 CEDEX 15,1,1,1,NULL
631,Fab User,2018-01-23 15:05:25,,Fab User,2018-01-23 15:05:25,48.8412,2.3003,Paris 15,75749 CEDEX 15,1,1,1,NULL
632,Fab User,2018-01-23 15:05:25,,Fab User,2018-01-23 15:05:25,48.8412,2.3003,Paris 15,75750 CEDEX 15,1,1,1,NULL
633,Fab User,2018-01-23 15:05:25,,Fab User,2018-01-23 15:05:25,48.8412,2.3003,Paris 15,75753 CEDEX 15,1,1,1,NULL
634,Fab User,2018-01-23 15:05:25,,Fab User,2018-01-23 15:05:25,48.8412,2.3003,Paris 15,75754 CEDEX 15,1,1,1,NULL
635,Fab User,2018-01-23 15:05:25,,Fab User,2018-01-23 15:05:25,48.8412,2.3003,Paris 15,75755 CEDEX 15,1,1,1,NULL
636,Fab User,2018-01-23 15:05:25,,Fab User,2018-01-23 15:05:25,48.8412,2.3003,Paris 15,75756 CEDEX 15,1,1,1,NULL
637,Fab User,2018-01-23 15:05:25,,Fab User,2018-01-23 15:05:25,48.8412,2.3003,Paris 15,75757 CEDEX 15,1,1,1,NULL
638,Fab User,2018-01-23 15:05:25,,Fab User,2018-01-23 15:05:25,48.8412,2.3003,Paris 15,75759 CEDEX 15,1,1,1,NULL
639,Fab User,2018-01-23 15:05:25,,Fab User,2018-01-23 15:05:25,48.8637,2.2769,Paris 16,75761 CEDEX 16,1,1,1,NULL
640,Fab User,2018-01-23 15:05:25,,Fab User,2018-01-23 15:05:25,48.8637,2.2769,Paris 16,75762 CEDEX 16,1,1,1,NULL
641,Fab User,2018-01-23 15:05:25,,Fab User,2018-01-23 15:05:25,48.8637,2.2769,Paris 16,75763 CEDEX 16,1,1,1,NULL
642,Fab User,2018-01-23 15:05:25,,Fab User,2018-01-23 15:05:25,48.8637,2.2769,Paris 16,75764 CEDEX 16,1,1,1,NULL
643,Fab User,2018-01-23 15:05:25,,Fab User,2018-01-23 15:05:25,48.8637,2.2769,Paris 16,75765 CEDEX 16,1,1,1,NULL
644,Fab User,2018-01-23 15:05:25,,Fab User,2018-01-23 15:05:25,48.8637,2.2769,Paris 16,75766 CEDEX 16,1,1,1,NULL
645,Fab User,2018-01-23 15:05:25,,Fab User,2018-01-23 15:05:25,48.8637,2.2769,Paris 16,75767 CEDEX 16,1,1,1,NULL
646,Fab User,2018-01-23 15:05:25,,Fab User,2018-01-23 15:05:25,48.8637,2.2769,Paris 16,75768 CEDEX 16,1,1,1,NULL
647,Fab User,2018-01-23 15:05:25,,Fab User,2018-01-23 15:05:25,48.8637,2.2769,Paris 16,75769 CEDEX 16,1,1,1,NULL
648,Fab User,2018-01-23 15:05:25,,Fab User,2018-01-23 15:05:25,48.8637,2.2769,Paris 16,75770 CEDEX 16,1,1,1,NULL
649,Fab User,2018-01-23 15:05:25,,Fab User,2018-01-23 15:05:25,48.8637,2.2769,Paris 16,75771 CEDEX 16,1,1,1,NULL
650,Fab User,2018-01-23 15:05:25,,Fab User,2018-01-23 15:05:25,48.8637,2.2769,Paris 16,75772 CEDEX 16,1,1,1,NULL
651,Fab User,2018-01-23 15:05:25,,Fab User,2018-01-23 15:05:25,48.8637,2.2769,Paris 16,75773 CEDEX 16,1,1,1,NULL
652,Fab User,2018-01-23 15:05:25,,Fab User,2018-01-23 15:05:25,48.8637,2.2769,Paris 16,75775 CEDEX 16,1,1,1,NULL
653,Fab User,2018-01-23 15:05:25,,Fab User,2018-01-23 15:05:25,48.8637,2.2769,Paris 16,75778 CEDEX 16,1,1,1,NULL
654,Fab User,2018-01-23 15:05:25,,Fab User,2018-01-23 15:05:25,48.8637,2.2769,Paris 16,75780 CEDEX 16,1,1,1,NULL
655,Fab User,2018-01-23 15:05:25,,Fab User,2018-01-23 15:05:25,48.8637,2.2769,Paris 16,75781 CEDEX 16,1,1,1,NULL
656,Fab User,2018-01-23 15:05:25,,Fab User,2018-01-23 15:05:25,48.8637,2.2769,Paris 16,75782 CEDEX 16,1,1,1,NULL
657,Fab User,2018-01-23 15:05:25,,Fab User,2018-01-23 15:05:25,48.8637,2.2769,Paris 16,75783 CEDEX 16,1,1,1,NULL
658,Fab User,2018-01-23 15:05:25,,Fab User,2018-01-23 15:05:25,48.8637,2.2769,Paris 16,75784 CEDEX 16,1,1,1,NULL
659,Fab User,2018-01-23 15:05:25,,Fab User,2018-01-23 15:05:25,48.8637,2.2769,Paris 16,75785 CEDEX 16,1,1,1,NULL
660,Fab User,2018-01-23 15:05:25,,Fab User,2018-01-23 15:05:25,48.8637,2.2769,Paris 16,75786 CEDEX 16,1,1,1,NULL
661,Fab User,2018-01-23 15:05:25,,Fab User,2018-01-23 15:05:25,48.8637,2.2769,Paris 16,75789 CEDEX 16,1,1,1,NULL
662,Fab User,2018-01-23 15:05:25,,Fab User,2018-01-23 15:05:25,48.8637,2.2769,Paris 16,75790 CEDEX 16,1,1,1,NULL
663,Fab User,2018-01-23 15:05:25,,Fab User,2018-01-23 15:05:25,48.8637,2.2769,Paris 16,75794 CEDEX 16,1,1,1,NULL
664,Fab User,2018-01-23 15:05:25,,Fab User,2018-01-23 15:05:25,48.8637,2.2769,Paris 16,75796 CEDEX 16,1,1,1,NULL
665,Fab User,2018-01-23 15:05:25,,Fab User,2018-01-23 15:05:25,48.8637,2.2769,Paris 16,75798 CEDEX 16,1,1,1,NULL
666,Fab User,2018-01-23 15:05:25,,Fab User,2018-01-23 15:05:25,48.8637,2.2769,Paris 16,75799 CEDEX 16,1,1,1,NULL
667,Fab User,2018-01-23 15:05:25,,Fab User,2018-01-23 15:05:25,48.8763,2.3183,Paris 08,75800 CEDEX 08,1,1,1,NULL
668,Fab User,2018-01-23 15:05:25,,Fab User,2018-01-23 15:05:25,48.8763,2.3183,Paris 08,75802 CEDEX 08,1,1,1,NULL
669,Fab User,2018-01-23 15:05:25,,Fab User,2018-01-23 15:05:25,48.8763,2.3183,Paris 08,75803 CEDEX 08,1,1,1,NULL
670,Fab User,2018-01-23 15:05:25,,Fab User,2018-01-23 15:05:25,48.8763,2.3183,Paris 08,75804 CEDEX 08,1,1,1,NULL
671,Fab User,2018-01-23 15:05:25,,Fab User,2018-01-23 15:05:25,48.8835,2.3219,Paris 17,75805 CEDEX 17,1,1,1,NULL
672,Fab User,2018-01-23 15:05:25,,Fab User,2018-01-23 15:05:25,48.8835,2.3219,Paris 17,75806 CEDEX 17,1,1,1,NULL
673,Fab User,2018-01-23 15:05:25,,Fab User,2018-01-23 15:05:25,48.8835,2.3219,Paris 17,75807 CEDEX 17,1,1,1,NULL
674,Fab User,2018-01-23 15:05:25,,Fab User,2018-01-23 15:05:25,48.8835,2.3219,Paris 17,75808 CEDEX 17,1,1,1,NULL
675,Fab User,2018-01-23 15:05:25,,Fab User,2018-01-23 15:05:25,48.8835,2.3219,Paris 17,75809 CEDEX 17,1,1,1,NULL
676,Fab User,2018-01-23 15:05:25,,Fab User,2018-01-23 15:05:25,48.8835,2.3219,Paris 17,75812 CEDEX 17,1,1,1,NULL
677,Fab User,2018-01-23 15:05:25,,Fab User,2018-01-23 15:05:25,48.8835,2.3219,Paris 17,75813 CEDEX 17,1,1,1,NULL
678,Fab User,2018-01-23 15:05:25,,Fab User,2018-01-23 15:05:25,48.8835,2.3219,Paris 17,75815 CEDEX 17,1,1,1,NULL
679,Fab User,2018-01-23 15:05:25,,Fab User,2018-01-23 15:05:25,48.8835,2.3219,Paris 17,75817 CEDEX 17,1,1,1,NULL
680,Fab User,2018-01-23 15:05:25,,Fab User,2018-01-23 15:05:25,48.8835,2.3219,Paris 17,75818 CEDEX 17,1,1,1,NULL
681,Fab User,2018-01-23 15:05:25,,Fab User,2018-01-23 15:05:25,48.8835,2.3219,Paris 17,75819 CEDEX 17,1,1,1,NULL
682,Fab User,2018-01-23 15:05:26,,Fab User,2018-01-23 15:05:26,48.8835,2.3219,Paris 17,75820 CEDEX 17,1,1,1,NULL
683,Fab User,2018-01-23 15:05:26,,Fab User,2018-01-23 15:05:26,48.8835,2.3219,Paris 17,75821 CEDEX 17,1,1,1,NULL
684,Fab User,2018-01-23 15:05:26,,Fab User,2018-01-23 15:05:26,48.8835,2.3219,Paris 17,75822 CEDEX 17,1,1,1,NULL
685,Fab User,2018-01-23 15:05:26,,Fab User,2018-01-23 15:05:26,48.8835,2.3219,Paris 17,75823 CEDEX 17,1,1,1,NULL
686,Fab User,2018-01-23 15:05:26,,Fab User,2018-01-23 15:05:26,48.8835,2.3219,Paris 17,75824 CEDEX 17,1,1,1,NULL
687,Fab User,2018-01-23 15:05:26,,Fab User,2018-01-23 15:05:26,48.8835,2.3219,Paris 17,75825 CEDEX 17,1,1,1,NULL
688,Fab User,2018-01-23 15:05:26,,Fab User,2018-01-23 15:05:26,48.8835,2.3219,Paris 17,75826 CEDEX 17,1,1,1,NULL
689,Fab User,2018-01-23 15:05:26,,Fab User,2018-01-23 15:05:26,48.8835,2.3219,Paris 17,75827 CEDEX 17,1,1,1,NULL
690,Fab User,2018-01-23 15:05:26,,Fab User,2018-01-23 15:05:26,48.8835,2.3219,Paris 17,75828 CEDEX 17,1,1,1,NULL
691,Fab User,2018-01-23 15:05:26,,Fab User,2018-01-23 15:05:26,48.8835,2.3219,Paris 17,75829 CEDEX 17,1,1,1,NULL
692,Fab User,2018-01-23 15:05:26,,Fab User,2018-01-23 15:05:26,48.8835,2.3219,Paris 17,75830 CEDEX 17,1,1,1,NULL
693,Fab User,2018-01-23 15:05:26,,Fab User,2018-01-23 15:05:26,48.8835,2.3219,Paris 17,75831 CEDEX 17,1,1,1,NULL
694,Fab User,2018-01-23 15:05:26,,Fab User,2018-01-23 15:05:26,48.8835,2.3219,Paris 17,75832 CEDEX 17,1,1,1,NULL
695,Fab User,2018-01-23 15:05:26,,Fab User,2018-01-23 15:05:26,48.8835,2.3219,Paris 17,75833 CEDEX 17,1,1,1,NULL
696,Fab User,2018-01-23 15:05:26,,Fab User,2018-01-23 15:05:26,48.8835,2.3219,Paris 17,75834 CEDEX 17,1,1,1,NULL
697,Fab User,2018-01-23 15:05:26,,Fab User,2018-01-23 15:05:26,48.8835,2.3219,Paris 17,75835 CEDEX 17,1,1,1,NULL
698,Fab User,2018-01-23 15:05:26,,Fab User,2018-01-23 15:05:26,48.8835,2.3219,Paris 17,75836 CEDEX 17,1,1,1,NULL
699,Fab User,2018-01-23 15:05:26,,Fab User,2018-01-23 15:05:26,48.8835,2.3219,Paris 17,75837 CEDEX 17,1,1,1,NULL
700,Fab User,2018-01-23 15:05:26,,Fab User,2018-01-23 15:05:26,48.8835,2.3219,Paris 17,75838 CEDEX 17,1,1,1,NULL
701,Fab User,2018-01-23 15:05:26,,Fab User,2018-01-23 15:05:26,48.8835,2.3219,Paris 17,75839 CEDEX 17,1,1,1,NULL
702,Fab User,2018-01-23 15:05:26,,Fab User,2018-01-23 15:05:26,48.8835,2.3219,Paris 17,75840 CEDEX 17,1,1,1,NULL
703,Fab User,2018-01-23 15:05:26,,Fab User,2018-01-23 15:05:26,48.8835,2.3219,Paris 17,75841 CEDEX 17,1,1,1,NULL
704,Fab User,2018-01-23 15:05:26,,Fab User,2018-01-23 15:05:26,48.8835,2.3219,Paris 17,75843 CEDEX 17,1,1,1,NULL
705,Fab User,2018-01-23 15:05:26,,Fab User,2018-01-23 15:05:26,48.8835,2.3219,Paris 17,75844 CEDEX 17,1,1,1,NULL
706,Fab User,2018-01-23 15:05:26,,Fab User,2018-01-23 15:05:26,48.8835,2.3219,Paris 17,75845 CEDEX 17,1,1,1,NULL
707,Fab User,2018-01-23 15:05:26,,Fab User,2018-01-23 15:05:26,48.8835,2.3219,Paris 17,75846 CEDEX 17,1,1,1,NULL
708,Fab User,2018-01-23 15:05:26,,Fab User,2018-01-23 15:05:26,48.8835,2.3219,Paris 17,75847 CEDEX 17,1,1,1,NULL
709,Fab User,2018-01-23 15:05:26,,Fab User,2018-01-23 15:05:26,48.8835,2.3219,Paris 17,75848 CEDEX 17,1,1,1,NULL
710,Fab User,2018-01-23 15:05:26,,Fab User,2018-01-23 15:05:26,48.8835,2.3219,Paris 17,75849 CEDEX 17,1,1,1,NULL
711,Fab User,2018-01-23 15:05:26,,Fab User,2018-01-23 15:05:26,48.8835,2.3219,Paris 17,75850 CEDEX 17,1,1,1,NULL
712,Fab User,2018-01-23 15:05:26,,Fab User,2018-01-23 15:05:26,48.8835,2.3219,Paris 17,75851 CEDEX 17,1,1,1,NULL
713,Fab User,2018-01-23 15:05:26,,Fab User,2018-01-23 15:05:26,48.8835,2.3219,Paris 17,75852 CEDEX 17,1,1,1,NULL
714,Fab User,2018-01-23 15:05:26,,Fab User,2018-01-23 15:05:26,48.8835,2.3219,Paris 17,75853 CEDEX 17,1,1,1,NULL
715,Fab User,2018-01-23 15:05:26,,Fab User,2018-01-23 15:05:26,48.8835,2.3219,Paris 17,75854 CEDEX 17,1,1,1,NULL
716,Fab User,2018-01-23 15:05:26,,Fab User,2018-01-23 15:05:26,48.8835,2.3219,Paris 17,75855 CEDEX 17,1,1,1,NULL
717,Fab User,2018-01-23 15:05:26,,Fab User,2018-01-23 15:05:26,48.8835,2.3219,Paris 17,75857 CEDEX 17,1,1,1,NULL
718,Fab User,2018-01-23 15:05:26,,Fab User,2018-01-23 15:05:26,48.8835,2.3219,Paris 17,75858 CEDEX 17,1,1,1,NULL
719,Fab User,2018-01-23 15:05:26,,Fab User,2018-01-23 15:05:26,48.8925,2.3444,Paris 18,75860 CEDEX 18,1,1,1,NULL
720,Fab User,2018-01-23 15:05:26,,Fab User,2018-01-23 15:05:26,48.8925,2.3444,Paris 18,75861 CEDEX 18,1,1,1,NULL
721,Fab User,2018-01-23 15:05:26,,Fab User,2018-01-23 15:05:26,48.8925,2.3444,Paris 18,75862 CEDEX 18,1,1,1,NULL
722,Fab User,2018-01-23 15:05:26,,Fab User,2018-01-23 15:05:26,48.8925,2.3444,Paris 18,75863 CEDEX 18,1,1,1,NULL
723,Fab User,2018-01-23 15:05:26,,Fab User,2018-01-23 15:05:26,48.8925,2.3444,Paris 18,75864 CEDEX 18,1,1,1,NULL
724,Fab User,2018-01-23 15:05:26,,Fab User,2018-01-23 15:05:26,48.8925,2.3444,Paris 18,75865 CEDEX 18,1,1,1,NULL
725,Fab User,2018-01-23 15:05:26,,Fab User,2018-01-23 15:05:26,48.8925,2.3444,Paris 18,75866 CEDEX 18,1,1,1,NULL
726,Fab User,2018-01-23 15:05:26,,Fab User,2018-01-23 15:05:26,48.8925,2.3444,Paris 18,75867 CEDEX 18,1,1,1,NULL
727,Fab User,2018-01-23 15:05:26,,Fab User,2018-01-23 15:05:26,48.8925,2.3444,Paris 18,75868 CEDEX 18,1,1,1,NULL
728,Fab User,2018-01-23 15:05:26,,Fab User,2018-01-23 15:05:26,48.8925,2.3444,Paris 18,75869 CEDEX 18,1,1,1,NULL
729,Fab User,2018-01-23 15:05:26,,Fab User,2018-01-23 15:05:26,48.8925,2.3444,Paris 18,75870 CEDEX 18,1,1,1,NULL
730,Fab User,2018-01-23 15:05:26,,Fab User,2018-01-23 15:05:26,48.8925,2.3444,Paris 18,75871 CEDEX 18,1,1,1,NULL
731,Fab User,2018-01-23 15:05:26,,Fab User,2018-01-23 15:05:26,48.8925,2.3444,Paris 18,75872 CEDEX 18,1,1,1,NULL
732,Fab User,2018-01-23 15:05:26,,Fab User,2018-01-23 15:05:26,48.8925,2.3444,Paris 18,75874 CEDEX 18,1,1,1,NULL
733,Fab User,2018-01-23 15:05:26,,Fab User,2018-01-23 15:05:26,48.8925,2.3444,Paris 18,75875 CEDEX 18,1,1,1,NULL
734,Fab User,2018-01-23 15:05:26,,Fab User,2018-01-23 15:05:26,48.8925,2.3444,Paris 18,75876 CEDEX 18,1,1,1,NULL
735,Fab User,2018-01-23 15:05:26,,Fab User,2018-01-23 15:05:26,48.8925,2.3444,Paris 18,75877 CEDEX 18,1,1,1,NULL
736,Fab User,2018-01-23 15:05:26,,Fab User,2018-01-23 15:05:26,48.8925,2.3444,Paris 18,75878 CEDEX 18,1,1,1,NULL
737,Fab User,2018-01-23 15:05:26,,Fab User,2018-01-23 15:05:26,48.8925,2.3444,Paris 18,75879 CEDEX 18,1,1,1,NULL
738,Fab User,2018-01-23 15:05:26,,Fab User,2018-01-23 15:05:26,48.8925,2.3444,Paris 18,75880 CEDEX 18,1,1,1,NULL
739,Fab User,2018-01-23 15:05:26,,Fab User,2018-01-23 15:05:26,48.8925,2.3444,Paris 18,75881 CEDEX 18,1,1,1,NULL
740,Fab User,2018-01-23 15:05:26,,Fab User,2018-01-23 15:05:26,48.8925,2.3444,Paris 18,75882 CEDEX 18,1,1,1,NULL
741,Fab User,2018-01-23 15:05:26,,Fab User,2018-01-23 15:05:26,48.8925,2.3444,Paris 18,75883 CEDEX 18,1,1,1,NULL
742,Fab User,2018-01-23 15:05:26,,Fab User,2018-01-23 15:05:26,48.8925,2.3444,Paris 18,75884 CEDEX 18,1,1,1,NULL
743,Fab User,2018-01-23 15:05:26,,Fab User,2018-01-23 15:05:26,48.8925,2.3444,Paris 18,75885 CEDEX 18,1,1,1,NULL
744,Fab User,2018-01-23 15:05:26,,Fab User,2018-01-23 15:05:26,48.8925,2.3444,Paris 18,75886 CEDEX 18,1,1,1,NULL
745,Fab User,2018-01-23 15:05:26,,Fab User,2018-01-23 15:05:26,48.8925,2.3444,Paris 18,75887 CEDEX 18,1,1,1,NULL
746,Fab User,2018-01-23 15:05:26,,Fab User,2018-01-23 15:05:26,48.8925,2.3444,Paris 18,75889 CEDEX 18,1,1,1,NULL
747,Fab User,2018-01-23 15:05:26,,Fab User,2018-01-23 15:05:26,48.8925,2.3444,Paris 18,75890 CEDEX 18,1,1,1,NULL
748,Fab User,2018-01-23 15:05:26,,Fab User,2018-01-23 15:05:26,48.8925,2.3444,Paris 18,75891 CEDEX 18,1,1,1,NULL
749,Fab User,2018-01-23 15:05:26,,Fab User,2018-01-23 15:05:26,48.8925,2.3444,Paris 18,75892 CEDEX 18,1,1,1,NULL
750,Fab User,2018-01-23 15:05:26,,Fab User,2018-01-23 15:05:26,48.8925,2.3444,Paris 18,75893 CEDEX 18,1,1,1,NULL
751,Fab User,2018-01-23 15:05:26,,Fab User,2018-01-23 15:05:26,48.8925,2.3444,Paris 18,75894 CEDEX 18,1,1,1,NULL
752,Fab User,2018-01-23 15:05:26,,Fab User,2018-01-23 15:05:26,48.8925,2.3444,Paris 18,75895 CEDEX 18,1,1,1,NULL
753,Fab User,2018-01-23 15:05:26,,Fab User,2018-01-23 15:05:26,48.8925,2.3444,Paris 18,75897 CEDEX 18,1,1,1,NULL
754,Fab User,2018-01-23 15:05:26,,Fab User,2018-01-23 15:05:26,48.8925,2.3444,Paris 18,75898 CEDEX 18,1,1,1,NULL
755,Fab User,2018-01-23 15:05:26,,Fab User,2018-01-23 15:05:26,48.8925,2.3444,Paris 18,75899 CEDEX 18,1,1,1,NULL
756,Fab User,2018-01-23 15:05:26,,Fab User,2018-01-23 15:05:26,48.8412,2.3003,Paris 15,75900 CEDEX 15,1,1,1,NULL
757,Fab User,2018-01-23 15:05:26,,Fab User,2018-01-23 15:05:26,48.8412,2.3003,Paris 15,75901 CEDEX 15,1,1,1,NULL
758,Fab User,2018-01-23 15:05:26,,Fab User,2018-01-23 15:05:26,48.8412,2.3003,Paris 15,75902 CEDEX 15,1,1,1,NULL
759,Fab User,2018-01-23 15:05:26,,Fab User,2018-01-23 15:05:26,48.8412,2.3003,Paris 15,75903 CEDEX 15,1,1,1,NULL
760,Fab User,2018-01-23 15:05:26,,Fab User,2018-01-23 15:05:26,48.8412,2.3003,Paris 15,75904 CEDEX 15,1,1,1,NULL
761,Fab User,2018-01-23 15:05:26,,Fab User,2018-01-23 15:05:26,48.8412,2.3003,Paris 15,75905 CEDEX 15,1,1,1,NULL
762,Fab User,2018-01-23 15:05:26,,Fab User,2018-01-23 15:05:26,48.8412,2.3003,Paris 15,75907 CEDEX 15,1,1,1,NULL
763,Fab User,2018-01-23 15:05:26,,Fab User,2018-01-23 15:05:26,48.8412,2.3003,Paris 15,75908 CEDEX 15,1,1,1,NULL
764,Fab User,2018-01-23 15:05:26,,Fab User,2018-01-23 15:05:26,48.8412,2.3003,Paris 15,75909 CEDEX 15,1,1,1,NULL
765,Fab User,2018-01-23 15:05:26,,Fab User,2018-01-23 15:05:26,48.8412,2.3003,Paris 15,75911 CEDEX 15,1,1,1,NULL
766,Fab User,2018-01-23 15:05:26,,Fab User,2018-01-23 15:05:26,48.8817,2.3822,Paris 19,75913 CEDEX 19,1,1,1,NULL
767,Fab User,2018-01-23 15:05:26,,Fab User,2018-01-23 15:05:26,48.8322,2.3561,Paris 13,75914 CEDEX 13,1,1,1,NULL
768,Fab User,2018-01-23 15:05:26,,Fab User,2018-01-23 15:05:26,48.8601,2.3507,Paris 04,75915 CEDEX 04,1,1,1,NULL
769,Fab User,2018-01-23 15:05:26,,Fab User,2018-01-23 15:05:26,48.8817,2.3822,Paris 19,75916 CEDEX 19,1,1,1,NULL
770,Fab User,2018-01-23 15:05:26,,Fab User,2018-01-23 15:05:26,48.8817,2.3822,Paris 19,75917 CEDEX 19,1,1,1,NULL
771,Fab User,2018-01-23 15:05:26,,Fab User,2018-01-23 15:05:26,48.8817,2.3822,Paris 19,75918 CEDEX 19,1,1,1,NULL
772,Fab User,2018-01-23 15:05:26,,Fab User,2018-01-23 15:05:26,48.8817,2.3822,Paris 19,75919 CEDEX 19,1,1,1,NULL
773,Fab User,2018-01-23 15:05:26,,Fab User,2018-01-23 15:05:26,48.8817,2.3822,Paris 19,75920 CEDEX 19,1,1,1,NULL
774,Fab User,2018-01-23 15:05:26,,Fab User,2018-01-23 15:05:26,48.8817,2.3822,Paris 19,75921 CEDEX 19,1,1,1,NULL
775,Fab User,2018-01-23 15:05:26,,Fab User,2018-01-23 15:05:26,48.8817,2.3822,Paris 19,75922 CEDEX 19,1,1,1,NULL
776,Fab User,2018-01-23 15:05:26,,Fab User,2018-01-23 15:05:26,48.8817,2.3822,Paris 19,75923 CEDEX 19,1,1,1,NULL
777,Fab User,2018-01-23 15:05:26,,Fab User,2018-01-23 15:05:26,48.8817,2.3822,Paris 19,75924 CEDEX 19,1,1,1,NULL
778,Fab User,2018-01-23 15:05:26,,Fab User,2018-01-23 15:05:26,48.8817,2.3822,Paris 19,75925 CEDEX 19,1,1,1,NULL
779,Fab User,2018-01-23 15:05:26,,Fab User,2018-01-23 15:05:26,48.8817,2.3822,Paris 19,75926 CEDEX 19,1,1,1,NULL
780,Fab User,2018-01-23 15:05:26,,Fab User,2018-01-23 15:05:26,48.8817,2.3822,Paris 19,75927 CEDEX 19,1,1,1,NULL
781,Fab User,2018-01-23 15:05:26,,Fab User,2018-01-23 15:05:26,48.8817,2.3822,Paris 19,75928 CEDEX 19,1,1,1,NULL
782,Fab User,2018-01-23 15:05:26,,Fab User,2018-01-23 15:05:26,48.8817,2.3822,Paris 19,75929 CEDEX 19,1,1,1,NULL
783,Fab User,2018-01-23 15:05:26,,Fab User,2018-01-23 15:05:26,48.8817,2.3822,Paris 19,75930 CEDEX 19,1,1,1,NULL
784,Fab User,2018-01-23 15:05:26,,Fab User,2018-01-23 15:05:26,48.8817,2.3822,Paris 19,75931 CEDEX 19,1,1,1,NULL
785,Fab User,2018-01-23 15:05:26,,Fab User,2018-01-23 15:05:26,48.8817,2.3822,Paris 19,75932 CEDEX 19,1,1,1,NULL
786,Fab User,2018-01-23 15:05:26,,Fab User,2018-01-23 15:05:26,48.8817,2.3822,Paris 19,75933 CEDEX 19,1,1,1,NULL
787,Fab User,2018-01-23 15:05:26,,Fab User,2018-01-23 15:05:26,48.8817,2.3822,Paris 19,75934 CEDEX 19,1,1,1,NULL
788,Fab User,2018-01-23 15:05:26,,Fab User,2018-01-23 15:05:26,48.8817,2.3822,Paris 19,75935 CEDEX 19,1,1,1,NULL
789,Fab User,2018-01-23 15:05:26,,Fab User,2018-01-23 15:05:26,48.8817,2.3822,Paris 19,75936 CEDEX 19,1,1,1,NULL
790,Fab User,2018-01-23 15:05:26,,Fab User,2018-01-23 15:05:26,48.8817,2.3822,Paris 19,75937 CEDEX 19,1,1,1,NULL
791,Fab User,2018-01-23 15:05:26,,Fab User,2018-01-23 15:05:26,48.8817,2.3822,Paris 19,75938 CEDEX 19,1,1,1,NULL
792,Fab User,2018-01-23 15:05:26,,Fab User,2018-01-23 15:05:26,48.8817,2.3822,Paris 19,75939 CEDEX 19,1,1,1,NULL
793,Fab User,2018-01-23 15:05:26,,Fab User,2018-01-23 15:05:26,48.8817,2.3822,Paris 19,75940 CEDEX 19,1,1,1,NULL
794,Fab User,2018-01-23 15:05:26,,Fab User,2018-01-23 15:05:26,48.8817,2.3822,Paris 19,75941 CEDEX 19,1,1,1,NULL
795,Fab User,2018-01-23 15:05:26,,Fab User,2018-01-23 15:05:26,48.8817,2.3822,Paris 19,75942 CEDEX 19,1,1,1,NULL
796,Fab User,2018-01-23 15:05:26,,Fab User,2018-01-23 15:05:26,48.8817,2.3822,Paris 19,75943 CEDEX 19,1,1,1,NULL
797,Fab User,2018-01-23 15:05:26,,Fab User,2018-01-23 15:05:26,48.8817,2.3822,Paris 19,75944 CEDEX 19,1,1,1,NULL
798,Fab User,2018-01-23 15:05:26,,Fab User,2018-01-23 15:05:26,48.8817,2.3822,Paris 19,75945 CEDEX 19,1,1,1,NULL
799,Fab User,2018-01-23 15:05:26,,Fab User,2018-01-23 15:05:26,48.8817,2.3822,Paris 19,75946 CEDEX 19,1,1,1,NULL
800,Fab User,2018-01-23 15:05:27,,Fab User,2018-01-23 15:05:27,48.8817,2.3822,Paris 19,75947 CEDEX 19,1,1,1,NULL
801,Fab User,2018-01-23 15:05:27,,Fab User,2018-01-23 15:05:27,48.8817,2.3822,Paris 19,75948 CEDEX 19,1,1,1,NULL
802,Fab User,2018-01-23 15:05:27,,Fab User,2018-01-23 15:05:27,48.8817,2.3822,Paris 19,75949 CEDEX 19,1,1,1,NULL
803,Fab User,2018-01-23 15:05:27,,Fab User,2018-01-23 15:05:27,48.8817,2.3822,Paris 19,75950 CEDEX 19,1,1,1,NULL
804,Fab User,2018-01-23 15:05:27,,Fab User,2018-01-23 15:05:27,48.8817,2.3822,Paris 19,75951 CEDEX 19,1,1,1,NULL
805,Fab User,2018-01-23 15:05:27,,Fab User,2018-01-23 15:05:27,48.8817,2.3822,Paris 19,75952 CEDEX 19,1,1,1,NULL
806,Fab User,2018-01-23 15:05:27,,Fab User,2018-01-23 15:05:27,48.8817,2.3822,Paris 19,75953 CEDEX 19,1,1,1,NULL
807,Fab User,2018-01-23 15:05:27,,Fab User,2018-01-23 15:05:27,48.8817,2.3822,Paris 19,75954 CEDEX 19,1,1,1,NULL
808,Fab User,2018-01-23 15:05:27,,Fab User,2018-01-23 15:05:27,48.8817,2.3822,Paris 19,75955 CEDEX 19,1,1,1,NULL
809,Fab User,2018-01-23 15:05:27,,Fab User,2018-01-23 15:05:27,48.8817,2.3822,Paris 19,75956 CEDEX 19,1,1,1,NULL
810,Fab User,2018-01-23 15:05:27,,Fab User,2018-01-23 15:05:27,48.8817,2.3822,Paris 19,75957 CEDEX 19,1,1,1,NULL
811,Fab User,2018-01-23 15:05:27,,Fab User,2018-01-23 15:05:27,48.8817,2.3822,Paris 19,75958 CEDEX 19,1,1,1,NULL
812,Fab User,2018-01-23 15:05:27,,Fab User,2018-01-23 15:05:27,48.8817,2.3822,Paris 19,75959 CEDEX 19,1,1,1,NULL
813,Fab User,2018-01-23 15:05:27,,Fab User,2018-01-23 15:05:27,48.8646,2.3984,Paris 20,75960 CEDEX 20,1,1,1,NULL
814,Fab User,2018-01-23 15:05:27,,Fab User,2018-01-23 15:05:27,48.8646,2.3984,Paris 20,75961 CEDEX 20,1,1,1,NULL
815,Fab User,2018-01-23 15:05:27,,Fab User,2018-01-23 15:05:27,48.8646,2.3984,Paris 20,75962 CEDEX 20,1,1,1,NULL
816,Fab User,2018-01-23 15:05:27,,Fab User,2018-01-23 15:05:27,48.8646,2.3984,Paris 20,75965 CEDEX 20,1,1,1,NULL
817,Fab User,2018-01-23 15:05:27,,Fab User,2018-01-23 15:05:27,48.8646,2.3984,Paris 20,75966 CEDEX 20,1,1,1,NULL
818,Fab User,2018-01-23 15:05:27,,Fab User,2018-01-23 15:05:27,48.8646,2.3984,Paris 20,75967 CEDEX 20,1,1,1,NULL
819,Fab User,2018-01-23 15:05:27,,Fab User,2018-01-23 15:05:27,48.8646,2.3984,Paris 20,75969 CEDEX 20,1,1,1,NULL
820,Fab User,2018-01-23 15:05:27,,Fab User,2018-01-23 15:05:27,48.8646,2.3984,Paris 20,75970 CEDEX 20,1,1,1,NULL
821,Fab User,2018-01-23 15:05:27,,Fab User,2018-01-23 15:05:27,48.8646,2.3984,Paris 20,75971 CEDEX 20,1,1,1,NULL
822,Fab User,2018-01-23 15:05:27,,Fab User,2018-01-23 15:05:27,48.8646,2.3984,Paris 20,75972 CEDEX 20,1,1,1,NULL
823,Fab User,2018-01-23 15:05:27,,Fab User,2018-01-23 15:05:27,48.8646,2.3984,Paris 20,75973 CEDEX 20,1,1,1,NULL
824,Fab User,2018-01-23 15:05:27,,Fab User,2018-01-23 15:05:27,48.8646,2.3984,Paris 20,75974 CEDEX 20,1,1,1,NULL
825,Fab User,2018-01-23 15:05:27,,Fab User,2018-01-23 15:05:27,48.8646,2.3984,Paris 20,75975 CEDEX 20,1,1,1,NULL
826,Fab User,2018-01-23 15:05:27,,Fab User,2018-01-23 15:05:27,48.8646,2.3984,Paris 20,75976 CEDEX 20,1,1,1,NULL
827,Fab User,2018-01-23 15:05:27,,Fab User,2018-01-23 15:05:27,48.8646,2.3984,Paris 20,75977 CEDEX 20,1,1,1,NULL
828,Fab User,2018-01-23 15:05:27,,Fab User,2018-01-23 15:05:27,48.8646,2.3984,Paris 20,75978 CEDEX 20,1,1,1,NULL
829,Fab User,2018-01-23 15:05:27,,Fab User,2018-01-23 15:05:27,48.8646,2.3984,Paris 20,75979 CEDEX 20,1,1,1,NULL
830,Fab User,2018-01-23 15:05:27,,Fab User,2018-01-23 15:05:27,48.8646,2.3984,Paris 20,75980 CEDEX 20,1,1,1,NULL
831,Fab User,2018-01-23 15:05:27,,Fab User,2018-01-23 15:05:27,48.8646,2.3984,Paris 20,75981 CEDEX 20,1,1,1,NULL
832,Fab User,2018-01-23 15:05:27,,Fab User,2018-01-23 15:05:27,48.8646,2.3984,Paris 20,75983 CEDEX 20,1,1,1,NULL
833,Fab User,2018-01-23 15:05:27,,Fab User,2018-01-23 15:05:27,48.8646,2.3984,Paris 20,75984 CEDEX 20,1,1,1,NULL
834,Fab User,2018-01-23 15:05:27,,Fab User,2018-01-23 15:05:27,48.8646,2.3984,Paris 20,75985 CEDEX 20,1,1,1,NULL
835,Fab User,2018-01-23 15:05:27,,Fab User,2018-01-23 15:05:27,48.8646,2.3984,Paris 20,75986 CEDEX 20,1,1,1,NULL
836,Fab User,2018-01-23 15:05:27,,Fab User,2018-01-23 15:05:27,48.8646,2.3984,Paris 20,75987 CEDEX 20,1,1,1,NULL
837,Fab User,2018-01-23 15:05:27,,Fab User,2018-01-23 15:05:27,48.8646,2.3984,Paris 20,75988 CEDEX 20,1,1,1,NULL
838,Fab User,2018-01-23 15:05:27,,Fab User,2018-01-23 15:05:27,48.8646,2.3984,Paris 20,75989 CEDEX 20,1,1,1,NULL
839,Fab User,2018-01-23 15:05:27,,Fab User,2018-01-23 15:05:27,48.8646,2.3984,Paris 20,75990 CEDEX 20,1,1,1,NULL
840,Fab User,2018-01-23 15:05:27,,Fab User,2018-01-23 15:05:27,48.8646,2.3984,Paris 20,75991 CEDEX 20,1,1,1,NULL
841,Fab User,2018-01-23 15:05:27,,Fab User,2018-01-23 15:05:27,48.8331,2.3264,Paris 14,75993 CEDEX 14,1,1,1,NULL
842,Fab User,2018-01-23 15:05:27,,Fab User,2018-01-23 15:05:27,48.8331,2.3264,Paris 14,75994 CEDEX 14,1,1,1,NULL
843,Fab User,2018-01-23 15:05:27,,Fab User,2018-01-23 15:05:27,48.8331,2.3264,Paris 14,75995 CEDEX 14,1,1,1,NULL
844,Fab User,2018-01-23 15:05:27,,Fab User,2018-01-23 15:05:27,48.8331,2.3264,Paris 14,75996 CEDEX 14,1,1,1,NULL
845,Fab User,2018-01-23 15:05:27,,Fab User,2018-01-23 15:05:27,48.8331,2.3264,Paris 14,75997 CEDEX 14,1,1,1,NULL
846,Fab User,2018-01-23 15:05:27,,Fab User,2018-01-23 15:05:27,48.8331,2.3264,Paris 14,75998 CEDEX 14,1,1,1,NULL
847,Fab User,2018-01-23 15:05:27,,Fab User,2018-01-23 15:05:27,48.5088,2.6636,La Rochette,77000,1,2,2,NULL
848,Fab User,2018-01-23 15:05:27,,Fab User,2018-01-23 15:05:27,48.5333,2.6667,Melun,77001 CEDEX,1,2,2,NULL
849,Fab User,2018-01-23 15:05:27,,Fab User,2018-01-23 15:05:27,48.5333,2.6667,Melun,77002 CEDEX,1,2,2,NULL
850,Fab User,2018-01-23 15:05:27,,Fab User,2018-01-23 15:05:27,48.5333,2.6667,Melun,77003 CEDEX,1,2,2,NULL
851,Fab User,2018-01-23 15:05:27,,Fab User,2018-01-23 15:05:27,48.5333,2.6667,Melun,77004 CEDEX,1,2,2,NULL
852,Fab User,2018-01-23 15:05:27,,Fab User,2018-01-23 15:05:27,48.5333,2.6667,Melun,77005 CEDEX,1,2,2,NULL
853,Fab User,2018-01-23 15:05:27,,Fab User,2018-01-23 15:05:27,48.5333,2.6667,Melun,77006 CEDEX,1,2,2,NULL
854,Fab User,2018-01-23 15:05:27,,Fab User,2018-01-23 15:05:27,48.5333,2.6667,Melun,77007 CEDEX,1,2,2,NULL
855,Fab User,2018-01-23 15:05:27,,Fab User,2018-01-23 15:05:27,48.5333,2.6667,Melun,77008 CEDEX,1,2,2,NULL
856,Fab User,2018-01-23 15:05:27,,Fab User,2018-01-23 15:05:27,48.5333,2.6667,Melun,77009 CEDEX,1,2,2,NULL
857,Fab User,2018-01-23 15:05:27,,Fab User,2018-01-23 15:05:27,48.5333,2.6667,Melun,77010 CEDEX,1,2,2,NULL
858,Fab User,2018-01-23 15:05:27,,Fab User,2018-01-23 15:05:27,48.5333,2.6667,Melun,77011 CEDEX,1,2,2,NULL
859,Fab User,2018-01-23 15:05:27,,Fab User,2018-01-23 15:05:27,48.5333,2.6667,Melun,77012 CEDEX,1,2,2,NULL
860,Fab User,2018-01-23 15:05:27,,Fab User,2018-01-23 15:05:27,48.5333,2.6667,Melun,77013 CEDEX,1,2,2,NULL
861,Fab User,2018-01-23 15:05:27,,Fab User,2018-01-23 15:05:27,48.5333,2.6667,Melun,77014 CEDEX,1,2,2,NULL
862,Fab User,2018-01-23 15:05:27,,Fab User,2018-01-23 15:05:27,48.5333,2.6667,Melun,77015 CEDEX,1,2,2,NULL
863,Fab User,2018-01-23 15:05:27,,Fab User,2018-01-23 15:05:27,48.5333,2.6667,Melun,77016 CEDEX,1,2,2,NULL
864,Fab User,2018-01-23 15:05:27,,Fab User,2018-01-23 15:05:27,48.5333,2.6667,Melun,77017 CEDEX,1,2,2,NULL
865,Fab User,2018-01-23 15:05:27,,Fab User,2018-01-23 15:05:27,48.5333,2.6667,Melun,77018 CEDEX,1,2,2,NULL
866,Fab User,2018-01-23 15:05:27,,Fab User,2018-01-23 15:05:27,48.5333,2.6667,Melun,77019 CEDEX,1,2,2,NULL
867,Fab User,2018-01-23 15:05:27,,Fab User,2018-01-23 15:05:27,48.5333,2.6667,Melun,77020 CEDEX,1,2,2,NULL
868,Fab User,2018-01-23 15:05:27,,Fab User,2018-01-23 15:05:27,48.5333,2.6667,Melun,77021 CEDEX,1,2,2,NULL
869,Fab User,2018-01-23 15:05:27,,Fab User,2018-01-23 15:05:27,48.5333,2.6667,Melun,77023 CEDEX,1,2,2,NULL
870,Fab User,2018-01-23 15:05:27,,Fab User,2018-01-23 15:05:27,48.5333,2.6667,Melun,77024 CEDEX,1,2,2,NULL
871,Fab User,2018-01-23 15:05:27,,Fab User,2018-01-23 15:05:27,48.5333,2.6667,Melun,77025 CEDEX,1,2,2,NULL
872,Fab User,2018-01-23 15:05:27,,Fab User,2018-01-23 15:05:27,48.5333,2.6667,Melun,77026 CEDEX,1,2,2,NULL
873,Fab User,2018-01-23 15:05:27,,Fab User,2018-01-23 15:05:27,48.5333,2.6667,Melun,77027 CEDEX,1,2,2,NULL
874,Fab User,2018-01-23 15:05:27,,Fab User,2018-01-23 15:05:27,48.5333,2.6667,Melun,77028 CEDEX,1,2,2,NULL
875,Fab User,2018-01-23 15:05:27,,Fab User,2018-01-23 15:05:27,48.5333,2.6667,Melun,77039 CEDEX 9,1,2,2,NULL
876,Fab User,2018-01-23 15:05:27,,Fab User,2018-01-23 15:05:27,48.8354,2.63,Lognes,77040 CEDEX 9,1,2,3,NULL
877,Fab User,2018-01-23 15:05:27,,Fab User,2018-01-23 15:05:27,48.8354,2.63,Lognes,77041 CEDEX 9,1,2,3,NULL
878,Fab User,2018-01-23 15:05:27,,Fab User,2018-01-23 15:05:27,48.8354,2.63,Lognes,77042 CEDEX 9,1,2,3,NULL
879,Fab User,2018-01-23 15:05:28,,Fab User,2018-01-23 15:05:28,48.8354,2.63,Lognes,77043 CEDEX 9,1,2,3,NULL
880,Fab User,2018-01-23 15:05:28,,Fab User,2018-01-23 15:05:28,48.5333,2.6667,Melun,77050 CEDEX,1,2,2,NULL
881,Fab User,2018-01-23 15:05:28,,Fab User,2018-01-23 15:05:28,48.5333,2.6667,Melun,77051 CEDEX,1,2,2,NULL
882,Fab User,2018-01-23 15:05:28,,Fab User,2018-01-23 15:05:28,48.5333,2.6667,Melun,77052 CEDEX,1,2,2,NULL
883,Fab User,2018-01-23 15:05:28,,Fab User,2018-01-23 15:05:28,48.8357,2.6736,Collgien,77090,1,2,3,NULL
884,Fab User,2018-01-23 15:05:28,,Fab User,2018-01-23 15:05:28,48.9601,2.8788,Meaux,77100,1,2,4,NULL
885,Fab User,2018-01-23 15:05:28,,Fab User,2018-01-23 15:05:28,48.9601,2.8788,Meaux,77101 CEDEX,1,2,4,NULL
886,Fab User,2018-01-23 15:05:28,,Fab User,2018-01-23 15:05:28,48.9601,2.8788,Meaux,77102 CEDEX,1,2,4,NULL
887,Fab User,2018-01-23 15:05:28,,Fab User,2018-01-23 15:05:28,48.9601,2.8788,Meaux,77103 CEDEX,1,2,4,NULL
888,Fab User,2018-01-23 15:05:28,,Fab User,2018-01-23 15:05:28,48.9601,2.8788,Meaux,77104 CEDEX,1,2,4,NULL
889,Fab User,2018-01-23 15:05:28,,Fab User,2018-01-23 15:05:28,48.9601,2.8788,Meaux,77105 CEDEX,1,2,4,NULL
890,Fab User,2018-01-23 15:05:28,,Fab User,2018-01-23 15:05:28,48.9601,2.8788,Meaux,77106 CEDEX,1,2,4,NULL
891,Fab User,2018-01-23 15:05:28,,Fab User,2018-01-23 15:05:28,48.9601,2.8788,Meaux,77107 CEDEX,1,2,4,NULL
892,Fab User,2018-01-23 15:05:28,,Fab User,2018-01-23 15:05:28,48.9601,2.8788,Meaux,77108 CEDEX,1,2,4,NULL
893,Fab User,2018-01-23 15:05:28,,Fab User,2018-01-23 15:05:28,48.9601,2.8788,Meaux,77109 CEDEX,1,2,4,NULL
894,Fab User,2018-01-23 15:05:28,,Fab User,2018-01-23 15:05:28,48.5333,2.6667,Melun,77110 CEDEX,1,2,2,NULL
895,Fab User,2018-01-23 15:05:28,,Fab User,2018-01-23 15:05:28,48.6592,2.7162,Solers,77111,1,2,2,NULL
896,Fab User,2018-01-23 15:05:28,,Fab User,2018-01-23 15:05:28,48.7916,2.6475,Roissy-en-Brie,77112 CEDEX,1,2,3,NULL
897,Fab User,2018-01-23 15:05:28,,Fab User,2018-01-23 15:05:28,48.7916,2.6475,Roissy-en-Brie,77113 CEDEX,1,2,3,NULL
898,Fab User,2018-01-23 15:05:28,,Fab User,2018-01-23 15:05:28,48.4844,3.3463,Herm,77114,1,2,5,NULL
899,Fab User,2018-01-23 15:05:28,,Fab User,2018-01-23 15:05:28,48.5672,2.7818,Blandy,77115,1,2,2,NULL
900,Fab User,2018-01-23 15:05:28,,Fab User,2018-01-23 15:05:28,48.3974,3.1468,Balloy,77118,1,2,5,NULL
901,Fab User,2018-01-23 15:05:28,,Fab User,2018-01-23 15:05:28,48.841,3.0967,Aulnoy,77120,1,2,4,NULL
902,Fab User,2018-01-23 15:05:28,,Fab User,2018-01-23 15:05:28,49.0075,2.8261,Monthyon,77122,1,2,4,NULL
903,Fab User,2018-01-23 15:05:28,,Fab User,2018-01-23 15:05:28,48.357,2.5184,Le Vaudou,77123,1,2,6,NULL
904,Fab User,2018-01-23 15:05:28,,Fab User,2018-01-23 15:05:28,48.9667,2.85,Chauconin-Neufmontiers,77124,1,2,4,NULL
905,Fab User,2018-01-23 15:05:28,,Fab User,2018-01-23 15:05:28,48.4184,3.0947,Chtenay-sur-Seine,77126,1,2,5,NULL
906,Fab User,2018-01-23 15:05:28,,Fab User,2018-01-23 15:05:28,48.6348,2.5481,Lieusaint,77127,1,2,2,NULL
907,Fab User,2018-01-23 15:05:28,,Fab User,2018-01-23 15:05:28,48.343,2.8987,Ville-Saint-Jacques,77130,1,2,6,NULL
908,Fab User,2018-01-23 15:05:28,,Fab User,2018-01-23 15:05:28,48.735,3.0122,Touquin,77131,1,2,5,NULL
909,Fab User,2018-01-23 15:05:28,,Fab User,2018-01-23 15:05:28,48.4555,2.8314,Machault,77133,1,2,2,NULL
910,Fab User,2018-01-23 15:05:28,,Fab User,2018-01-23 15:05:28,48.4636,3.2296,Les Ormes-sur-Voulzie,77134,1,2,5,NULL
911,Fab User,2018-01-23 15:05:28,,Fab User,2018-01-23 15:05:28,48.7977,2.7051,Pontcarr,77135,1,2,3,NULL
912,Fab User,2018-01-23 15:05:28,,Fab User,2018-01-23 15:05:28,48.9725,3.1821,Luzancy,77138,1,2,4,NULL
913,Fab User,2018-01-23 15:05:28,,Fab User,2018-01-23 15:05:28,49.0667,2.8833,Douy-la-Rame,77139,1,2,4,NULL
914,Fab User,2018-01-23 15:05:28,,Fab User,2018-01-23 15:05:28,48.3067,2.7046,Montcourt-Fromonville,77140,1,2,6,NULL
915,Fab User,2018-01-23 15:05:28,,Fab User,2018-01-23 15:05:28,48.6888,3.08,Vaudoy-en-Brie,77141,1,2,5,NULL
916,Fab User,2018-01-23 15:05:28,,Fab User,2018-01-23 15:05:28,48.8742,2.7511,Montvrain,77144,1,2,3,NULL
917,Fab User,2018-01-23 15:05:28,,Fab User,2018-01-23 15:05:28,49.0723,3.0233,May-en-Multien,77145,1,2,4,NULL
918,Fab User,2018-01-23 15:05:28,,Fab User,2018-01-23 15:05:28,48.4216,3.0213,Salins,77148,1,2,5,NULL
919,Fab User,2018-01-23 15:05:28,,Fab User,2018-01-23 15:05:28,48.7437,2.6152,Lsigny,77150,1,2,2,NULL
920,Fab User,2018-01-23 15:05:28,,Fab User,2018-01-23 15:05:28,48.6942,3.4394,Montceaux-ls-Provins,77151,1,2,5,NULL
921,Fab User,2018-01-23 15:05:28,,Fab User,2018-01-23 15:05:28,48.4713,2.9959,Coutenon,77154,1,2,5,NULL
922,Fab User,2018-01-23 15:05:28,,Fab User,2018-01-23 15:05:28,48.4667,3.25,Everly,77157,1,2,5,NULL
923,Fab User,2018-01-23 15:05:28,,Fab User,2018-01-23 15:05:28,48.55,3.3,Provins,77160,1,2,5,NULL
924,Fab User,2018-01-23 15:05:29,,Fab User,2018-01-23 15:05:29,48.8257,2.9022,Tigeaux,77163,1,2,5,NULL
925,Fab User,2018-01-23 15:05:29,,Fab User,2018-01-23 15:05:29,48.8235,2.7066,Ferrires-en-Brie,77164,1,2,3,NULL
926,Fab User,2018-01-23 15:05:29,,Fab User,2018-01-23 15:05:29,49.001,2.7893,Iverny,77165,1,2,4,NULL
927,Fab User,2018-01-23 15:05:29,,Fab User,2018-01-23 15:05:29,48.6854,2.6678,Grisy-Suisnes,77166,1,2,2,NULL
928,Fab User,2018-01-23 15:05:29,,Fab User,2018-01-23 15:05:29,48.2341,2.6262,Chtenoy,77167,1,2,6,NULL
929,Fab User,2018-01-23 15:05:29,,Fab User,2018-01-23 15:05:29,48.8113,3.1813,Chauffry,77169,1,2,5,NULL
930,Fab User,2018-01-23 15:05:29,,Fab User,2018-01-23 15:05:29,48.7166,2.5874,Servon,77170,1,2,2,NULL
931,Fab User,2018-01-23 15:05:29,,Fab User,2018-01-23 15:05:29,48.4982,3.4177,Melz-sur-Seine,77171,1,2,5,NULL
932,Fab User,2018-01-23 15:05:29,,Fab User,2018-01-23 15:05:29,48.7246,2.6611,Chevry-Cossigny,77173,1,2,2,NULL
933,Fab User,2018-01-23 15:05:29,,Fab User,2018-01-23 15:05:29,48.8158,2.7935,Villeneuve-Saint-Denis,77174,1,2,5,NULL
934,Fab User,2018-01-23 15:05:29,,Fab User,2018-01-23 15:05:29,48.5741,2.5829,Savigny-le-Temple,77176,1,2,2,NULL
935,Fab User,2018-01-23 15:05:29,,Fab User,2018-01-23 15:05:29,48.8833,2.6333,Brou-sur-Chantereine,77177,1,2,3,NULL
936,Fab User,2018-01-23 15:05:29,,Fab User,2018-01-23 15:05:29,49.0705,2.8182,Oissery,77178,1,2,4,NULL
937,Fab User,2018-01-23 15:05:29,,Fab User,2018-01-23 15:05:29,48.9152,2.6284,Le Pin,77181,1,2,3,NULL
938,Fab User,2018-01-23 15:05:29,,Fab User,2018-01-23 15:05:29,48.8283,2.6696,Croissy-Beaubourg,77183,1,2,3,NULL
939,Fab User,2018-01-23 15:05:29,,Fab User,2018-01-23 15:05:29,48.8128,2.6214,merainville,77184,1,2,3,NULL
940,Fab User,2018-01-23 15:05:29,,Fab User,2018-01-23 15:05:29,48.8354,2.63,Lognes,77185,1,2,3,NULL
941,Fab User,2018-01-23 15:05:29,,Fab User,2018-01-23 15:05:29,48.8487,2.6243,Noisiel,77186,1,2,3,NULL
942,Fab User,2018-01-23 15:05:29,,Fab User,2018-01-23 15:05:29,48.5167,2.65,Dammarie-les-Lys,77187 CEDEX,1,2,2,NULL
943,Fab User,2018-01-23 15:05:29,,Fab User,2018-01-23 15:05:29,48.494,2.5983,Villiers-en-Bire,77190,1,2,2,NULL
944,Fab User,2018-01-23 15:05:29,,Fab User,2018-01-23 15:05:29,48.5167,2.65,Dammarie-les-Lys,77191 CEDEX,1,2,2,NULL
945,Fab User,2018-01-23 15:05:29,,Fab User,2018-01-23 15:05:29,48.5167,2.65,Dammarie-les-Lys,77192 CEDEX,1,2,2,NULL
946,Fab User,2018-01-23 15:05:29,,Fab User,2018-01-23 15:05:29,48.5167,2.65,Dammarie-les-Lys,77193 CEDEX,1,2,2,NULL
947,Fab User,2018-01-23 15:05:29,,Fab User,2018-01-23 15:05:29,48.5167,2.65,Dammarie-les-Lys,77194 CEDEX,1,2,2,NULL
948,Fab User,2018-01-23 15:05:29,,Fab User,2018-01-23 15:05:29,48.5167,2.65,Dammarie-les-Lys,77195 CEDEX,1,2,2,NULL
949,Fab User,2018-01-23 15:05:29,,Fab User,2018-01-23 15:05:29,48.5167,2.65,Dammarie-les-Lys,77196 CEDEX,1,2,2,NULL
950,Fab User,2018-01-23 15:05:29,,Fab User,2018-01-23 15:05:29,48.5167,2.65,Dammarie-les-Lys,77197 CEDEX,1,2,2,NULL
951,Fab User,2018-01-23 15:05:29,,Fab User,2018-01-23 15:05:29,48.5167,2.65,Dammarie-les-Lys,77198 CEDEX,1,2,2,NULL
952,Fab User,2018-01-23 15:05:29,,Fab User,2018-01-23 15:05:29,48.5167,2.65,Dammarie-les-Lys,77199 CEDEX,1,2,2,NULL
953,Fab User,2018-01-23 15:05:29,,Fab User,2018-01-23 15:05:29,48.85,2.65,Torcy,77200,1,2,3,NULL
954,Fab User,2018-01-23 15:05:29,,Fab User,2018-01-23 15:05:29,48.8333,2.6333,Marne-la-Valle,77201 CEDEX 1,1,2,7,NULL
955,Fab User,2018-01-23 15:05:29,,Fab User,2018-01-23 15:05:29,48.8333,2.6333,Marne-la-Valle,77202 CEDEX 1,1,2,7,NULL
956,Fab User,2018-01-23 15:05:29,,Fab User,2018-01-23 15:05:29,48.8333,2.6333,Marne-la-Valle,77203 CEDEX 1,1,2,7,NULL
957,Fab User,2018-01-23 15:05:29,,Fab User,2018-01-23 15:05:29,48.8333,2.6333,Marne-la-Valle,77204 CEDEX 1,1,2,7,NULL
958,Fab User,2018-01-23 15:05:29,,Fab User,2018-01-23 15:05:29,48.8333,2.6333,Marne-la-Valle,77205 CEDEX 1,1,2,7,NULL
959,Fab User,2018-01-23 15:05:29,,Fab User,2018-01-23 15:05:29,48.8333,2.6333,Marne-la-Valle,77206 CEDEX 1,1,2,7,NULL
960,Fab User,2018-01-23 15:05:29,,Fab User,2018-01-23 15:05:29,48.8333,2.6333,Marne-la-Valle,77207 CEDEX 1,1,2,7,NULL
961,Fab User,2018-01-23 15:05:29,,Fab User,2018-01-23 15:05:29,48.8333,2.6333,Marne-la-Valle,77208 CEDEX 1,1,2,7,NULL
962,Fab User,2018-01-23 15:05:29,,Fab User,2018-01-23 15:05:29,48.8333,2.6333,Marne-la-Valle,77209 CEDEX 1,1,2,7,NULL
963,Fab User,2018-01-23 15:05:29,,Fab User,2018-01-23 15:05:29,48.4295,2.7559,Samoreau,77210,1,2,6,NULL
964,Fab User,2018-01-23 15:05:29,,Fab User,2018-01-23 15:05:29,48.4022,2.7202,Avon,77211 CEDEX,1,2,6,NULL
965,Fab User,2018-01-23 15:05:29,,Fab User,2018-01-23 15:05:29,48.4022,2.7202,Avon,77212 CEDEX,1,2,6,NULL
966,Fab User,2018-01-23 15:05:29,,Fab User,2018-01-23 15:05:29,48.4022,2.7202,Avon,77213 CEDEX,1,2,6,NULL
967,Fab User,2018-01-23 15:05:29,,Fab User,2018-01-23 15:05:29,48.4022,2.7202,Avon,77214 CEDEX,1,2,6,NULL
968,Fab User,2018-01-23 15:05:29,,Fab User,2018-01-23 15:05:29,48.4022,2.7202,Avon,77215 CEDEX,1,2,6,NULL
969,Fab User,2018-01-23 15:05:29,,Fab User,2018-01-23 15:05:29,48.4022,2.7202,Avon,77216 CEDEX,1,2,6,NULL
970,Fab User,2018-01-23 15:05:29,,Fab User,2018-01-23 15:05:29,48.4022,2.7202,Avon,77217 CEDEX,1,2,6,NULL
971,Fab User,2018-01-23 15:05:29,,Fab User,2018-01-23 15:05:29,48.4022,2.7202,Avon,77218 CEDEX,1,2,6,NULL
972,Fab User,2018-01-23 15:05:29,,Fab User,2018-01-23 15:05:29,48.4022,2.7202,Avon,77219 CEDEX,1,2,6,NULL
973,Fab User,2018-01-23 15:05:29,,Fab User,2018-01-23 15:05:29,48.7415,2.772,Tournan-en-Brie,77220,1,2,2,NULL
974,Fab User,2018-01-23 15:05:29,,Fab User,2018-01-23 15:05:29,48.7415,2.772,Tournan-en-Brie,77221 CEDEX,1,2,2,NULL
975,Fab User,2018-01-23 15:05:29,,Fab User,2018-01-23 15:05:29,48.7415,2.772,Tournan-en-Brie,77222 CEDEX,1,2,2,NULL
976,Fab User,2018-01-23 15:05:29,,Fab User,2018-01-23 15:05:29,48.7415,2.772,Tournan-en-Brie,77223 CEDEX,1,2,2,NULL
977,Fab User,2018-01-23 15:05:29,,Fab User,2018-01-23 15:05:29,48.7415,2.772,Tournan-en-Brie,77224 CEDEX,1,2,2,NULL
978,Fab User,2018-01-23 15:05:29,,Fab User,2018-01-23 15:05:29,48.7415,2.772,Tournan-en-Brie,77225 CEDEX,1,2,2,NULL
979,Fab User,2018-01-23 15:05:29,,Fab User,2018-01-23 15:05:29,48.7415,2.772,Tournan-en-Brie,77229 CEDEX,1,2,2,NULL
980,Fab User,2018-01-23 15:05:29,,Fab User,2018-01-23 15:05:29,49.0624,2.7171,Rouvres,77230,1,2,4,NULL
981,Fab User,2018-01-23 15:05:29,,Fab User,2018-01-23 15:05:29,49.0542,2.6778,Dammartin-en-Gole,77231 CEDEX,1,2,4,NULL
982,Fab User,2018-01-23 15:05:29,,Fab User,2018-01-23 15:05:29,49.0542,2.6778,Dammartin-en-Gole,77232 CEDEX,1,2,4,NULL
983,Fab User,2018-01-23 15:05:29,,Fab User,2018-01-23 15:05:29,49.0542,2.6778,Dammartin-en-Gole,77234 CEDEX,1,2,4,NULL
984,Fab User,2018-01-23 15:05:29,,Fab User,2018-01-23 15:05:29,49.0542,2.6778,Dammartin-en-Gole,77239 CEDEX,1,2,4,NULL
985,Fab User,2018-01-23 15:05:29,,Fab User,2018-01-23 15:05:29,48.5574,2.5532,Seine-Port,77240,1,2,2,NULL
986,Fab User,2018-01-23 15:05:30,,Fab User,2018-01-23 15:05:30,48.562,2.6082,Cesson,77241 CEDEX,1,2,2,NULL
987,Fab User,2018-01-23 15:05:30,,Fab User,2018-01-23 15:05:30,48.562,2.6082,Cesson,77242 CEDEX,1,2,2,NULL
988,Fab User,2018-01-23 15:05:30,,Fab User,2018-01-23 15:05:30,48.562,2.6082,Cesson,77243 CEDEX,1,2,2,NULL
989,Fab User,2018-01-23 15:05:30,,Fab User,2018-01-23 15:05:30,48.562,2.6082,Cesson,77246 CEDEX,1,2,2,NULL
990,Fab User,2018-01-23 15:05:30,,Fab User,2018-01-23 15:05:30,48.562,2.6082,Cesson,77247 CEDEX,1,2,2,NULL
991,Fab User,2018-01-23 15:05:30,,Fab User,2018-01-23 15:05:30,48.562,2.6082,Cesson,77248 CEDEX,1,2,2,NULL
992,Fab User,2018-01-23 15:05:30,,Fab User,2018-01-23 15:05:30,48.562,2.6082,Cesson,77249 CEDEX,1,2,2,NULL
993,Fab User,2018-01-23 15:05:30,,Fab User,2018-01-23 15:05:30,48.3724,2.8171,Moret-sur-Loing,77250,1,2,6,NULL
994,Fab User,2018-01-23 15:05:30,,Fab User,2018-01-23 15:05:30,48.6925,2.6109,Brie-Comte-Robert,77251 CEDEX,1,2,2,NULL
995,Fab User,2018-01-23 15:05:30,,Fab User,2018-01-23 15:05:30,48.6925,2.6109,Brie-Comte-Robert,77252 CEDEX,1,2,2,NULL
996,Fab User,2018-01-23 15:05:30,,Fab User,2018-01-23 15:05:30,48.6925,2.6109,Brie-Comte-Robert,77253 CEDEX,1,2,2,NULL
997,Fab User,2018-01-23 15:05:30,,Fab User,2018-01-23 15:05:30,48.6925,2.6109,Brie-Comte-Robert,77254 CEDEX,1,2,2,NULL
998,Fab User,2018-01-23 15:05:30,,Fab User,2018-01-23 15:05:30,48.6925,2.6109,Brie-Comte-Robert,77255 CEDEX,1,2,2,NULL
999,Fab User,2018-01-23 15:05:30,,Fab User,2018-01-23 15:05:30,48.6925,2.6109,Brie-Comte-Robert,77257 CEDEX,1,2,2,NULL
1000,Fab User,2018-01-23 15:05:30,,Fab User,2018-01-23 15:05:30,48.6925,2.6109,Brie-Comte-Robert,77259 CEDEX,1,2,2,NULL
1001,Fab User,2018-01-23 15:05:30,,Fab User,2018-01-23 15:05:30,48.9934,3.1724,Sainte-Aulde,77260,1,2,4,NULL
1002,Fab User,2018-01-23 15:05:30,,Fab User,2018-01-23 15:05:30,48.9514,3.1272,La Fert-sous-Jouarre,77261 CEDEX,1,2,4,NULL
1003,Fab User,2018-01-23 15:05:30,,Fab User,2018-01-23 15:05:30,48.9514,3.1272,La Fert-sous-Jouarre,77262 CEDEX,1,2,4,NULL
1004,Fab User,2018-01-23 15:05:30,,Fab User,2018-01-23 15:05:30,48.9514,3.1272,La Fert-sous-Jouarre,77263 CEDEX,1,2,4,NULL
1005,Fab User,2018-01-23 15:05:30,,Fab User,2018-01-23 15:05:30,48.9514,3.1272,La Fert-sous-Jouarre,77264 CEDEX,1,2,4,NULL
1006,Fab User,2018-01-23 15:05:30,,Fab User,2018-01-23 15:05:30,48.6925,2.6109,Brie-Comte-Robert,77266 CEDEX,1,2,2,NULL
1007,Fab User,2018-01-23 15:05:30,,Fab User,2018-01-23 15:05:30,48.9421,2.6146,Villeparisis,77270,1,2,3,NULL
1008,Fab User,2018-01-23 15:05:30,,Fab User,2018-01-23 15:05:30,48.9421,2.6146,Villeparisis,77271 CEDEX,1,2,3,NULL
1009,Fab User,2018-01-23 15:05:30,,Fab User,2018-01-23 15:05:30,48.9421,2.6146,Villeparisis,77272 CEDEX,1,2,3,NULL
1010,Fab User,2018-01-23 15:05:30,,Fab User,2018-01-23 15:05:30,49.0739,2.675,Othis,77280,1,2,4,NULL
1011,Fab User,2018-01-23 15:05:30,,Fab User,2018-01-23 15:05:30,48.4022,2.7202,Avon,77281 CEDEX,1,2,6,NULL
1012,Fab User,2018-01-23 15:05:30,,Fab User,2018-01-23 15:05:30,48.4022,2.7202,Avon,77282 CEDEX,1,2,6,NULL
1013,Fab User,2018-01-23 15:05:30,,Fab User,2018-01-23 15:05:30,48.9833,2.6167,Mitry-Mory,77290,1,2,4,NULL
1014,Fab User,2018-01-23 15:05:30,,Fab User,2018-01-23 15:05:30,48.9833,2.6167,Mitry-Mory,77291 CEDEX,1,2,4,NULL
1015,Fab User,2018-01-23 15:05:30,,Fab User,2018-01-23 15:05:30,48.9833,2.6167,Mitry-Mory,77292 CEDEX,1,2,4,NULL
1016,Fab User,2018-01-23 15:05:30,,Fab User,2018-01-23 15:05:30,48.9833,2.6167,Mitry-Mory,77293 CEDEX,1,2,4,NULL
1017,Fab User,2018-01-23 15:05:30,,Fab User,2018-01-23 15:05:30,48.9833,2.6167,Mitry-Mory,77294 CEDEX,1,2,4,NULL
1018,Fab User,2018-01-23 15:05:30,,Fab User,2018-01-23 15:05:30,48.9833,2.6167,Mitry-Mory,77295 CEDEX,1,2,4,NULL
1019,Fab User,2018-01-23 15:05:30,,Fab User,2018-01-23 15:05:30,48.9833,2.6167,Mitry-Mory,77296 CEDEX,1,2,4,NULL
1020,Fab User,2018-01-23 15:05:30,,Fab User,2018-01-23 15:05:30,48.9833,2.6167,Mitry-Mory,77297 CEDEX,1,2,4,NULL
1021,Fab User,2018-01-23 15:05:30,,Fab User,2018-01-23 15:05:30,48.9833,2.6167,Mitry-Mory,77298 CEDEX,1,2,4,NULL
1022,Fab User,2018-01-23 15:05:30,,Fab User,2018-01-23 15:05:30,48.9833,2.6167,Mitry-Mory,77299 CEDEX,1,2,4,NULL
1023,Fab User,2018-01-23 15:05:30,,Fab User,2018-01-23 15:05:30,48.4,2.7,Fontainebleau,77300,1,2,6,NULL
1024,Fab User,2018-01-23 15:05:30,,Fab User,2018-01-23 15:05:30,48.4,2.7,Fontainebleau,77301 CEDEX,1,2,6,NULL
1025,Fab User,2018-01-23 15:05:30,,Fab User,2018-01-23 15:05:30,48.4,2.7,Fontainebleau,77302 CEDEX,1,2,6,NULL
1026,Fab User,2018-01-23 15:05:30,,Fab User,2018-01-23 15:05:30,48.4,2.7,Fontainebleau,77303 CEDEX,1,2,6,NULL
1027,Fab User,2018-01-23 15:05:30,,Fab User,2018-01-23 15:05:30,48.4,2.7,Fontainebleau,77304 CEDEX,1,2,6,NULL
1028,Fab User,2018-01-23 15:05:30,,Fab User,2018-01-23 15:05:30,48.4,2.7,Fontainebleau,77305 CEDEX,1,2,6,NULL
1029,Fab User,2018-01-23 15:05:30,,Fab User,2018-01-23 15:05:30,48.4,2.7,Fontainebleau,77307 CEDEX,1,2,6,NULL
1030,Fab User,2018-01-23 15:05:30,,Fab User,2018-01-23 15:05:30,48.4,2.7,Fontainebleau,77308 CEDEX,1,2,6,NULL
1031,Fab User,2018-01-23 15:05:30,,Fab User,2018-01-23 15:05:30,48.4,2.7,Fontainebleau,77309 CEDEX,1,2,6,NULL
1032,Fab User,2018-01-23 15:05:30,,Fab User,2018-01-23 15:05:30,48.5182,2.5633,Pringy,77310,1,2,2,NULL
1033,Fab User,2018-01-23 15:05:30,,Fab User,2018-01-23 15:05:30,48.8333,2.6333,Marne-la-Valle,77311 CEDEX 2,1,2,7,NULL
1034,Fab User,2018-01-23 15:05:30,,Fab User,2018-01-23 15:05:30,48.8333,2.6333,Marne-la-Valle,77312 CEDEX 2,1,2,7,NULL
1035,Fab User,2018-01-23 15:05:30,,Fab User,2018-01-23 15:05:30,48.8333,2.6333,Marne-la-Valle,77313 CEDEX 2,1,2,7,NULL
1036,Fab User,2018-01-23 15:05:30,,Fab User,2018-01-23 15:05:30,48.8333,2.6333,Marne-la-Valle,77314 CEDEX 2,1,2,7,NULL
1037,Fab User,2018-01-23 15:05:30,,Fab User,2018-01-23 15:05:30,48.8333,2.6333,Marne-la-Valle,77315 CEDEX 2,1,2,7,NULL
1038,Fab User,2018-01-23 15:05:30,,Fab User,2018-01-23 15:05:30,48.8333,2.6333,Marne-la-Valle,77316 CEDEX 2,1,2,7,NULL
1039,Fab User,2018-01-23 15:05:30,,Fab User,2018-01-23 15:05:30,48.8333,2.6333,Marne-la-Valle,77318 CEDEX 2,1,2,7,NULL
1040,Fab User,2018-01-23 15:05:30,,Fab User,2018-01-23 15:05:30,48.8333,2.6333,Marne-la-Valle,77319 CEDEX 2,1,2,7,NULL
1041,Fab User,2018-01-23 15:05:30,,Fab User,2018-01-23 15:05:30,48.7785,3.3346,Saint-Martin-des-Champs,77320,1,2,5,NULL
1042,Fab User,2018-01-23 15:05:31,,Fab User,2018-01-23 15:05:31,48.8333,2.6333,Marne-la-Valle,77327 CEDEX 2,1,2,7,NULL
1043,Fab User,2018-01-23 15:05:31,,Fab User,2018-01-23 15:05:31,48.767,2.6687,Ozoir-la-Ferrire,77330,1,2,3,NULL
1044,Fab User,2018-01-23 15:05:31,,Fab User,2018-01-23 15:05:31,48.9601,2.8788,Meaux,77331 CEDEX,1,2,4,NULL
1045,Fab User,2018-01-23 15:05:31,,Fab User,2018-01-23 15:05:31,48.9601,2.8788,Meaux,77332 CEDEX,1,2,4,NULL
1046,Fab User,2018-01-23 15:05:31,,Fab User,2018-01-23 15:05:31,48.9601,2.8788,Meaux,77333 CEDEX,1,2,4,NULL
1047,Fab User,2018-01-23 15:05:31,,Fab User,2018-01-23 15:05:31,48.9601,2.8788,Meaux,77334 CEDEX,1,2,4,NULL
1048,Fab User,2018-01-23 15:05:31,,Fab User,2018-01-23 15:05:31,48.9601,2.8788,Meaux,77335 CEDEX,1,2,4,NULL
1049,Fab User,2018-01-23 15:05:31,,Fab User,2018-01-23 15:05:31,48.9601,2.8788,Meaux,77337 CEDEX,1,2,4,NULL
1050,Fab User,2018-01-23 15:05:31,,Fab User,2018-01-23 15:05:31,48.7981,2.6068,Pontault-Combault,77340,1,2,3,NULL
1051,Fab User,2018-01-23 15:05:31,,Fab User,2018-01-23 15:05:31,48.7981,2.6068,Pontault-Combault,77341 CEDEX,1,2,3,NULL
1052,Fab User,2018-01-23 15:05:31,,Fab User,2018-01-23 15:05:31,48.7981,2.6068,Pontault-Combault,77342 CEDEX,1,2,3,NULL
1053,Fab User,2018-01-23 15:05:31,,Fab User,2018-01-23 15:05:31,48.7981,2.6068,Pontault-Combault,77343 CEDEX,1,2,3,NULL
1054,Fab User,2018-01-23 15:05:31,,Fab User,2018-01-23 15:05:31,48.7981,2.6068,Pontault-Combault,77344 CEDEX,1,2,3,NULL
1055,Fab User,2018-01-23 15:05:31,,Fab User,2018-01-23 15:05:31,48.7981,2.6068,Pontault-Combault,77346 CEDEX,1,2,3,NULL
1056,Fab User,2018-01-23 15:05:31,,Fab User,2018-01-23 15:05:31,48.7981,2.6068,Pontault-Combault,77347 CEDEX,1,2,3,NULL
1057,Fab User,2018-01-23 15:05:31,,Fab User,2018-01-23 15:05:31,48.7981,2.6068,Pontault-Combault,77348 CEDEX,1,2,3,NULL
1058,Fab User,2018-01-23 15:05:31,,Fab User,2018-01-23 15:05:31,48.7981,2.6068,Pontault-Combault,77349 CEDEX,1,2,3,NULL
1059,Fab User,2018-01-23 15:05:31,,Fab User,2018-01-23 15:05:31,48.5285,2.5894,Boissise-la-Bertrand,77350,1,2,2,NULL
1060,Fab User,2018-01-23 15:05:31,,Fab User,2018-01-23 15:05:31,48.9601,2.8788,Meaux,77351 CEDEX,1,2,4,NULL
1061,Fab User,2018-01-23 15:05:31,,Fab User,2018-01-23 15:05:31,48.9601,2.8788,Meaux,77352 CEDEX,1,2,4,NULL
1062,Fab User,2018-01-23 15:05:31,,Fab User,2018-01-23 15:05:31,48.9601,2.8788,Meaux,77353 CEDEX,1,2,4,NULL
1063,Fab User,2018-01-23 15:05:31,,Fab User,2018-01-23 15:05:31,48.8765,2.6398,Vaires-sur-Marne,77360,1,2,3,NULL
1064,Fab User,2018-01-23 15:05:31,,Fab User,2018-01-23 15:05:31,48.5554,3.0131,Nangis,77370,1,2,5,NULL
1065,Fab User,2018-01-23 15:05:31,,Fab User,2018-01-23 15:05:31,48.665,2.5696,Combs-la-Ville,77380,1,2,2,NULL
1066,Fab User,2018-01-23 15:05:31,,Fab User,2018-01-23 15:05:31,48.665,2.5696,Combs-la-Ville,77381 CEDEX,1,2,2,NULL
1067,Fab User,2018-01-23 15:05:31,,Fab User,2018-01-23 15:05:31,48.665,2.5696,Combs-la-Ville,77382 CEDEX,1,2,2,NULL
1068,Fab User,2018-01-23 15:05:31,,Fab User,2018-01-23 15:05:31,48.665,2.5696,Combs-la-Ville,77384 CEDEX,1,2,2,NULL
1069,Fab User,2018-01-23 15:05:31,,Fab User,2018-01-23 15:05:31,48.665,2.5696,Combs-la-Ville,77385 CEDEX,1,2,2,NULL
1070,Fab User,2018-01-23 15:05:31,,Fab User,2018-01-23 15:05:31,48.665,2.5696,Combs-la-Ville,77388 CEDEX,1,2,2,NULL
1071,Fab User,2018-01-23 15:05:31,,Fab User,2018-01-23 15:05:31,48.665,2.5696,Combs-la-Ville,77389 CEDEX,1,2,2,NULL
1072,Fab User,2018-01-23 15:05:31,,Fab User,2018-01-23 15:05:31,48.5858,2.7779,Fouju,77390,1,2,2,NULL
1073,Fab User,2018-01-23 15:05:31,,Fab User,2018-01-23 15:05:31,48.8885,2.7409,Dampmart,77400,1,2,3,NULL
1074,Fab User,2018-01-23 15:05:31,,Fab User,2018-01-23 15:05:31,48.8667,2.7167,Lagny-sur-Marne,77401 CEDEX,1,2,3,NULL
1075,Fab User,2018-01-23 15:05:31,,Fab User,2018-01-23 15:05:31,48.8667,2.7167,Lagny-sur-Marne,77402 CEDEX,1,2,3,NULL
1076,Fab User,2018-01-23 15:05:31,,Fab User,2018-01-23 15:05:31,48.8667,2.7167,Lagny-sur-Marne,77403 CEDEX,1,2,3,NULL
1077,Fab User,2018-01-23 15:05:31,,Fab User,2018-01-23 15:05:31,48.8667,2.7167,Lagny-sur-Marne,77404 CEDEX,1,2,3,NULL
1078,Fab User,2018-01-23 15:05:31,,Fab User,2018-01-23 15:05:31,48.8667,2.7167,Lagny-sur-Marne,77405 CEDEX,1,2,3,NULL
1079,Fab User,2018-01-23 15:05:31,,Fab User,2018-01-23 15:05:31,48.8667,2.7167,Lagny-sur-Marne,77406 CEDEX,1,2,3,NULL
1080,Fab User,2018-01-23 15:05:31,,Fab User,2018-01-23 15:05:31,48.8667,2.7167,Lagny-sur-Marne,77407 CEDEX,1,2,3,NULL
1081,Fab User,2018-01-23 15:05:31,,Fab User,2018-01-23 15:05:31,48.8667,2.7167,Lagny-sur-Marne,77409 CEDEX,1,2,3,NULL
1082,Fab User,2018-01-23 15:05:31,,Fab User,2018-01-23 15:05:31,48.9667,2.7,Messy,77410,1,2,4,NULL
1083,Fab User,2018-01-23 15:05:31,,Fab User,2018-01-23 15:05:31,48.9449,2.6857,Claye-Souilly,77411 CEDEX,1,2,3,NULL
1084,Fab User,2018-01-23 15:05:31,,Fab User,2018-01-23 15:05:31,48.9449,2.6857,Claye-Souilly,77412 CEDEX,1,2,3,NULL
1085,Fab User,2018-01-23 15:05:31,,Fab User,2018-01-23 15:05:31,48.9449,2.6857,Claye-Souilly,77413 CEDEX,1,2,3,NULL
1086,Fab User,2018-01-23 15:05:31,,Fab User,2018-01-23 15:05:31,48.9449,2.6857,Claye-Souilly,77414 CEDEX,1,2,3,NULL
1087,Fab User,2018-01-23 15:05:31,,Fab User,2018-01-23 15:05:31,48.9449,2.6857,Claye-Souilly,77415 CEDEX,1,2,3,NULL
1088,Fab User,2018-01-23 15:05:31,,Fab User,2018-01-23 15:05:31,48.9449,2.6857,Claye-Souilly,77416 CEDEX,1,2,3,NULL
1089,Fab User,2018-01-23 15:05:31,,Fab User,2018-01-23 15:05:31,48.9449,2.6857,Claye-Souilly,77417 CEDEX,1,2,3,NULL
1090,Fab User,2018-01-23 15:05:31,,Fab User,2018-01-23 15:05:31,48.9449,2.6857,Claye-Souilly,77419 CEDEX,1,2,3,NULL
1091,Fab User,2018-01-23 15:05:31,,Fab User,2018-01-23 15:05:31,48.85,2.6,Champs-sur-Marne,77420,1,2,3,NULL
1092,Fab User,2018-01-23 15:05:31,,Fab User,2018-01-23 15:05:31,48.8333,2.6333,Marne-la-Valle,77421 CEDEX 2,1,2,7,NULL
1093,Fab User,2018-01-23 15:05:31,,Fab User,2018-01-23 15:05:31,48.8333,2.6333,Marne-la-Valle,77422 CEDEX 2,1,2,7,NULL
1094,Fab User,2018-01-23 15:05:31,,Fab User,2018-01-23 15:05:31,48.8333,2.6333,Marne-la-Valle,77423 CEDEX 2,1,2,7,NULL
1095,Fab User,2018-01-23 15:05:32,,Fab User,2018-01-23 15:05:32,48.8333,2.6333,Marne-la-Valle,77424 CEDEX 2,1,2,7,NULL
1096,Fab User,2018-01-23 15:05:32,,Fab User,2018-01-23 15:05:32,48.8333,2.6333,Marne-la-Valle,77425 CEDEX 2,1,2,7,NULL
1097,Fab User,2018-01-23 15:05:32,,Fab User,2018-01-23 15:05:32,48.8333,2.6333,Marne-la-Valle,77426 CEDEX 2,1,2,7,NULL
1098,Fab User,2018-01-23 15:05:32,,Fab User,2018-01-23 15:05:32,48.8333,2.6333,Marne-la-Valle,77427 CEDEX 2,1,2,7,NULL
1099,Fab User,2018-01-23 15:05:32,,Fab User,2018-01-23 15:05:32,48.8333,2.6333,Marne-la-Valle,77429 CEDEX 2,1,2,7,NULL
1100,Fab User,2018-01-23 15:05:32,,Fab User,2018-01-23 15:05:32,48.3979,2.7978,Champagne-sur-Seine,77430,1,2,6,NULL
1101,Fab User,2018-01-23 15:05:32,,Fab User,2018-01-23 15:05:32,48.8333,2.6333,Marne-la-Valle,77431 CEDEX 2,1,2,7,NULL
1102,Fab User,2018-01-23 15:05:32,,Fab User,2018-01-23 15:05:32,48.8333,2.6333,Marne-la-Valle,77432 CEDEX 2,1,2,7,NULL
1103,Fab User,2018-01-23 15:05:32,,Fab User,2018-01-23 15:05:32,48.8333,2.6333,Marne-la-Valle,77433 CEDEX 2,1,2,7,NULL
1104,Fab User,2018-01-23 15:05:32,,Fab User,2018-01-23 15:05:32,48.8333,2.6333,Marne-la-Valle,77434 CEDEX 2,1,2,7,NULL
1105,Fab User,2018-01-23 15:05:32,,Fab User,2018-01-23 15:05:32,48.8333,2.6333,Marne-la-Valle,77435 CEDEX 2,1,2,7,NULL
1106,Fab User,2018-01-23 15:05:32,,Fab User,2018-01-23 15:05:32,48.8333,2.6333,Marne-la-Valle,77436 CEDEX 2,1,2,7,NULL
1107,Fab User,2018-01-23 15:05:32,,Fab User,2018-01-23 15:05:32,48.8333,2.6333,Marne-la-Valle,77437 CEDEX 2,1,2,7,NULL
1108,Fab User,2018-01-23 15:05:32,,Fab User,2018-01-23 15:05:32,48.8333,2.6333,Marne-la-Valle,77439 CEDEX 2,1,2,7,NULL
1109,Fab User,2018-01-23 15:05:32,,Fab User,2018-01-23 15:05:32,48.9995,3.0061,Isles-les-Meldeuses,77440,1,2,4,NULL
1110,Fab User,2018-01-23 15:05:32,,Fab User,2018-01-23 15:05:32,48.8333,2.6333,Marne-la-Valle,77441 CEDEX 2,1,2,7,NULL
1111,Fab User,2018-01-23 15:05:32,,Fab User,2018-01-23 15:05:32,48.8333,2.6333,Marne-la-Valle,77442 CEDEX 2,1,2,7,NULL
1112,Fab User,2018-01-23 15:05:32,,Fab User,2018-01-23 15:05:32,48.8333,2.6333,Marne-la-Valle,77443 CEDEX 2,1,2,7,NULL
1113,Fab User,2018-01-23 15:05:32,,Fab User,2018-01-23 15:05:32,48.8333,2.6333,Marne-la-Valle,77444 CEDEX 2,1,2,7,NULL
1114,Fab User,2018-01-23 15:05:32,,Fab User,2018-01-23 15:05:32,48.8333,2.6333,Marne-la-Valle,77445 CEDEX 2,1,2,7,NULL
1115,Fab User,2018-01-23 15:05:32,,Fab User,2018-01-23 15:05:32,48.8333,2.6333,Marne-la-Valle,77446 CEDEX 2,1,2,7,NULL
1116,Fab User,2018-01-23 15:05:32,,Fab User,2018-01-23 15:05:32,48.8333,2.6333,Marne-la-Valle,77447 CEDEX 2,1,2,7,NULL
1117,Fab User,2018-01-23 15:05:32,,Fab User,2018-01-23 15:05:32,48.8333,2.6333,Marne-la-Valle,77448 CEDEX 2,1,2,7,NULL
1118,Fab User,2018-01-23 15:05:32,,Fab User,2018-01-23 15:05:32,48.931,2.8084,Vignely,77450,1,2,4,NULL
1119,Fab User,2018-01-23 15:05:32,,Fab User,2018-01-23 15:05:32,48.8333,2.6333,Marne-la-Valle,77451 CEDEX 2,1,2,7,NULL
1120,Fab User,2018-01-23 15:05:32,,Fab User,2018-01-23 15:05:32,48.8333,2.6333,Marne-la-Valle,77452 CEDEX 2,1,2,7,NULL
1121,Fab User,2018-01-23 15:05:32,,Fab User,2018-01-23 15:05:32,48.8333,2.6333,Marne-la-Valle,77453 CEDEX 2,1,2,7,NULL
1122,Fab User,2018-01-23 15:05:32,,Fab User,2018-01-23 15:05:32,48.8333,2.6333,Marne-la-Valle,77454 CEDEX 2,1,2,7,NULL
1123,Fab User,2018-01-23 15:05:32,,Fab User,2018-01-23 15:05:32,48.8333,2.6333,Marne-la-Valle,77455 CEDEX 2,1,2,7,NULL
1124,Fab User,2018-01-23 15:05:32,,Fab User,2018-01-23 15:05:32,48.8333,2.6333,Marne-la-Valle,77458 CEDEX 2,1,2,7,NULL
1125,Fab User,2018-01-23 15:05:32,,Fab User,2018-01-23 15:05:32,48.183,2.7352,Souppes-sur-Loing,77460,1,2,6,NULL
1126,Fab User,2018-01-23 15:05:32,,Fab User,2018-01-23 15:05:32,48.8667,2.7167,Lagny-sur-Marne,77462 CEDEX,1,2,3,NULL
1127,Fab User,2018-01-23 15:05:32,,Fab User,2018-01-23 15:05:32,48.8667,2.7167,Lagny-sur-Marne,77463 CEDEX,1,2,3,NULL
1128,Fab User,2018-01-23 15:05:32,,Fab User,2018-01-23 15:05:32,48.8667,2.7167,Lagny-sur-Marne,77464 CEDEX,1,2,3,NULL
1129,Fab User,2018-01-23 15:05:32,,Fab User,2018-01-23 15:05:32,48.8667,2.7167,Lagny-sur-Marne,77465 CEDEX,1,2,3,NULL
1130,Fab User,2018-01-23 15:05:32,,Fab User,2018-01-23 15:05:32,48.8667,2.7167,Lagny-sur-Marne,77467 CEDEX,1,2,3,NULL
1131,Fab User,2018-01-23 15:05:32,,Fab User,2018-01-23 15:05:32,48.183,2.7352,Souppes-sur-Loing,77468 CEDEX,1,2,6,NULL
1132,Fab User,2018-01-23 15:05:32,,Fab User,2018-01-23 15:05:32,48.183,2.7352,Souppes-sur-Loing,77469 CEDEX,1,2,6,NULL
1133,Fab User,2018-01-23 15:05:32,,Fab User,2018-01-23 15:05:32,48.9382,2.9365,Fublaines,77470,1,2,4,NULL
1134,Fab User,2018-01-23 15:05:32,,Fab User,2018-01-23 15:05:32,48.4147,3.2283,Mousseaux-ls-Bray,77480,1,2,5,NULL
1135,Fab User,2018-01-23 15:05:32,,Fab User,2018-01-23 15:05:32,48.55,3.3,Provins,77481 CEDEX,1,2,5,NULL
1136,Fab User,2018-01-23 15:05:32,,Fab User,2018-01-23 15:05:32,48.55,3.3,Provins,77482 CEDEX,1,2,5,NULL
1137,Fab User,2018-01-23 15:05:32,,Fab User,2018-01-23 15:05:32,48.55,3.3,Provins,77483 CEDEX,1,2,5,NULL
1138,Fab User,2018-01-23 15:05:32,,Fab User,2018-01-23 15:05:32,48.55,3.3,Provins,77484 CEDEX,1,2,5,NULL
1139,Fab User,2018-01-23 15:05:32,,Fab User,2018-01-23 15:05:32,48.55,3.3,Provins,77486 CEDEX,1,2,5,NULL
1140,Fab User,2018-01-23 15:05:32,,Fab User,2018-01-23 15:05:32,48.55,3.3,Provins,77487 CEDEX,1,2,5,NULL
1141,Fab User,2018-01-23 15:05:32,,Fab User,2018-01-23 15:05:32,48.55,3.3,Provins,77488 CEDEX,1,2,5,NULL
1142,Fab User,2018-01-23 15:05:32,,Fab User,2018-01-23 15:05:32,48.55,3.3,Provins,77489 CEDEX,1,2,5,NULL
1143,Fab User,2018-01-23 15:05:32,,Fab User,2018-01-23 15:05:32,48.8811,2.5929,Chelles,77500,1,2,3,NULL
1144,Fab User,2018-01-23 15:05:32,,Fab User,2018-01-23 15:05:32,48.8811,2.5929,Chelles,77501 CEDEX,1,2,3,NULL
1145,Fab User,2018-01-23 15:05:32,,Fab User,2018-01-23 15:05:32,48.8811,2.5929,Chelles,77502 CEDEX,1,2,3,NULL
1146,Fab User,2018-01-23 15:05:32,,Fab User,2018-01-23 15:05:32,48.8811,2.5929,Chelles,77503 CEDEX,1,2,3,NULL
1147,Fab User,2018-01-23 15:05:32,,Fab User,2018-01-23 15:05:32,48.8811,2.5929,Chelles,77504 CEDEX,1,2,3,NULL
1148,Fab User,2018-01-23 15:05:32,,Fab User,2018-01-23 15:05:32,48.8811,2.5929,Chelles,77505 CEDEX,1,2,3,NULL
1149,Fab User,2018-01-23 15:05:32,,Fab User,2018-01-23 15:05:32,48.8811,2.5929,Chelles,77506 CEDEX,1,2,3,NULL
1150,Fab User,2018-01-23 15:05:32,,Fab User,2018-01-23 15:05:32,48.8811,2.5929,Chelles,77507 CEDEX,1,2,3,NULL
1151,Fab User,2018-01-23 15:05:32,,Fab User,2018-01-23 15:05:32,48.8811,2.5929,Chelles,77508 CEDEX,1,2,3,NULL
1152,Fab User,2018-01-23 15:05:32,,Fab User,2018-01-23 15:05:32,48.8811,2.5929,Chelles,77509 CEDEX,1,2,3,NULL
1153,Fab User,2018-01-23 15:05:32,,Fab User,2018-01-23 15:05:32,48.8472,3.2323,Rebais,77510,1,2,5,NULL
1154,Fab User,2018-01-23 15:05:32,,Fab User,2018-01-23 15:05:32,48.7655,2.9681,Hautefeuille,77515,1,2,5,NULL
1155,Fab User,2018-01-23 15:05:32,,Fab User,2018-01-23 15:05:32,48.4397,3.1654,Vimpelles,77520,1,2,5,NULL
1156,Fab User,2018-01-23 15:05:33,,Fab User,2018-01-23 15:05:33,48.8145,3.085,Coulommiers,77521 CEDEX,1,2,4,NULL
1157,Fab User,2018-01-23 15:05:33,,Fab User,2018-01-23 15:05:33,48.8145,3.085,Coulommiers,77522 CEDEX,1,2,4,NULL
1158,Fab User,2018-01-23 15:05:33,,Fab User,2018-01-23 15:05:33,48.8145,3.085,Coulommiers,77523 CEDEX,1,2,4,NULL
1159,Fab User,2018-01-23 15:05:33,,Fab User,2018-01-23 15:05:33,48.8145,3.085,Coulommiers,77524 CEDEX,1,2,4,NULL
1160,Fab User,2018-01-23 15:05:33,,Fab User,2018-01-23 15:05:33,48.8145,3.085,Coulommiers,77525 CEDEX,1,2,4,NULL
1161,Fab User,2018-01-23 15:05:33,,Fab User,2018-01-23 15:05:33,48.8145,3.085,Coulommiers,77526 CEDEX,1,2,4,NULL
1162,Fab User,2018-01-23 15:05:33,,Fab User,2018-01-23 15:05:33,48.8145,3.085,Coulommiers,77527 CEDEX,1,2,4,NULL
1163,Fab User,2018-01-23 15:05:33,,Fab User,2018-01-23 15:05:33,48.8145,3.085,Coulommiers,77528 CEDEX,1,2,4,NULL
1164,Fab User,2018-01-23 15:05:33,,Fab User,2018-01-23 15:05:33,48.8145,3.085,Coulommiers,77529 CEDEX,1,2,4,NULL
1165,Fab User,2018-01-23 15:05:33,,Fab User,2018-01-23 15:05:33,48.6913,3.0047,Voinsles,77540,1,2,5,NULL
1166,Fab User,2018-01-23 15:05:33,,Fab User,2018-01-23 15:05:33,48.5741,2.5829,Savigny-le-Temple,77541 CEDEX,1,2,2,NULL
1167,Fab User,2018-01-23 15:05:33,,Fab User,2018-01-23 15:05:33,48.5741,2.5829,Savigny-le-Temple,77542 CEDEX,1,2,2,NULL
1168,Fab User,2018-01-23 15:05:33,,Fab User,2018-01-23 15:05:33,48.5741,2.5829,Savigny-le-Temple,77543 CEDEX,1,2,2,NULL
1169,Fab User,2018-01-23 15:05:33,,Fab User,2018-01-23 15:05:33,48.5741,2.5829,Savigny-le-Temple,77544 CEDEX,1,2,2,NULL
1170,Fab User,2018-01-23 15:05:33,,Fab User,2018-01-23 15:05:33,48.5741,2.5829,Savigny-le-Temple,77545 CEDEX,1,2,2,NULL
1171,Fab User,2018-01-23 15:05:33,,Fab User,2018-01-23 15:05:33,48.5741,2.5829,Savigny-le-Temple,77546 CEDEX,1,2,2,NULL
1172,Fab User,2018-01-23 15:05:33,,Fab User,2018-01-23 15:05:33,48.5741,2.5829,Savigny-le-Temple,77547 CEDEX,1,2,2,NULL
1173,Fab User,2018-01-23 15:05:33,,Fab User,2018-01-23 15:05:33,48.5741,2.5829,Savigny-le-Temple,77548 CEDEX,1,2,2,NULL
1174,Fab User,2018-01-23 15:05:33,,Fab User,2018-01-23 15:05:33,48.5741,2.5829,Savigny-le-Temple,77549 CEDEX,1,2,2,NULL
1175,Fab User,2018-01-23 15:05:33,,Fab User,2018-01-23 15:05:33,48.628,2.6655,Limoges-Fourches,77550,1,2,2,NULL
1176,Fab User,2018-01-23 15:05:33,,Fab User,2018-01-23 15:05:33,48.6261,2.6012,Moissy-Cramayel,77551 CEDEX,1,2,2,NULL
1177,Fab User,2018-01-23 15:05:33,,Fab User,2018-01-23 15:05:33,48.6261,2.6012,Moissy-Cramayel,77552 CEDEX,1,2,2,NULL
1178,Fab User,2018-01-23 15:05:33,,Fab User,2018-01-23 15:05:33,48.6261,2.6012,Moissy-Cramayel,77553 CEDEX,1,2,2,NULL
1179,Fab User,2018-01-23 15:05:33,,Fab User,2018-01-23 15:05:33,48.6261,2.6012,Moissy-Cramayel,77554 CEDEX,1,2,2,NULL
1180,Fab User,2018-01-23 15:05:33,,Fab User,2018-01-23 15:05:33,48.6261,2.6012,Moissy-Cramayel,77555 CEDEX,1,2,2,NULL
1181,Fab User,2018-01-23 15:05:33,,Fab User,2018-01-23 15:05:33,48.6261,2.6012,Moissy-Cramayel,77556 CEDEX,1,2,2,NULL
1182,Fab User,2018-01-23 15:05:33,,Fab User,2018-01-23 15:05:33,48.6261,2.6012,Moissy-Cramayel,77557 CEDEX,1,2,2,NULL
1183,Fab User,2018-01-23 15:05:33,,Fab User,2018-01-23 15:05:33,48.6261,2.6012,Moissy-Cramayel,77558 CEDEX,1,2,2,NULL
1184,Fab User,2018-01-23 15:05:33,,Fab User,2018-01-23 15:05:33,48.6261,2.6012,Moissy-Cramayel,77559 CEDEX,1,2,2,NULL
1185,Fab User,2018-01-23 15:05:33,,Fab User,2018-01-23 15:05:33,48.6167,3.4,Beauchery-Saint-Martin,77560,1,2,5,NULL
1186,Fab User,2018-01-23 15:05:33,,Fab User,2018-01-23 15:05:33,48.6348,2.5481,Lieusaint,77561 CEDEX,1,2,2,NULL
1187,Fab User,2018-01-23 15:05:33,,Fab User,2018-01-23 15:05:33,48.6348,2.5481,Lieusaint,77562 CEDEX,1,2,2,NULL
1188,Fab User,2018-01-23 15:05:33,,Fab User,2018-01-23 15:05:33,48.6348,2.5481,Lieusaint,77563 CEDEX,1,2,2,NULL
1189,Fab User,2018-01-23 15:05:33,,Fab User,2018-01-23 15:05:33,48.6348,2.5481,Lieusaint,77564 CEDEX,1,2,2,NULL
1190,Fab User,2018-01-23 15:05:33,,Fab User,2018-01-23 15:05:33,48.6348,2.5481,Lieusaint,77565 CEDEX,1,2,2,NULL
1191,Fab User,2018-01-23 15:05:33,,Fab User,2018-01-23 15:05:33,48.6348,2.5481,Lieusaint,77566 CEDEX,1,2,2,NULL
1192,Fab User,2018-01-23 15:05:33,,Fab User,2018-01-23 15:05:33,48.6348,2.5481,Lieusaint,77567 CEDEX,1,2,2,NULL
1193,Fab User,2018-01-23 15:05:33,,Fab User,2018-01-23 15:05:33,48.6348,2.5481,Lieusaint,77568 CEDEX,1,2,2,NULL
1194,Fab User,2018-01-23 15:05:33,,Fab User,2018-01-23 15:05:33,48.6348,2.5481,Lieusaint,77569 CEDEX,1,2,2,NULL
1195,Fab User,2018-01-23 15:05:33,,Fab User,2018-01-23 15:05:33,48.1654,2.6592,Chenou,77570,1,2,6,NULL
1196,Fab User,2018-01-23 15:05:33,,Fab User,2018-01-23 15:05:33,48.8592,2.9074,Crcy-la-Chapelle,77580,1,2,4,NULL
1197,Fab User,2018-01-23 15:05:33,,Fab User,2018-01-23 15:05:33,48.5741,2.5829,Savigny-le-Temple,77581 CEDEX,1,2,2,NULL
1198,Fab User,2018-01-23 15:05:33,,Fab User,2018-01-23 15:05:33,48.5741,2.5829,Savigny-le-Temple,77582 CEDEX,1,2,2,NULL
1199,Fab User,2018-01-23 15:05:33,,Fab User,2018-01-23 15:05:33,48.5741,2.5829,Savigny-le-Temple,77583 CEDEX,1,2,2,NULL
1200,Fab User,2018-01-23 15:05:33,,Fab User,2018-01-23 15:05:33,48.5741,2.5829,Savigny-le-Temple,77585 CEDEX,1,2,2,NULL
1201,Fab User,2018-01-23 15:05:33,,Fab User,2018-01-23 15:05:33,48.4735,2.7046,Bois-le-Roi,77590,1,2,6,NULL
1202,Fab User,2018-01-23 15:05:33,,Fab User,2018-01-23 15:05:33,48.8376,2.7543,Jossigny,77600,1,2,3,NULL
1203,Fab User,2018-01-23 15:05:33,,Fab User,2018-01-23 15:05:33,48.8333,2.6333,Marne-la-Valle,77601 CEDEX 3,1,2,7,NULL
1204,Fab User,2018-01-23 15:05:33,,Fab User,2018-01-23 15:05:33,48.8333,2.6333,Marne-la-Valle,77602 CEDEX 3,1,2,7,NULL
1205,Fab User,2018-01-23 15:05:33,,Fab User,2018-01-23 15:05:33,48.8333,2.6333,Marne-la-Valle,77603 CEDEX 3,1,2,7,NULL
1206,Fab User,2018-01-23 15:05:33,,Fab User,2018-01-23 15:05:33,48.8333,2.6333,Marne-la-Valle,77604 CEDEX 3,1,2,7,NULL
1207,Fab User,2018-01-23 15:05:33,,Fab User,2018-01-23 15:05:33,48.8333,2.6333,Marne-la-Valle,77605 CEDEX 3,1,2,7,NULL
1208,Fab User,2018-01-23 15:05:34,,Fab User,2018-01-23 15:05:34,48.8333,2.6333,Marne-la-Valle,77606 CEDEX 3,1,2,7,NULL
1209,Fab User,2018-01-23 15:05:34,,Fab User,2018-01-23 15:05:34,48.8333,2.6333,Marne-la-Valle,77607 CEDEX 3,1,2,7,NULL
1210,Fab User,2018-01-23 15:05:34,,Fab User,2018-01-23 15:05:34,48.8333,2.6333,Marne-la-Valle,77608 CEDEX 3,1,2,7,NULL
1211,Fab User,2018-01-23 15:05:34,,Fab User,2018-01-23 15:05:34,48.8333,2.6333,Marne-la-Valle,77609 CEDEX 3,1,2,7,NULL
1212,Fab User,2018-01-23 15:05:34,,Fab User,2018-01-23 15:05:34,48.7688,2.8316,Neufmoutiers-en-Brie,77610,1,2,5,NULL
1213,Fab User,2018-01-23 15:05:34,,Fab User,2018-01-23 15:05:34,48.8333,2.6333,Marne-la-Valle,77611 CEDEX 3,1,2,7,NULL
1214,Fab User,2018-01-23 15:05:34,,Fab User,2018-01-23 15:05:34,48.8333,2.6333,Marne-la-Valle,77612 CEDEX 3,1,2,7,NULL
1215,Fab User,2018-01-23 15:05:34,,Fab User,2018-01-23 15:05:34,48.8333,2.6333,Marne-la-Valle,77614 CEDEX 3,1,2,7,NULL
1216,Fab User,2018-01-23 15:05:34,,Fab User,2018-01-23 15:05:34,48.8333,2.6333,Marne-la-Valle,77615 CEDEX 3,1,2,7,NULL
1217,Fab User,2018-01-23 15:05:34,,Fab User,2018-01-23 15:05:34,48.8333,2.6333,Marne-la-Valle,77616 CEDEX 3,1,2,7,NULL
1218,Fab User,2018-01-23 15:05:34,,Fab User,2018-01-23 15:05:34,48.8333,2.6333,Marne-la-Valle,77617 CEDEX 3,1,2,7,NULL
1219,Fab User,2018-01-23 15:05:34,,Fab User,2018-01-23 15:05:34,48.1761,2.8728,greville,77620,1,2,6,NULL
1220,Fab User,2018-01-23 15:05:34,,Fab User,2018-01-23 15:05:34,48.4366,2.5668,Saint-Martin-en-Bire,77630,1,2,2,NULL
1221,Fab User,2018-01-23 15:05:34,,Fab User,2018-01-23 15:05:34,48.9266,3.1317,Jouarre,77640,1,2,4,NULL
1222,Fab User,2018-01-23 15:05:34,,Fab User,2018-01-23 15:05:34,48.8811,2.5929,Chelles,77641 CEDEX,1,2,3,NULL
1223,Fab User,2018-01-23 15:05:34,,Fab User,2018-01-23 15:05:34,48.8811,2.5929,Chelles,77645 CEDEX,1,2,3,NULL
1224,Fab User,2018-01-23 15:05:34,,Fab User,2018-01-23 15:05:34,48.8811,2.5929,Chelles,77646 CEDEX,1,2,3,NULL
1225,Fab User,2018-01-23 15:05:34,,Fab User,2018-01-23 15:05:34,48.8811,2.5929,Chelles,77649 CEDEX,1,2,3,NULL
1226,Fab User,2018-01-23 15:05:34,,Fab User,2018-01-23 15:05:34,48.5118,3.295,Soisy-Bouy,77650,1,2,5,NULL
1227,Fab User,2018-01-23 15:05:34,,Fab User,2018-01-23 15:05:34,48.9582,3.0219,Changis-sur-Marne,77660,1,2,4,NULL
1228,Fab User,2018-01-23 15:05:34,,Fab User,2018-01-23 15:05:34,48.3879,2.8472,Vernou-la-Celle-sur-Seine,77670,1,2,6,NULL
1229,Fab User,2018-01-23 15:05:34,,Fab User,2018-01-23 15:05:34,48.7916,2.6475,Roissy-en-Brie,77680,1,2,3,NULL
1230,Fab User,2018-01-23 15:05:34,,Fab User,2018-01-23 15:05:34,48.3203,2.7455,La Genevraye,77690,1,2,6,NULL
1231,Fab User,2018-01-23 15:05:34,,Fab User,2018-01-23 15:05:34,48.8833,2.7667,Chessy,77700,1,2,3,NULL
1232,Fab User,2018-01-23 15:05:34,,Fab User,2018-01-23 15:05:34,48.8333,2.6333,Marne-la-Valle,77701 CEDEX 4,1,2,7,NULL
1233,Fab User,2018-01-23 15:05:34,,Fab User,2018-01-23 15:05:34,48.8333,2.6333,Marne-la-Valle,77702 CEDEX 4,1,2,7,NULL
1234,Fab User,2018-01-23 15:05:34,,Fab User,2018-01-23 15:05:34,48.8333,2.6333,Marne-la-Valle,77703 CEDEX 4,1,2,7,NULL
1235,Fab User,2018-01-23 15:05:34,,Fab User,2018-01-23 15:05:34,48.8333,2.6333,Marne-la-Valle,77704 CEDEX 4,1,2,7,NULL
1236,Fab User,2018-01-23 15:05:34,,Fab User,2018-01-23 15:05:34,48.8333,2.6333,Marne-la-Valle,77705 CEDEX 4,1,2,7,NULL
1237,Fab User,2018-01-23 15:05:34,,Fab User,2018-01-23 15:05:34,48.8333,2.6333,Marne-la-Valle,77706 CEDEX 4,1,2,7,NULL
1238,Fab User,2018-01-23 15:05:34,,Fab User,2018-01-23 15:05:34,48.8333,2.6333,Marne-la-Valle,77708 CEDEX 4,1,2,7,NULL
1239,Fab User,2018-01-23 15:05:34,,Fab User,2018-01-23 15:05:34,48.8333,2.6333,Marne-la-Valle,77709 CEDEX 4,1,2,7,NULL
1240,Fab User,2018-01-23 15:05:34,,Fab User,2018-01-23 15:05:34,48.2779,2.802,Treuzy-Levelay,77710,1,2,6,NULL
1241,Fab User,2018-01-23 15:05:34,,Fab User,2018-01-23 15:05:34,48.8333,2.6333,Marne-la-Valle,77711 CEDEX 4,1,2,7,NULL
1242,Fab User,2018-01-23 15:05:34,,Fab User,2018-01-23 15:05:34,48.8333,2.6333,Marne-la-Valle,77714 CEDEX 4,1,2,7,NULL
1243,Fab User,2018-01-23 15:05:34,,Fab User,2018-01-23 15:05:34,48.8333,2.6333,Marne-la-Valle,77715 CEDEX 4,1,2,7,NULL
1244,Fab User,2018-01-23 15:05:34,,Fab User,2018-01-23 15:05:34,48.8333,2.6333,Marne-la-Valle,77716 CEDEX 4,1,2,7,NULL
1245,Fab User,2018-01-23 15:05:34,,Fab User,2018-01-23 15:05:34,48.8333,2.6333,Marne-la-Valle,77717 CEDEX 4,1,2,7,NULL
1246,Fab User,2018-01-23 15:05:34,,Fab User,2018-01-23 15:05:34,48.5774,2.8258,Saint-Mry,77720,1,2,2,NULL
1247,Fab User,2018-01-23 15:05:34,,Fab User,2018-01-23 15:05:34,48.609,2.8903,Mormant,77721 CEDEX,1,2,2,NULL
1248,Fab User,2018-01-23 15:05:34,,Fab User,2018-01-23 15:05:34,48.609,2.8903,Mormant,77722 CEDEX,1,2,2,NULL
1249,Fab User,2018-01-23 15:05:34,,Fab User,2018-01-23 15:05:34,48.609,2.8903,Mormant,77723 CEDEX,1,2,2,NULL
1250,Fab User,2018-01-23 15:05:34,,Fab User,2018-01-23 15:05:34,48.9649,3.2001,Mry-sur-Marne,77730,1,2,4,NULL
1251,Fab User,2018-01-23 15:05:34,,Fab User,2018-01-23 15:05:34,48.898,3.2612,Boitron,77750,1,2,5,NULL
1252,Fab User,2018-01-23 15:05:34,,Fab User,2018-01-23 15:05:34,48.3546,2.5704,Achres-la-Fort,77760,1,2,6,NULL
1253,Fab User,2018-01-23 15:05:35,,Fab User,2018-01-23 15:05:35,48.8333,2.6333,Marne-la-Valle,77771 CEDEX 4,1,2,7,NULL
1254,Fab User,2018-01-23 15:05:35,,Fab User,2018-01-23 15:05:35,48.8333,2.6333,Marne-la-Valle,77772 CEDEX 4,1,2,7,NULL
1255,Fab User,2018-01-23 15:05:35,,Fab User,2018-01-23 15:05:35,48.8333,2.6333,Marne-la-Valle,77776 CEDEX 4,1,2,7,NULL
1256,Fab User,2018-01-23 15:05:35,,Fab User,2018-01-23 15:05:35,48.8333,2.6333,Marne-la-Valle,77777 CEDEX 4,1,2,7,NULL
1257,Fab User,2018-01-23 15:05:35,,Fab User,2018-01-23 15:05:35,48.8333,2.6333,Marne-la-Valle,77778 CEDEX 4,1,2,7,NULL
1258,Fab User,2018-01-23 15:05:35,,Fab User,2018-01-23 15:05:35,48.8333,2.6333,Marne-la-Valle,77779 CEDEX 4,1,2,7,NULL
1259,Fab User,2018-01-23 15:05:35,,Fab User,2018-01-23 15:05:35,48.3405,2.7004,Bourron-Marlotte,77780,1,2,6,NULL
1260,Fab User,2018-01-23 15:05:35,,Fab User,2018-01-23 15:05:35,48.2751,2.6908,Nemours,77791 CEDEX,1,2,6,NULL
1261,Fab User,2018-01-23 15:05:35,,Fab User,2018-01-23 15:05:35,48.2751,2.6908,Nemours,77792 CEDEX,1,2,6,NULL
1262,Fab User,2018-01-23 15:05:35,,Fab User,2018-01-23 15:05:35,48.2751,2.6908,Nemours,77793 CEDEX,1,2,6,NULL
1263,Fab User,2018-01-23 15:05:35,,Fab User,2018-01-23 15:05:35,48.2751,2.6908,Nemours,77794 CEDEX,1,2,6,NULL
1264,Fab User,2018-01-23 15:05:35,,Fab User,2018-01-23 15:05:35,48.2751,2.6908,Nemours,77795 CEDEX,1,2,6,NULL
1265,Fab User,2018-01-23 15:05:35,,Fab User,2018-01-23 15:05:35,48.2751,2.6908,Nemours,77796 CEDEX,1,2,6,NULL
1266,Fab User,2018-01-23 15:05:35,,Fab User,2018-01-23 15:05:35,48.2751,2.6908,Nemours,77798 CEDEX,1,2,6,NULL
1267,Fab User,2018-01-23 15:05:35,,Fab User,2018-01-23 15:05:35,48.2751,2.6908,Nemours,77799 CEDEX,1,2,6,NULL
1268,Fab User,2018-01-23 15:05:35,,Fab User,2018-01-23 15:05:35,48.4072,2.7885,Thomery,77810,1,2,6,NULL
1269,Fab User,2018-01-23 15:05:35,,Fab User,2018-01-23 15:05:35,48.3724,2.8171,Moret-sur-Loing,77811 CEDEX,1,2,6,NULL
1270,Fab User,2018-01-23 15:05:35,,Fab User,2018-01-23 15:05:35,48.3724,2.8171,Moret-sur-Loing,77813 CEDEX,1,2,6,NULL
1271,Fab User,2018-01-23 15:05:35,,Fab User,2018-01-23 15:05:35,48.3724,2.8171,Moret-sur-Loing,77814 CEDEX,1,2,6,NULL
1272,Fab User,2018-01-23 15:05:35,,Fab User,2018-01-23 15:05:35,48.3724,2.8171,Moret-sur-Loing,77815 CEDEX,1,2,6,NULL
1273,Fab User,2018-01-23 15:05:35,,Fab User,2018-01-23 15:05:35,48.3724,2.8171,Moret-sur-Loing,77816 CEDEX,1,2,6,NULL
1274,Fab User,2018-01-23 15:05:35,,Fab User,2018-01-23 15:05:35,48.3724,2.8171,Moret-sur-Loing,77817 CEDEX,1,2,6,NULL
1275,Fab User,2018-01-23 15:05:35,,Fab User,2018-01-23 15:05:35,48.3724,2.8171,Moret-sur-Loing,77818 CEDEX,1,2,6,NULL
1276,Fab User,2018-01-23 15:05:35,,Fab User,2018-01-23 15:05:35,48.3724,2.8171,Moret-sur-Loing,77819 CEDEX,1,2,6,NULL
1277,Fab User,2018-01-23 15:05:35,,Fab User,2018-01-23 15:05:35,48.5426,2.8089,Chtillon-la-Borde,77820,1,2,2,NULL
1278,Fab User,2018-01-23 15:05:35,,Fab User,2018-01-23 15:05:35,48.4428,2.8902,Valence-en-Brie,77830,1,2,2,NULL
1279,Fab User,2018-01-23 15:05:35,,Fab User,2018-01-23 15:05:35,48.767,2.6687,Ozoir-la-Ferrire,77831 CEDEX,1,2,3,NULL
1280,Fab User,2018-01-23 15:05:35,,Fab User,2018-01-23 15:05:35,48.767,2.6687,Ozoir-la-Ferrire,77832 CEDEX,1,2,3,NULL
1281,Fab User,2018-01-23 15:05:35,,Fab User,2018-01-23 15:05:35,48.767,2.6687,Ozoir-la-Ferrire,77833 CEDEX,1,2,3,NULL
1282,Fab User,2018-01-23 15:05:35,,Fab User,2018-01-23 15:05:35,48.767,2.6687,Ozoir-la-Ferrire,77834 CEDEX,1,2,3,NULL
1283,Fab User,2018-01-23 15:05:35,,Fab User,2018-01-23 15:05:35,48.767,2.6687,Ozoir-la-Ferrire,77835 CEDEX,1,2,3,NULL
1284,Fab User,2018-01-23 15:05:35,,Fab User,2018-01-23 15:05:35,48.767,2.6687,Ozoir-la-Ferrire,77837 CEDEX,1,2,3,NULL
1285,Fab User,2018-01-23 15:05:35,,Fab User,2018-01-23 15:05:35,48.767,2.6687,Ozoir-la-Ferrire,77838 CEDEX,1,2,3,NULL
1286,Fab User,2018-01-23 15:05:35,,Fab User,2018-01-23 15:05:35,48.767,2.6687,Ozoir-la-Ferrire,77839 CEDEX,1,2,3,NULL
1287,Fab User,2018-01-23 15:05:35,,Fab User,2018-01-23 15:05:35,49.0644,3.1591,Germigny-sous-Coulombs,77840,1,2,4,NULL
1288,Fab User,2018-01-23 15:05:35,,Fab User,2018-01-23 15:05:35,48.4485,2.7644,Hricy,77850,1,2,6,NULL
1289,Fab User,2018-01-23 15:05:35,,Fab User,2018-01-23 15:05:35,48.8826,2.8513,Saint-Germain-sur-Morin,77860,1,2,4,NULL
1290,Fab User,2018-01-23 15:05:35,,Fab User,2018-01-23 15:05:35,48.4319,2.7648,Vulaines-sur-Seine,77870,1,2,6,NULL
1291,Fab User,2018-01-23 15:05:35,,Fab User,2018-01-23 15:05:35,48.3833,2.95,Montereau-Fault-Yonne,77871 CEDEX,1,2,5,NULL
1292,Fab User,2018-01-23 15:05:35,,Fab User,2018-01-23 15:05:35,48.3833,2.95,Montereau-Fault-Yonne,77872 CEDEX,1,2,5,NULL
1293,Fab User,2018-01-23 15:05:35,,Fab User,2018-01-23 15:05:35,48.3833,2.95,Montereau-Fault-Yonne,77873 CEDEX,1,2,5,NULL
1294,Fab User,2018-01-23 15:05:35,,Fab User,2018-01-23 15:05:35,48.3833,2.95,Montereau-Fault-Yonne,77875 CEDEX,1,2,5,NULL
1295,Fab User,2018-01-23 15:05:35,,Fab User,2018-01-23 15:05:35,48.3833,2.95,Montereau-Fault-Yonne,77876 CEDEX,1,2,5,NULL
1296,Fab User,2018-01-23 15:05:35,,Fab User,2018-01-23 15:05:35,48.3833,2.95,Montereau-Fault-Yonne,77879 CEDEX,1,2,5,NULL
1297,Fab User,2018-01-23 15:05:35,,Fab User,2018-01-23 15:05:35,48.3175,2.6885,Grez-sur-Loing,77880,1,2,6,NULL
1298,Fab User,2018-01-23 15:05:35,,Fab User,2018-01-23 15:05:35,48.2361,2.5494,Garentreville,77890,1,2,6,NULL
1299,Fab User,2018-01-23 15:05:35,,Fab User,2018-01-23 15:05:35,48.9985,2.894,Chambry,77910,1,2,4,NULL
1300,Fab User,2018-01-23 15:05:35,,Fab User,2018-01-23 15:05:35,48.4525,2.7504,Samois-sur-Seine,77920,1,2,6,NULL
1301,Fab User,2018-01-23 15:05:35,,Fab User,2018-01-23 15:05:35,48.9833,2.6167,Mitry-Mory,77923 CEDEX,1,2,4,NULL
1302,Fab User,2018-01-23 15:05:35,,Fab User,2018-01-23 15:05:35,48.4782,2.5551,Perthes,77930,1,2,2,NULL
1303,Fab User,2018-01-23 15:05:35,,Fab User,2018-01-23 15:05:35,48.4782,2.5551,Perthes,77931 CEDEX,1,2,2,NULL
1304,Fab User,2018-01-23 15:05:35,,Fab User,2018-01-23 15:05:35,48.4782,2.5551,Perthes,77932 CEDEX,1,2,2,NULL
1305,Fab User,2018-01-23 15:05:35,,Fab User,2018-01-23 15:05:35,48.4782,2.5551,Perthes,77933 CEDEX,1,2,2,NULL
1306,Fab User,2018-01-23 15:05:35,,Fab User,2018-01-23 15:05:35,48.4782,2.5551,Perthes,77939 CEDEX,1,2,2,NULL
1307,Fab User,2018-01-23 15:05:35,,Fab User,2018-01-23 15:05:35,48.2577,3.023,Blennes,77940,1,2,6,NULL
1308,Fab User,2018-01-23 15:05:36,,Fab User,2018-01-23 15:05:36,48.5533,2.6759,Rubelles,77950,1,2,2,NULL
1309,Fab User,2018-01-23 15:05:36,,Fab User,2018-01-23 15:05:36,48.5498,2.7002,Maincy,77951 CEDEX,1,2,2,NULL
1310,Fab User,2018-01-23 15:05:36,,Fab User,2018-01-23 15:05:36,48.3724,2.8171,Moret-sur-Loing,77961 CEDEX,1,2,6,NULL
1311,Fab User,2018-01-23 15:05:36,,Fab User,2018-01-23 15:05:36,48.679,3.244,Bezalles,77970,1,2,5,NULL
1312,Fab User,2018-01-23 15:05:36,,Fab User,2018-01-23 15:05:36,48.5571,2.5284,Saint-Fargeau-Ponthierry,77981 CEDEX,1,2,2,NULL
1313,Fab User,2018-01-23 15:05:36,,Fab User,2018-01-23 15:05:36,48.5571,2.5284,Saint-Fargeau-Ponthierry,77982 CEDEX,1,2,2,NULL
1314,Fab User,2018-01-23 15:05:36,,Fab User,2018-01-23 15:05:36,48.5571,2.5284,Saint-Fargeau-Ponthierry,77983 CEDEX,1,2,2,NULL
1315,Fab User,2018-01-23 15:05:36,,Fab User,2018-01-23 15:05:36,48.5571,2.5284,Saint-Fargeau-Ponthierry,77986 CEDEX,1,2,2,NULL
1316,Fab User,2018-01-23 15:05:36,,Fab User,2018-01-23 15:05:36,48.5571,2.5284,Saint-Fargeau-Ponthierry,77989 CEDEX,1,2,2,NULL
1317,Fab User,2018-01-23 15:05:36,,Fab User,2018-01-23 15:05:36,49.0342,2.5806,Mauregard,77990,1,2,4,NULL
1318,Fab User,2018-01-23 15:05:36,,Fab User,2018-01-23 15:05:36,48.8,2.1333,Versailles,78000,1,3,8,NULL
1319,Fab User,2018-01-23 15:05:36,,Fab User,2018-01-23 15:05:36,48.8,2.1333,Versailles,78001 CEDEX,1,3,8,NULL
1320,Fab User,2018-01-23 15:05:36,,Fab User,2018-01-23 15:05:36,48.8,2.1333,Versailles,78002 CEDEX,1,3,8,NULL
1321,Fab User,2018-01-23 15:05:36,,Fab User,2018-01-23 15:05:36,48.8,2.1333,Versailles,78003 CEDEX,1,3,8,NULL
1322,Fab User,2018-01-23 15:05:36,,Fab User,2018-01-23 15:05:36,48.8,2.1333,Versailles,78004 CEDEX,1,3,8,NULL
1323,Fab User,2018-01-23 15:05:36,,Fab User,2018-01-23 15:05:36,48.8,2.1333,Versailles,78005 CEDEX,1,3,8,NULL
1324,Fab User,2018-01-23 15:05:36,,Fab User,2018-01-23 15:05:36,48.8,2.1333,Versailles,78006 CEDEX,1,3,8,NULL
1325,Fab User,2018-01-23 15:05:36,,Fab User,2018-01-23 15:05:36,48.8,2.1333,Versailles,78007 CEDEX,1,3,8,NULL
1326,Fab User,2018-01-23 15:05:36,,Fab User,2018-01-23 15:05:36,48.8,2.1333,Versailles,78008 CEDEX,1,3,8,NULL
1327,Fab User,2018-01-23 15:05:36,,Fab User,2018-01-23 15:05:36,48.8,2.1333,Versailles,78009 CEDEX,1,3,8,NULL
1328,Fab User,2018-01-23 15:05:36,,Fab User,2018-01-23 15:05:36,48.8,2.1333,Versailles,78010 CEDEX,1,3,8,NULL
1329,Fab User,2018-01-23 15:05:36,,Fab User,2018-01-23 15:05:36,48.8,2.1333,Versailles,78011 CEDEX,1,3,8,NULL
1330,Fab User,2018-01-23 15:05:36,,Fab User,2018-01-23 15:05:36,48.8,2.1333,Versailles,78012 CEDEX,1,3,8,NULL
1331,Fab User,2018-01-23 15:05:36,,Fab User,2018-01-23 15:05:36,48.8,2.1333,Versailles,78013 CEDEX,1,3,8,NULL
1332,Fab User,2018-01-23 15:05:36,,Fab User,2018-01-23 15:05:36,48.8,2.1333,Versailles,78014 CEDEX,1,3,8,NULL
1333,Fab User,2018-01-23 15:05:36,,Fab User,2018-01-23 15:05:36,48.8,2.1333,Versailles,78015 CEDEX,1,3,8,NULL
1334,Fab User,2018-01-23 15:05:36,,Fab User,2018-01-23 15:05:36,48.8,2.1333,Versailles,78017 CEDEX,1,3,8,NULL
1335,Fab User,2018-01-23 15:05:36,,Fab User,2018-01-23 15:05:36,48.8,2.1333,Versailles,78018 CEDEX,1,3,8,NULL
1336,Fab User,2018-01-23 15:05:36,,Fab User,2018-01-23 15:05:36,48.8,2.1333,Versailles,78019 CEDEX,1,3,8,NULL
1337,Fab User,2018-01-23 15:05:36,,Fab User,2018-01-23 15:05:36,48.8,2.1333,Versailles,78020 CEDEX,1,3,8,NULL
1338,Fab User,2018-01-23 15:05:36,,Fab User,2018-01-23 15:05:36,48.8,2.1333,Versailles,78021 CEDEX,1,3,8,NULL
